{
"type": "FeatureCollection",
"name": "20220512_142109_16M4_roads",
"crs": { "type": "name", "properties": { "name": "urn:ogc:def:crs:OGC:1.3:CRS84" } },
"features": [
{ "type": "Feature", "properties": { "osm_id": 15830343, "name": "Hay River Highway", "highway": "tertiary", "flooded_m": 345.93436429475241 }, "geometry": { "type": "MultiLineString", "coordinates": [ [ [ -115.755899036607033, 60.8653919707589 ], [ -115.757187398256363, 60.86540707301355 ] ], [ [ -115.757739553666923, 60.865413541631561 ], [ -115.757804300000018, 60.8654143 ], [ -115.758292271786217, 60.865405521173315 ] ], [ [ -115.758983861970009, 60.865374991725098 ], [ -115.75958457739236, 60.865318963377526 ] ], [ [ -115.761989930012362, 60.865019333811709 ], [ -115.762545416419243, 60.864939550556066 ] ], [ [ -115.764952477885018, 60.864594173638075 ], [ -115.765950424976083, 60.864451383720585 ] ], [ [ -115.766248545648835, 60.86440872583804 ], [ -115.766540136147796, 60.864367001602808 ] ], [ [ -115.768469856835381, 60.864103371937063 ], [ -115.769574734116489, 60.863945839716301 ] ], [ [ -115.769950999615233, 60.863892189753308 ], [ -115.770758281014437, 60.863777079052603 ] ] ] } },
{ "type": "Feature", "properties": { "osm_id": 28801944, "name": "Fort Smith Highway", "highway": "primary", "flooded_m": 46.567099796970609 }, "geometry": { "type": "MultiLineString", "coordinates": [ [ [ -115.810892457903122, 60.75311253139494 ], [ -115.810339492054368, 60.753179962494009 ] ], [ [ -115.810155169594552, 60.753202439018999 ], [ -115.809879165588583, 60.753236094780171 ] ] ] } },
{ "type": "Feature", "properties": { "osm_id": 28801966, "name": "Fort Smith Highway", "highway": "primary", "flooded_m": 95.038971454771627 }, "geometry": { "type": "MultiLineString", "coordinates": [ [ [ -115.827902120918708, 60.754616136608739 ], [ -115.827576277803189, 60.754469410830787 ] ], [ [ -115.825370958975441, 60.753582057181823 ], [ -115.825189386011886, 60.753529577200041 ] ], [ [ -115.824826047371658, 60.753429934165837 ], [ -115.823863389331123, 60.753179824361695 ] ] ] } },
{ "type": "Feature", "properties": { "osm_id": 28802131, "name": "Reserve Highway", "highway": "tertiary", "flooded_m": 243.43256829314444 }, "geometry": { "type": "MultiLineString", "coordinates": [ [ [ -115.729401621601198, 60.860299660630652 ], [ -115.72922202874382, 60.860186024862479 ] ], [ [ -115.729177846947849, 60.860158069067708 ], [ -115.7290001, 60.860045600000021 ], [ -115.728680572666576, 60.859912679575366 ] ], [ [ -115.727645228340648, 60.859335443707032 ], [ -115.727600174319463, 60.859303480515031 ] ], [ [ -115.727516949723039, 60.859244437326176 ], [ -115.727260394672271, 60.859062424200182 ] ], [ [ -115.723838482354438, 60.85714434754594 ], [ -115.723555746340523, 60.856962078578889 ] ], [ [ -115.723461689337753, 60.856901443078648 ], [ -115.723414379539548, 60.856870943874213 ] ], [ [ -115.721854796236244, 60.855652464502178 ], [ -115.721441263730853, 60.855325720697856 ] ], [ [ -115.721278086073838, 60.855144583485149 ], [ -115.721146661745607, 60.854963748063462 ] ], [ [ -115.72114603645764, 60.854962887683214 ], [ -115.721080950134407, 60.854873330304294 ] ], [ [ -115.754266606963242, 60.836387474645484 ], [ -115.754912470721393, 60.836424271746452 ] ], [ [ -115.755367980365961, 60.836450221796731 ], [ -115.755735105816655, 60.836471135511026 ] ] ] } },
{ "type": "Feature", "properties": { "osm_id": 28802173, "name": "Hay River Highway", "highway": "primary", "flooded_m": 948.03740308118302 }, "geometry": { "type": "MultiLineString", "coordinates": [ [ [ -115.77781299684861, 60.82927151000365 ], [ -115.777885567699727, 60.829706562304409 ] ], [ [ -115.777888001511059, 60.829721152470931 ], [ -115.7778963, 60.8297709 ], [ -115.777902998386779, 60.829811080917445 ] ], [ [ -115.778276146291418, 60.832328650958146 ], [ -115.778287545507823, 60.832418546609794 ] ], [ [ -115.778298944785206, 60.832508442259503 ], [ -115.778355799999986, 60.832956799999984 ], [ -115.778359068331795, 60.833047740914928 ] ], [ [ -115.778362296443106, 60.833137562276036 ], [ -115.7783655, 60.833226700000012 ], [ -115.778273, 60.8336041 ], [ -115.7781445, 60.8339412 ], [ -115.777691711568323, 60.834786166309399 ] ], [ [ -115.777424902647468, 60.835284047046535 ], [ -115.7771111, 60.8358696 ], [ -115.777053, 60.8359621 ], [ -115.7765784, 60.8369236 ], [ -115.776502480584526, 60.837023345601871 ] ], [ [ -115.776466085581319, 60.837071162400832 ], [ -115.776409199999989, 60.83714590000001 ], [ -115.77622820000002, 60.8373217 ], [ -115.7759455, 60.8375561 ], [ -115.775742236577273, 60.837693115420528 ] ], [ [ -115.775740952218101, 60.837693981174183 ], [ -115.7756666, 60.837744099999988 ], [ -115.775263607203996, 60.837958131187627 ] ], [ [ -115.77368701285809, 60.838482708719461 ], [ -115.773501366957262, 60.838526194008537 ] ], [ [ -115.773130084582377, 60.838612878512464 ], [ -115.77275912137317, 60.838691183191941 ] ], [ [ -115.772114174053328, 60.838827318382954 ], [ -115.772017189541216, 60.838847789461447 ] ], [ [ -115.77183171238039, 60.838886759860202 ], [ -115.771699703506101, 60.838913323656534 ] ], [ [ -115.771646298451898, 60.838924070164715 ], [ -115.771460884093827, 60.838961380212062 ] ], [ [ -115.769606716886329, 60.83933446654018 ], [ -115.769565474867562, 60.839342764663954 ] ], [ [ -115.769421297802964, 60.839371773758437 ], [ -115.7692994, 60.8393963 ], [ -115.768493969089889, 60.839564203556165 ] ], [ [ -115.767937545926642, 60.839680194039609 ], [ -115.767906172215859, 60.83968673402552 ] ], [ [ -115.767752070648029, 60.839718857019299 ], [ -115.767493561853442, 60.839772743510082 ] ], [ [ -115.767381118754429, 60.839796182206399 ], [ -115.76719564213947, 60.839834844413808 ] ], [ [ -115.767080949286623, 60.839858751720733 ], [ -115.766824687573262, 60.839912168056451 ] ], [ [ -115.762115729278946, 60.840890624742961 ], [ -115.7618296, 60.840949 ], [ -115.761816791898809, 60.840951661208642 ] ], [ [ -115.761696957017648, 60.840976559870825 ], [ -115.7607717, 60.8411688 ], [ -115.760510599999989, 60.841231599999986 ], [ -115.760343, 60.841283799999985 ], [ -115.759935499999983, 60.8414208 ], [ -115.759772225430524, 60.841484032683482 ] ], [ [ -115.759396149664852, 60.841692534974293 ], [ -115.75920750421885, 60.841812413603158 ] ] ] } },
{ "type": "Feature", "properties": { "osm_id": 28802330, "name": "105th Street", "highway": "residential", "flooded_m": 20.62650503981865 }, "geometry": { "type": "LineString", "coordinates": [ [ -115.744853651873086, 60.853211699707977 ], [ -115.744939438982257, 60.85339208520007 ] ] } },
{ "type": "Feature", "properties": { "osm_id": 28802338, "name": "106 Street", "highway": "residential", "flooded_m": 82.415766957963598 }, "geometry": { "type": "MultiLineString", "coordinates": [ [ [ -115.745709522449744, 60.848460690716898 ], [ -115.7457885, 60.8486486 ], [ -115.745954462121091, 60.849001730014649 ] ], [ [ -115.746208731973667, 60.849542743651448 ], [ -115.746251172862415, 60.849633043935334 ] ], [ [ -115.746335949483566, 60.849813419216503 ], [ -115.746378617409022, 60.849904201 ] ] ] } },
{ "type": "Feature", "properties": { "osm_id": 28802341, "name": "102nd Avenue", "highway": "residential", "flooded_m": 67.344966378072172 }, "geometry": { "type": "MultiLineString", "coordinates": [ [ [ -115.746378248676834, 60.849913613876701 ], [ -115.745725513273612, 60.849987310568984 ] ], [ [ -115.745638788984792, 60.849997101857433 ], [ -115.745084191714724, 60.850059715166111 ] ] ] } },
{ "type": "Feature", "properties": { "osm_id": 28802344, "name": "104th Avenue", "highway": "residential", "flooded_m": 44.038669231573564 }, "geometry": { "type": "LineString", "coordinates": [ [ -115.732413600000015, 60.8574337 ], [ -115.733200977744303, 60.857339825564182 ] ] } },
{ "type": "Feature", "properties": { "osm_id": 28802369, "name": "103rd Street", "highway": "residential", "flooded_m": 189.63763784722275 }, "geometry": { "type": "MultiLineString", "coordinates": [ [ [ -115.74370628865185, 60.860474163141561 ], [ -115.743624185395888, 60.860293811539208 ] ], [ [ -115.743336831197198, 60.859662580519988 ], [ -115.743073314258226, 60.859083690633526 ] ], [ [ -115.743049488193535, 60.859031348861471 ], [ -115.742895200000021, 60.8586924 ], [ -115.742630092325641, 60.858129504785694 ] ] ] } },
{ "type": "Feature", "properties": { "osm_id": 28802381, "name": "102nd Street", "highway": "residential", "flooded_m": 10.286268612662694 }, "geometry": { "type": "LineString", "coordinates": [ [ -115.738088883982599, 60.853507551139217 ], [ -115.738048083079306, 60.853417375734352 ] ] } },
{ "type": "Feature", "properties": { "osm_id": 28802409, "name": "100 Street", "highway": "residential", "flooded_m": 89.671113155416492 }, "geometry": { "type": "MultiLineString", "coordinates": [ [ [ -115.733468577604526, 60.853194731828928 ], [ -115.733542871870426, 60.853353433759295 ] ], [ [ -115.733553020476677, 60.853375112339357 ], [ -115.733679686547688, 60.853645683001908 ] ], [ [ -115.734730453747545, 60.855904745205009 ], [ -115.734814117642799, 60.856080760152899 ] ], [ [ -115.734856990151698, 60.856170956032884 ], [ -115.734899862899354, 60.856261151898714 ] ], [ [ -115.734900397982841, 60.856262277606369 ], [ -115.734942735885781, 60.856351347750376 ] ] ] } },
{ "type": "Feature", "properties": { "osm_id": 28802415, "name": null, "highway": "service", "flooded_m": 47.776480345468457 }, "geometry": { "type": "LineString", "coordinates": [ [ -115.737132316462663, 60.86166968230701 ], [ -115.7373084, 60.861651099999989 ], [ -115.738002909384917, 60.861611193800464 ] ] } },
{ "type": "Feature", "properties": { "osm_id": 28802430, "name": "105th Avenue", "highway": "residential", "flooded_m": 10.976079073799403 }, "geometry": { "type": "LineString", "coordinates": [ [ -115.742895200000021, 60.8586924 ], [ -115.743089733218113, 60.858665806588952 ] ] } },
{ "type": "Feature", "properties": { "osm_id": 28802432, "name": "Lakeshore Drive", "highway": "residential", "flooded_m": 145.10700444804382 }, "geometry": { "type": "MultiLineString", "coordinates": [ [ [ -115.742323304969673, 60.864112471754112 ], [ -115.743284100000011, 60.8643746 ], [ -115.743415905662886, 60.864422258683213 ] ], [ [ -115.743416050567006, 60.864422311077924 ], [ -115.744142116586914, 60.864684839333435 ] ], [ [ -115.744180813462961, 60.864698830975669 ], [ -115.744323671184404, 60.864750483887114 ] ], [ [ -115.744435737372172, 60.864791003314629 ], [ -115.744505226528517, 60.864816128197297 ] ], [ [ -115.748325295844268, 60.866009755715432 ], [ -115.7483651, 60.8660134 ], [ -115.748559762039179, 60.865996738167127 ] ] ] } },
{ "type": "Feature", "properties": { "osm_id": 28802576, "name": "Hay River Highway", "highway": "primary", "flooded_m": 65.495312004187639 }, "geometry": { "type": "LineString", "coordinates": [ [ -115.804874, 60.8001038 ], [ -115.8046709, 60.8001955 ], [ -115.803990269140641, 60.800502885760736 ] ] } },
{ "type": "Feature", "properties": { "osm_id": 119937336, "name": "Airport Rd", "highway": "service", "flooded_m": 222.28359376286983 }, "geometry": { "type": "MultiLineString", "coordinates": [ [ [ -115.7771111, 60.8358696 ], [ -115.7775375, 60.83593650000001 ], [ -115.777684, 60.8359721 ], [ -115.7779206, 60.8360388 ], [ -115.7780785, 60.8360882 ], [ -115.778192281117171, 60.836130844338747 ] ], [ [ -115.778289800132328, 60.836189831301844 ], [ -115.778292, 60.8361912 ], [ -115.778397899935555, 60.836280605805761 ] ], [ [ -115.77890303039527, 60.836789459798368 ], [ -115.77937483765146, 60.837277192783766 ] ], [ [ -115.779434016786254, 60.837338368334471 ], [ -115.779462469196147, 60.837367780498084 ] ], [ [ -115.779637733765966, 60.837548955755913 ], [ -115.7802722, 60.8382048 ] ] ] } },
{ "type": "Feature", "properties": { "osm_id": 119937338, "name": "Ash Road", "highway": "residential", "flooded_m": 8.9087904827596081 }, "geometry": { "type": "LineString", "coordinates": [ [ -115.795291350511832, 60.816830024404659 ], [ -115.7954522, 60.816815 ] ] } },
{ "type": "Feature", "properties": { "osm_id": 119937361, "name": "Caribou Crescent", "highway": "residential", "flooded_m": 69.354469575614601 }, "geometry": { "type": "MultiLineString", "coordinates": [ [ [ -115.777085228001212, 60.813461463602948 ], [ -115.777488353001402, 60.813644717176068 ] ], [ [ -115.779446091609259, 60.812887741539122 ], [ -115.77939109222757, 60.812853888058363 ] ], [ [ -115.779266469664904, 60.812777179439472 ], [ -115.7788714, 60.812534 ] ] ] } },
{ "type": "Feature", "properties": { "osm_id": 119937369, "name": "Covert Place", "highway": "residential", "flooded_m": 8.6123548215832848 }, "geometry": { "type": "LineString", "coordinates": [ [ -115.8038712, 60.7964535 ], [ -115.803955092692391, 60.796519054783921 ] ] } },
{ "type": "Feature", "properties": { "osm_id": 119937373, "name": "Dean Drive", "highway": "residential", "flooded_m": 184.17475784239048 }, "geometry": { "type": "MultiLineString", "coordinates": [ [ [ -115.803275460655428, 60.807411885079148 ], [ -115.803369168246874, 60.807298113895648 ] ], [ [ -115.803495714670277, 60.807144471408265 ], [ -115.803642548626797, 60.806966195415512 ] ], [ [ -115.804156454538884, 60.806342228104533 ], [ -115.804331757726459, 60.806129374793557 ] ], [ [ -115.804450106025939, 60.805985674422075 ], [ -115.804524267150995, 60.805895626097936 ] ], [ [ -115.804909277529262, 60.805428127831554 ], [ -115.805184206000362, 60.805094287246376 ] ], [ [ -115.805413892934666, 60.804826954444557 ], [ -115.8059248, 60.804256 ], [ -115.805872401255485, 60.804241999824349 ] ] ] } },
{ "type": "Feature", "properties": { "osm_id": 119937374, "name": "Dean Drive", "highway": "residential", "flooded_m": 153.48726315663691 }, "geometry": { "type": "MultiLineString", "coordinates": [ [ [ -115.7954522, 60.816815 ], [ -115.795476771275574, 60.816788367252521 ] ], [ [ -115.795493267844037, 60.816770486633388 ], [ -115.7955404, 60.8167194 ], [ -115.795801396260558, 60.816414081001007 ] ], [ [ -115.796943982718346, 60.81507743832772 ], [ -115.797136600000016, 60.8148521 ], [ -115.797684274443654, 60.814186146190416 ] ] ] } },
{ "type": "Feature", "properties": { "osm_id": 119937375, "name": "Reserve Highway", "highway": "tertiary", "flooded_m": 38.511303402242177 }, "geometry": { "type": "MultiLineString", "coordinates": [ [ [ -115.817712321584523, 60.754203271524439 ], [ -115.817650756982971, 60.753949929508622 ] ], [ [ -115.817646719859439, 60.753933316366407 ], [ -115.817624852856994, 60.753843331304886 ] ] ] } },
{ "type": "Feature", "properties": { "osm_id": 119937380, "name": "Gaetz Drive", "highway": "residential", "flooded_m": 123.31484825892917 }, "geometry": { "type": "MultiLineString", "coordinates": [ [ [ -115.778555925829195, 60.81695054936354 ], [ -115.7783985, 60.816921499999985 ], [ -115.7783161, 60.8169215 ], [ -115.77764008453768, 60.81686036120184 ] ], [ [ -115.775624635541789, 60.816678062562595 ], [ -115.7744732, 60.8165739 ], [ -115.774315900000019, 60.8165692 ] ] ] } },
{ "type": "Feature", "properties": { "osm_id": 119937386, "name": "Industrial Drive", "highway": "residential", "flooded_m": 77.436326000257651 }, "geometry": { "type": "MultiLineString", "coordinates": [ [ [ -115.793356092872259, 60.809632495894327 ], [ -115.793409133552728, 60.809568424717106 ] ], [ [ -115.79348291799559, 60.809479295378075 ], [ -115.793758, 60.809147 ], [ -115.793855891983583, 60.809033684476326 ] ], [ [ -115.79412561962414, 60.8087214548761 ], [ -115.794240751463335, 60.80858817926044 ] ] ] } },
{ "type": "Feature", "properties": { "osm_id": 119937388, "name": "John Mapes Crescent", "highway": "residential", "flooded_m": 51.732324384191514 }, "geometry": { "type": "LineString", "coordinates": [ [ -115.8091702, 60.795513399999983 ], [ -115.8092291, 60.7957784 ], [ -115.809268800000012, 60.7959093 ], [ -115.809307075044785, 60.795972123980626 ] ] } },
{ "type": "Feature", "properties": { "osm_id": 119937393, "name": "MacKenzie Highway", "highway": "residential", "flooded_m": 16.403780551857924 }, "geometry": { "type": "LineString", "coordinates": [ [ -115.760510599999989, 60.841231599999986 ], [ -115.760338680693977, 60.841110568758488 ] ] } },
{ "type": "Feature", "properties": { "osm_id": 119937394, "name": "Mackie Place", "highway": "residential", "flooded_m": 25.218690940800172 }, "geometry": { "type": "LineString", "coordinates": [ [ -115.7963462, 60.801012900000011 ], [ -115.7966136, 60.8011978 ] ] } },
{ "type": "Feature", "properties": { "osm_id": 119937401, "name": "McBryan Drive", "highway": "residential", "flooded_m": 51.137670686232688 }, "geometry": { "type": "LineString", "coordinates": [ [ -115.7963462, 60.801012900000011 ], [ -115.796427400000013, 60.8009885 ], [ -115.797179905251625, 60.800801489979634 ] ] } },
{ "type": "Feature", "properties": { "osm_id": 119937403, "name": "McBryan Drive", "highway": "residential", "flooded_m": 105.7525019284429 }, "geometry": { "type": "MultiLineString", "coordinates": [ [ [ -115.795229998529535, 60.801772856778769 ], [ -115.795308913026361, 60.801689528744632 ] ], [ [ -115.795314318458139, 60.801683820979669 ], [ -115.7955492, 60.801435800000014 ], [ -115.7957162, 60.801293 ], [ -115.7958698, 60.801196 ], [ -115.7960772, 60.801101699999982 ], [ -115.7962119, 60.80105319999997 ], [ -115.7963462, 60.801012900000011 ] ] ] } },
{ "type": "Feature", "properties": { "osm_id": 119937410, "name": "Miron Drive", "highway": "residential", "flooded_m": 11.938039912561919 }, "geometry": { "type": "LineString", "coordinates": [ [ -115.808952839356493, 60.795527637522156 ], [ -115.8091702, 60.795513399999983 ] ] } },
{ "type": "Feature", "properties": { "osm_id": 119937412, "name": "Miron Drive", "highway": "residential", "flooded_m": 6.106343519349017 }, "geometry": { "type": "LineString", "coordinates": [ [ -115.815783730490324, 60.794639318814639 ], [ -115.815851214902096, 60.794683109084289 ] ] } },
{ "type": "Feature", "properties": { "osm_id": 119937414, "name": "Miron Drive", "highway": "residential", "flooded_m": 3.7057714112343851 }, "geometry": { "type": "LineString", "coordinates": [ [ -115.807227700000013, 60.795644 ], [ -115.80729509519918, 60.795639306496881 ] ] } },
{ "type": "Feature", "properties": { "osm_id": 119937417, "name": "Miron Drive", "highway": "residential", "flooded_m": 36.500880664614357 }, "geometry": { "type": "MultiLineString", "coordinates": [ [ [ -115.8038712, 60.7964535 ], [ -115.803983, 60.7964037 ], [ -115.804060356916878, 60.796374462542708 ] ], [ [ -115.804145420875216, 60.796342312054712 ], [ -115.804292460273999, 60.796286737257113 ] ], [ [ -115.804331783962709, 60.796271874472644 ], [ -115.804518146232894, 60.796201436628948 ] ] ] } },
{ "type": "Feature", "properties": { "osm_id": 119937418, "name": "Miron Drive", "highway": "residential", "flooded_m": 75.561640915784267 }, "geometry": { "type": "MultiLineString", "coordinates": [ [ [ -115.802657600632841, 60.79699050766434 ], [ -115.8026576, 60.7969905 ], [ -115.802718900000016, 60.796920899999989 ], [ -115.803399180393157, 60.796644965117849 ] ], [ [ -115.803416105434536, 60.796638099888838 ], [ -115.803585742267884, 60.796569290575469 ] ], [ [ -115.803772303263216, 60.796493615770622 ], [ -115.8038712, 60.7964535 ] ] ] } },
{ "type": "Feature", "properties": { "osm_id": 119937421, "name": "Miron Drive", "highway": "residential", "flooded_m": 8.2483052033797293 }, "geometry": { "type": "LineString", "coordinates": [ [ -115.8091702, 60.795513399999983 ], [ -115.809321084698055, 60.795506609901565 ] ] } },
{ "type": "Feature", "properties": { "osm_id": 119937422, "name": "Miron Drive", "highway": "residential", "flooded_m": 16.918675668391238 }, "geometry": { "type": "LineString", "coordinates": [ [ -115.806926090563749, 60.79568066605993 ], [ -115.807227700000013, 60.795644 ] ] } },
{ "type": "Feature", "properties": { "osm_id": 119937425, "name": "Miron Drive", "highway": "residential", "flooded_m": 21.157824786703912 }, "geometry": { "type": "LineString", "coordinates": [ [ -115.812455192307311, 60.795218684326272 ], [ -115.8125406, 60.795207699999985 ], [ -115.812824816723435, 60.79516023286083 ] ] } },
{ "type": "Feature", "properties": { "osm_id": 119937446, "name": "Poplar Road", "highway": "residential", "flooded_m": 46.632834222577969 }, "geometry": { "type": "MultiLineString", "coordinates": [ [ [ -115.7950549965215, 60.813623838175594 ], [ -115.795774013705881, 60.813770925405649 ] ], [ [ -115.79643217504217, 60.813905558983912 ], [ -115.796503757919268, 60.813920201725423 ] ] ] } },
{ "type": "Feature", "properties": { "osm_id": 119937458, "name": "Riverbend Road", "highway": "residential", "flooded_m": 4.7066278835711719 }, "geometry": { "type": "LineString", "coordinates": [ [ -115.807227700000013, 60.795644 ], [ -115.807252264097997, 60.795684513622511 ] ] } },
{ "type": "Feature", "properties": { "osm_id": 119937460, "name": "Riverview Drive", "highway": "residential", "flooded_m": 213.28766039405414 }, "geometry": { "type": "LineString", "coordinates": [ [ -115.774315900000019, 60.8165692 ], [ -115.7744675, 60.8160863 ], [ -115.774702, 60.815309099999979 ], [ -115.774911700000018, 60.8149268 ], [ -115.7750464, 60.8147699 ], [ -115.775103385914605, 60.814700500953464 ] ] } },
{ "type": "Feature", "properties": { "osm_id": 119937462, "name": "Riverview Drive", "highway": "residential", "flooded_m": 99.750941297230554 }, "geometry": { "type": "MultiLineString", "coordinates": [ [ [ -115.7788714, 60.812534 ], [ -115.779730700000016, 60.812178399999986 ], [ -115.780214746238798, 60.812012144401699 ] ], [ [ -115.7803528746621, 60.81196470072576 ], [ -115.780401008449218, 60.811948167901114 ] ], [ [ -115.780910417087895, 60.811790176926067 ], [ -115.780959037575073, 60.811776037065187 ] ] ] } },
{ "type": "Feature", "properties": { "osm_id": 119937469, "name": "Riverview Drive", "highway": "residential", "flooded_m": 61.537675871978315 }, "geometry": { "type": "LineString", "coordinates": [ [ -115.77415824568358, 60.81711627286419 ], [ -115.774315900000019, 60.8165692 ] ] } },
{ "type": "Feature", "properties": { "osm_id": 119937474, "name": "Riverview Drive", "highway": "residential", "flooded_m": 50.223246129571663 }, "geometry": { "type": "LineString", "coordinates": [ [ -115.776072342668471, 60.82252125717833 ], [ -115.7753526, 60.822238799999987 ] ] } },
{ "type": "Feature", "properties": { "osm_id": 119937475, "name": "Riverview Drive", "highway": "residential", "flooded_m": 93.20532805084089 }, "geometry": { "type": "MultiLineString", "coordinates": [ [ [ -115.777038010159671, 60.813366103157499 ], [ -115.777217224469112, 60.81328308050368 ] ], [ [ -115.777225153506819, 60.813279407289542 ], [ -115.777412295841856, 60.813192711156937 ] ], [ [ -115.777977583148484, 60.81293082996973 ], [ -115.7784536, 60.8127103 ], [ -115.7788714, 60.812534 ] ] ] } },
{ "type": "Feature", "properties": { "osm_id": 119937480, "name": "Riverview Drive", "highway": "residential", "flooded_m": 134.3662596565006 }, "geometry": { "type": "MultiLineString", "coordinates": [ [ [ -115.7753526, 60.822238799999987 ], [ -115.775163554237608, 60.822153807404412 ] ], [ [ -115.774869923134844, 60.821991713614963 ], [ -115.774739899999986, 60.821888099999988 ], [ -115.774732468455937, 60.82188050047548 ] ], [ [ -115.774643871234545, 60.821789900320333 ], [ -115.7745453, 60.8216891 ], [ -115.774192844944949, 60.821247033010202 ] ], [ [ -115.773677555575333, 60.820523993020636 ], [ -115.773623499999985, 60.8204193 ], [ -115.773592, 60.820314899999985 ], [ -115.773573760438168, 60.820163876586584 ] ] ] } },
{ "type": "Feature", "properties": { "osm_id": 119937489, "name": "Service Road", "highway": "residential", "flooded_m": 44.695983451385111 }, "geometry": { "type": "LineString", "coordinates": [ [ -115.786812518574465, 60.814627163214041 ], [ -115.7865093, 60.8150001 ] ] } },
{ "type": "Feature", "properties": { "osm_id": 119937490, "name": "Service Road", "highway": "residential", "flooded_m": 19.794387953184341 }, "geometry": { "type": "LineString", "coordinates": [ [ -115.804631807319879, 60.799971230810989 ], [ -115.804874, 60.8001038 ] ] } },
{ "type": "Feature", "properties": { "osm_id": 119937491, "name": "Service Road", "highway": "residential", "flooded_m": 0.26802504115466058 }, "geometry": { "type": "LineString", "coordinates": [ [ -115.804006892306589, 60.800057176122792 ], [ -115.804010406844881, 60.800055490668328 ] ] } },
{ "type": "Feature", "properties": { "osm_id": 119937492, "name": "Service Road", "highway": "residential", "flooded_m": 8.7179504707398721 }, "geometry": { "type": "LineString", "coordinates": [ [ -115.7865093, 60.8150001 ], [ -115.786450209641487, 60.815072851548088 ] ] } },
{ "type": "Feature", "properties": { "osm_id": 119937493, "name": "Service Road", "highway": "residential", "flooded_m": 64.639699650547399 }, "geometry": { "type": "MultiLineString", "coordinates": [ [ [ -115.785343484046365, 60.81640973189608 ], [ -115.7849581574377, 60.816855208245507 ] ], [ [ -115.78488109082322, 60.816944303375664 ], [ -115.784804023777838, 60.817033398459223 ] ] ] } },
{ "type": "Feature", "properties": { "osm_id": 119937501, "name": "Spruce Road", "highway": "residential", "flooded_m": 10.674167904477919 }, "geometry": { "type": "LineString", "coordinates": [ [ -115.802083613094553, 60.807270141781665 ], [ -115.802266099787786, 60.807305291489108 ] ] } },
{ "type": "Feature", "properties": { "osm_id": 119937504, "name": "Stewart Drive", "highway": "residential", "flooded_m": 0.56637541111647915 }, "geometry": { "type": "LineString", "coordinates": [ [ -115.800533567114343, 60.799395939941967 ], [ -115.800540356187028, 60.799392086506174 ] ] } },
{ "type": "Feature", "properties": { "osm_id": 119937508, "name": "Stewart Drive", "highway": "residential", "flooded_m": 11.907137153647998 }, "geometry": { "type": "LineString", "coordinates": [ [ -115.804459523943919, 60.79781468914581 ], [ -115.804643900904438, 60.79775716311071 ] ] } },
{ "type": "Feature", "properties": { "osm_id": 119937512, "name": "Studney Drive", "highway": "residential", "flooded_m": 86.563020212984298 }, "geometry": { "type": "MultiLineString", "coordinates": [ [ [ -115.792784348082236, 60.815052318800298 ], [ -115.793285020330728, 60.814416079509279 ] ], [ [ -115.793425343717331, 60.814237755837965 ], [ -115.793495504821351, 60.814148593943969 ] ] ] } },
{ "type": "Feature", "properties": { "osm_id": 119937516, "name": "Studney Drive", "highway": "residential", "flooded_m": 53.86583218588158 }, "geometry": { "type": "LineString", "coordinates": [ [ -115.800967436257537, 60.805236295608744 ], [ -115.801352370560835, 60.804790771329721 ] ] } },
{ "type": "Feature", "properties": { "osm_id": 119937520, "name": "Willow Road", "highway": "residential", "flooded_m": 58.989387935872784 }, "geometry": { "type": "MultiLineString", "coordinates": [ [ [ -115.805165747135433, 60.804106411914475 ], [ -115.804686269607146, 60.804012353873688 ] ], [ [ -115.804412706083767, 60.803958688512836 ], [ -115.804206794908637, 60.803918294127854 ] ], [ [ -115.804047814402239, 60.80388710602702 ], [ -115.803727323039936, 60.803824232677066 ] ] ] } },
{ "type": "Feature", "properties": { "osm_id": 119937522, "name": "Woodland Drive", "highway": "residential", "flooded_m": 7.4608059976543277 }, "geometry": { "type": "LineString", "coordinates": [ [ -115.790102842695163, 60.808164732481309 ], [ -115.790153380265892, 60.808102467692919 ] ] } },
{ "type": "Feature", "properties": { "osm_id": 119937525, "name": "Woodland Drive", "highway": "residential", "flooded_m": 59.424909849721971 }, "geometry": { "type": "LineString", "coordinates": [ [ -115.7753526, 60.822238799999987 ], [ -115.775980475149225, 60.82180220147221 ] ] } },
{ "type": "Feature", "properties": { "osm_id": 119937530, "name": "Woodland Drive", "highway": "residential", "flooded_m": 18.29315342643747 }, "geometry": { "type": "LineString", "coordinates": [ [ -115.78939507347873, 60.808993557177914 ], [ -115.789494, 60.8088791 ], [ -115.789525842967649, 60.808842260476432 ] ] } },
{ "type": "Feature", "properties": { "osm_id": 119937550, "name": "Whitlock Rd", "highway": "unclassified", "flooded_m": 32.06481370314345 }, "geometry": { "type": "MultiLineString", "coordinates": [ [ [ -115.772310800000014, 60.8393592 ], [ -115.771994803914836, 60.839431430641071 ] ], [ [ -115.765063996522713, 60.841636079879869 ], [ -115.764904999799228, 60.841724411258717 ] ] ] } },
{ "type": "Feature", "properties": { "osm_id": 119937555, "name": null, "highway": "tertiary", "flooded_m": 25.982126090248716 }, "geometry": { "type": "LineString", "coordinates": [ [ -115.807195551292011, 60.852645462276229 ], [ -115.807142200000015, 60.8526381 ], [ -115.806754, 60.8525565 ] ] } },
{ "type": "Feature", "properties": { "osm_id": 119937558, "name": null, "highway": "residential", "flooded_m": 10.071420048186384 }, "geometry": { "type": "LineString", "coordinates": [ [ -115.814524793572744, 60.751391580933074 ], [ -115.814550065851961, 60.75130201178667 ] ] } },
{ "type": "Feature", "properties": { "osm_id": 119937565, "name": null, "highway": "residential", "flooded_m": 28.371756380615331 }, "geometry": { "type": "MultiLineString", "coordinates": [ [ [ -115.758075151858577, 60.842543278079027 ], [ -115.758047100000013, 60.8425353 ], [ -115.757825600000018, 60.842483 ], [ -115.757775392062655, 60.842466845814549 ] ], [ [ -115.757530963100592, 60.842341714007546 ], [ -115.75751870000002, 60.8423218 ], [ -115.7575243, 60.84227090000001 ], [ -115.757534370482603, 60.842253922846261 ] ] ] } },
{ "type": "Feature", "properties": { "osm_id": 119937566, "name": null, "highway": "track", "flooded_m": 21.561527683085814 }, "geometry": { "type": "MultiLineString", "coordinates": [ [ [ -115.825920838573666, 60.75359836742539 ], [ -115.825739115376578, 60.75354997148964 ] ], [ [ -115.825374879161117, 60.753474828099428 ], [ -115.825284300000021, 60.75346 ], [ -115.825191739964666, 60.753465199299036 ] ] ] } },
{ "type": "Feature", "properties": { "osm_id": 119937573, "name": null, "highway": "residential", "flooded_m": 45.839001934649936 }, "geometry": { "type": "MultiLineString", "coordinates": [ [ [ -115.806754, 60.8525565 ], [ -115.806772907181397, 60.852608156222828 ] ], [ [ -115.806805879778352, 60.852698240102718 ], [ -115.806839100000019, 60.852789 ], [ -115.80685219728754, 60.852878233662722 ] ], [ [ -115.806289251698772, 60.854669062446852 ], [ -115.806196921300739, 60.854744966496241 ] ], [ [ -115.805963145593793, 60.854845749554862 ], [ -115.805822882762158, 60.854902877647866 ] ] ] } },
{ "type": "Feature", "properties": { "osm_id": 119937579, "name": null, "highway": "unclassified", "flooded_m": 154.8272905187751 }, "geometry": { "type": "MultiLineString", "coordinates": [ [ [ -115.776358311781223, 60.839225189048008 ], [ -115.7763505, 60.839215 ], [ -115.776315130084726, 60.839135003970917 ] ], [ [ -115.776243502357985, 60.838985854107761 ], [ -115.776219800000021, 60.8389451 ], [ -115.776064135518865, 60.838865103708422 ] ], [ [ -115.776060647251569, 60.838863311074178 ], [ -115.775935700000019, 60.8387991 ], [ -115.775883264267733, 60.838783736535134 ] ], [ [ -115.775841583523757, 60.838771524214806 ], [ -115.775701321008754, 60.838730427598058 ] ], [ [ -115.774223673584714, 60.838881809306194 ], [ -115.773852157885401, 60.838974530730354 ] ], [ [ -115.773665696307532, 60.839021066484818 ], [ -115.772310800000014, 60.8393592 ] ] ] } },
{ "type": "Feature", "properties": { "osm_id": 119937580, "name": "Miron Drive", "highway": "residential", "flooded_m": 139.44846428617103 }, "geometry": { "type": "MultiLineString", "coordinates": [ [ [ -115.815974810882594, 60.794440115601496 ], [ -115.816048134955807, 60.794415469751563 ] ], [ [ -115.818148547977543, 60.793536053060947 ], [ -115.818214045469958, 60.793503065674265 ] ], [ [ -115.818474893083234, 60.793359341130106 ], [ -115.8185622, 60.7933077 ], [ -115.818589206362674, 60.793293457243372 ] ], [ [ -115.818631919732908, 60.79327093080596 ], [ -115.818776564231811, 60.793194646971173 ] ], [ [ -115.81896684707695, 60.793094293206451 ], [ -115.819151276505991, 60.79299702562875 ] ], [ [ -115.820091987403615, 60.792385849454377 ], [ -115.820282921646069, 60.792199238499776 ] ], [ [ -115.821693855434219, 60.79051428698947 ], [ -115.821753567915678, 60.790425019137665 ] ], [ [ -115.82181832335705, 60.790335795508263 ], [ -115.821821201915014, 60.790332050129265 ] ], [ [ -115.821886871546155, 60.790246605125176 ], [ -115.822014121094654, 60.790081034982563 ] ], [ [ -115.822572310101378, 60.789354699052993 ], [ -115.822640852954791, 60.789265508250871 ] ], [ [ -115.822785768730512, 60.789076936070913 ], [ -115.8228296, 60.7890199 ], [ -115.822978383873405, 60.788833792790534 ] ] ] } },
{ "type": "Feature", "properties": { "osm_id": 119937582, "name": null, "highway": "unclassified", "flooded_m": 36.751543312755622 }, "geometry": { "type": "LineString", "coordinates": [ [ -115.756681730395414, 60.840519260660983 ], [ -115.756671400000016, 60.8405205 ], [ -115.756058, 60.8406464 ] ] } },
{ "type": "Feature", "properties": { "osm_id": 119937589, "name": "Miron Drive", "highway": "residential", "flooded_m": 34.371625758696595 }, "geometry": { "type": "LineString", "coordinates": [ [ -115.829113416468147, 60.781795887367082 ], [ -115.828743024322506, 60.782045742054542 ] ] } },
{ "type": "Feature", "properties": { "osm_id": 119937599, "name": "Winter Road", "highway": "unclassified", "flooded_m": 50.848226584610515 }, "geometry": { "type": "LineString", "coordinates": [ [ -115.774099818867896, 60.822895013667726 ], [ -115.775022125286256, 60.822820377037928 ] ] } },
{ "type": "Feature", "properties": { "osm_id": 119937607, "name": null, "highway": "residential", "flooded_m": 14.574494001184197 }, "geometry": { "type": "LineString", "coordinates": [ [ -115.780507253525727, 60.838141873899644 ], [ -115.7802722, 60.8382048 ] ] } },
{ "type": "Feature", "properties": { "osm_id": 119937608, "name": null, "highway": "residential", "flooded_m": 25.864718178468038 }, "geometry": { "type": "MultiLineString", "coordinates": [ [ [ -115.77187726364339, 60.838914946078802 ], [ -115.771955027988241, 60.839005448618195 ] ], [ [ -115.77218614109097, 60.839239733317235 ], [ -115.772310800000014, 60.8393592 ] ] ] } },
{ "type": "Feature", "properties": { "osm_id": 119937610, "name": null, "highway": "residential", "flooded_m": 20.632229965220148 }, "geometry": { "type": "LineString", "coordinates": [ [ -115.7865093, 60.8150001 ], [ -115.786864200000011, 60.815065399999988 ] ] } },
{ "type": "Feature", "properties": { "osm_id": 119937613, "name": null, "highway": "residential", "flooded_m": 288.18913057896941 }, "geometry": { "type": "MultiLineString", "coordinates": [ [ [ -115.814439551477051, 60.751465022749656 ], [ -115.813710076838959, 60.751344594746129 ] ], [ [ -115.813390029068714, 60.751291756948213 ], [ -115.8121462, 60.7510864 ], [ -115.811885884455023, 60.751057838407412 ] ], [ [ -115.811337337979211, 60.751006818506177 ], [ -115.8108632, 60.7509831 ], [ -115.8104756, 60.750995599999989 ], [ -115.810290600000016, 60.7510141 ], [ -115.810235799158349, 60.751024988525103 ] ], [ [ -115.809496445300283, 60.751171889793973 ], [ -115.8093605, 60.7511989 ], [ -115.809127648798182, 60.751221514905318 ] ], [ [ -115.808211057092223, 60.751199860214115 ], [ -115.808174800000018, 60.7511984 ], [ -115.808027752857839, 60.751195152472818 ] ], [ [ -115.807661095654808, 60.751187054166273 ], [ -115.807294438648242, 60.751178954858212 ] ], [ [ -115.806193537194275, 60.751179726333675 ], [ -115.8060718, 60.7511909 ], [ -115.805896526055278, 60.751225271862246 ] ], [ [ -115.805824360946716, 60.751239423616084 ], [ -115.8055741, 60.7512885 ], [ -115.805439, 60.7512999 ], [ -115.805310800000015, 60.7512945 ], [ -115.805272158552341, 60.751286889365076 ] ] ] } },
{ "type": "Feature", "properties": { "osm_id": 119937615, "name": null, "highway": "residential", "flooded_m": 157.72933683058966 }, "geometry": { "type": "MultiLineString", "coordinates": [ [ [ -115.7618296, 60.840949 ], [ -115.761986400000012, 60.8413288 ], [ -115.7620699, 60.8415246 ], [ -115.762054899999981, 60.8416212 ], [ -115.761929100000017, 60.8417043 ], [ -115.7618563, 60.8417054 ], [ -115.7616626, 60.8416853 ], [ -115.761604402971429, 60.841685681901623 ] ], [ [ -115.761052676006301, 60.841678708602522 ], [ -115.7610049, 60.8416724 ], [ -115.7608822, 60.841663899999986 ], [ -115.760718200000014, 60.841654399999989 ], [ -115.760594800000021, 60.8416528 ], [ -115.760555511299813, 60.841684377847237 ] ], [ [ -115.760498442304481, 60.841736482227482 ], [ -115.7604625, 60.8417706 ], [ -115.760309587131928, 60.841861877589615 ] ], [ [ -115.75910845147196, 60.842119988884079 ], [ -115.75901213931111, 60.842105591238024 ] ] ] } },
{ "type": "Feature", "properties": { "osm_id": 119937626, "name": null, "highway": "residential", "flooded_m": 29.194453818629157 }, "geometry": { "type": "MultiLineString", "coordinates": [ [ [ -115.822087318884812, 60.78746481670386 ], [ -115.822111630296874, 60.78742520047318 ] ], [ [ -115.8221421265781, 60.787375505652307 ], [ -115.822196933963696, 60.787286194576353 ] ], [ [ -115.82228912014989, 60.78719721134437 ], [ -115.8223611, 60.7871452 ], [ -115.822489829378327, 60.787130155731305 ] ] ] } },
{ "type": "Feature", "properties": { "osm_id": 119937632, "name": null, "highway": "service", "flooded_m": 49.374754841899957 }, "geometry": { "type": "LineString", "coordinates": [ [ -115.80447708314793, 60.797303062435972 ], [ -115.803708690677709, 60.797538626958527 ] ] } },
{ "type": "Feature", "properties": { "osm_id": 119937635, "name": "Miron Drive", "highway": "residential", "flooded_m": 17.800483941854392 }, "geometry": { "type": "LineString", "coordinates": [ [ -115.825404513010611, 60.785698040408349 ], [ -115.825292024571652, 60.785848089198943 ] ] } },
{ "type": "Feature", "properties": { "osm_id": 119937636, "name": null, "highway": "residential", "flooded_m": 60.04257033502445 }, "geometry": { "type": "LineString", "coordinates": [ [ -115.85579073320217, 60.754699414419107 ], [ -115.856892104665846, 60.754688503845202 ] ] } },
{ "type": "Feature", "properties": { "osm_id": 119937647, "name": null, "highway": "track", "flooded_m": 49.641625189072087 }, "geometry": { "type": "LineString", "coordinates": [ [ -115.838654879199623, 60.751575671021016 ], [ -115.838526299999984, 60.7516665 ], [ -115.8382133, 60.751934 ], [ -115.838187352777311, 60.751957742444411 ] ] } },
{ "type": "Feature", "properties": { "osm_id": 119937651, "name": null, "highway": "tertiary", "flooded_m": 361.23306023188218 }, "geometry": { "type": "MultiLineString", "coordinates": [ [ [ -115.806754, 60.8525565 ], [ -115.8063533, 60.8516614 ], [ -115.806112943946516, 60.851165637133683 ] ], [ [ -115.799584406198719, 60.838626489963055 ], [ -115.7994945, 60.8385336 ], [ -115.799354, 60.8384031 ], [ -115.799295927708798, 60.838354538634569 ] ], [ [ -115.798729316247957, 60.837921072601404 ], [ -115.7980485, 60.8374089 ], [ -115.7979943, 60.837367899999983 ], [ -115.797858733323238, 60.837264193467078 ] ], [ [ -115.797621204753483, 60.837082485628379 ], [ -115.797502441476837, 60.836991631552621 ] ], [ [ -115.785469125276606, 60.827904248269327 ], [ -115.7849877, 60.827525799999989 ], [ -115.7849575, 60.8275051 ], [ -115.784779114501404, 60.827382974012494 ] ] ] } },
{ "type": "Feature", "properties": { "osm_id": 119937664, "name": null, "highway": "tertiary", "flooded_m": 610.3850913168352 }, "geometry": { "type": "MultiLineString", "coordinates": [ [ [ -115.824322351516031, 60.852394578757171 ], [ -115.824692356148873, 60.852343173286286 ] ], [ [ -115.824869389776126, 60.852318577237199 ], [ -115.825802362979005, 60.852188950743027 ] ], [ [ -115.836582533511418, 60.849304403269642 ], [ -115.836955459093389, 60.849171071657743 ] ], [ [ -115.837145712794978, 60.849103049662475 ], [ -115.83763612423121, 60.848927708757003 ] ], [ [ -115.837701300952062, 60.848904405298029 ], [ -115.837881327937794, 60.848840037626417 ] ], [ [ -115.83788775947815, 60.84883773805479 ], [ -115.838633585828163, 60.848571066468608 ] ], [ [ -115.839006930508248, 60.848425705693685 ], [ -115.839567293268374, 60.848197951820012 ] ], [ [ -115.843863143092236, 60.846451760239788 ], [ -115.844042105353864, 60.846379007908567 ] ], [ [ -115.844049908549721, 60.846375835714547 ], [ -115.844236699999982, 60.846299899999984 ], [ -115.8447579, 60.8461337 ], [ -115.845723597356496, 60.845891064910866 ] ], [ [ -115.845909299873639, 60.845844405234992 ], [ -115.846554607372653, 60.845682261997766 ] ], [ [ -115.846652104549506, 60.845657763948836 ], [ -115.846837804370281, 60.845611102981636 ] ], [ [ -115.846900156698936, 60.845595435565535 ], [ -115.847245704157928, 60.845508608239051 ] ], [ [ -115.84758056510708, 60.845425377377161 ], [ -115.847595319346041, 60.845421814902899 ] ], [ [ -115.862038328240715, 60.842488070675472 ], [ -115.862407520472573, 60.842454522101058 ] ], [ [ -115.862903016027474, 60.842409494611672 ], [ -115.863330497714273, 60.842370646219671 ] ], [ [ -115.863699800522141, 60.842333903603048 ], [ -115.86375221460294, 60.842326884536995 ] ], [ [ -115.864254432891784, 60.842259628450847 ], [ -115.864382904673221, 60.842242423415023 ] ], [ [ -115.864439309781616, 60.842234869556599 ], [ -115.865363689980398, 60.842111071259041 ] ], [ [ -115.865733440076326, 60.84206155015444 ], [ -115.8657704, 60.842056599999978 ], [ -115.865917876359305, 60.842049162858338 ] ], [ [ -115.866839508473987, 60.84200268177505 ], [ -115.866990689707606, 60.841995056568045 ] ], [ [ -115.873882032002058, 60.840563108643977 ], [ -115.874022460344094, 60.840527703309611 ] ], [ [ -115.874067666568081, 60.840516305694294 ], [ -115.874160499999988, 60.840492899999987 ], [ -115.87462973863741, 60.840353208042593 ] ], [ [ -115.876051950232821, 60.839916155506266 ], [ -115.876299383188538, 60.839836580408416 ] ] ] } },
{ "type": "Feature", "properties": { "osm_id": 119937671, "name": null, "highway": "residential", "flooded_m": 31.061988627418419 }, "geometry": { "type": "MultiLineString", "coordinates": [ [ [ -115.7753526, 60.822238799999987 ], [ -115.7753241, 60.8222817 ], [ -115.7753419, 60.8223882 ], [ -115.775357604222805, 60.822424952758325 ] ], [ [ -115.775401348734491, 60.822520997374468 ], [ -115.775461014181602, 60.822605479608669 ] ] ] } },
{ "type": "Feature", "properties": { "osm_id": 119937672, "name": "Miron Drive", "highway": "residential", "flooded_m": 20.528508149010364 }, "geometry": { "type": "LineString", "coordinates": [ [ -115.84269634782062, 60.772918209159187 ], [ -115.842695400000011, 60.7729189 ], [ -115.842467675647015, 60.773064699163996 ] ] } },
{ "type": "Feature", "properties": { "osm_id": 119937680, "name": null, "highway": "service", "flooded_m": 71.616429519635133 }, "geometry": { "type": "MultiLineString", "coordinates": [ [ [ -115.752991099999988, 60.844459799999989 ], [ -115.753114499999981, 60.8443827 ], [ -115.753409894417061, 60.844312072745986 ] ], [ [ -115.753591878024153, 60.844268560941337 ], [ -115.75377142076978, 60.844225632381836 ] ], [ [ -115.754121425257239, 60.844139084275618 ], [ -115.754149240950753, 60.844131855971121 ] ], [ [ -115.755445948431941, 60.843910285890836 ], [ -115.75574779999998, 60.84390410000001 ], [ -115.75599725922892, 60.843928941809914 ] ] ] } },
{ "type": "Feature", "properties": { "osm_id": 119937688, "name": null, "highway": "tertiary", "flooded_m": 13.473941727439408 }, "geometry": { "type": "MultiLineString", "coordinates": [ [ [ -115.878381229926774, 60.839756030509186 ], [ -115.878470033167204, 60.839846561697946 ] ], [ [ -115.879009625403882, 60.840838755139124 ], [ -115.879023376646472, 60.840858226199934 ] ] ] } },
{ "type": "Feature", "properties": { "osm_id": 119937700, "name": null, "highway": "residential", "flooded_m": 27.478968375220433 }, "geometry": { "type": "LineString", "coordinates": [ [ -115.8391838, 60.7733981 ], [ -115.8391614, 60.77348820000001 ], [ -115.839183399999982, 60.7735422 ], [ -115.839202500000013, 60.7735583 ], [ -115.8392381, 60.773577 ], [ -115.839326582954257, 60.773613656704057 ] ] } },
{ "type": "Feature", "properties": { "osm_id": 119937703, "name": null, "highway": "track", "flooded_m": 134.07173105247284 }, "geometry": { "type": "MultiLineString", "coordinates": [ [ [ -115.827160548516716, 60.754375985323136 ], [ -115.826991779136364, 60.754420388810338 ] ], [ [ -115.824750096347088, 60.753726347782766 ], [ -115.8246053, 60.7536574 ], [ -115.8242195, 60.7535234 ], [ -115.823969100000014, 60.753485900000022 ], [ -115.8236635, 60.7534577 ], [ -115.823539425992522, 60.753489581062958 ] ], [ [ -115.823121306871286, 60.753622278613634 ], [ -115.8228083, 60.7537395 ], [ -115.822604176893051, 60.753887118490965 ] ], [ [ -115.822481501923519, 60.753975834214195 ], [ -115.822418999107526, 60.754021034583516 ] ], [ [ -115.822236149947585, 60.754153265315125 ], [ -115.822230507788646, 60.754157345524682 ] ] ] } },
{ "type": "Feature", "properties": { "osm_id": 119961622, "name": "Hay River Highway", "highway": "tertiary", "flooded_m": 210.40394262885911 }, "geometry": { "type": "MultiLineString", "coordinates": [ [ [ -115.757951207087586, 60.842917431669463 ], [ -115.757873078291297, 60.843008962171297 ] ], [ [ -115.752214510711866, 60.84655854813002 ], [ -115.751557016689901, 60.846629478961887 ] ], [ [ -115.748702934862052, 60.846943659982287 ], [ -115.7477112, 60.847053 ], [ -115.747408482035837, 60.847103235641825 ] ], [ [ -115.746811082231289, 60.847213869694208 ], [ -115.7467051, 60.847235 ], [ -115.746666792081641, 60.847245409594237 ] ], [ [ -115.746464315400146, 60.847300429258539 ], [ -115.745736730733441, 60.847498134175524 ] ], [ [ -115.744992082007741, 60.847715332557428 ], [ -115.744433010814646, 60.847892962932271 ] ] ] } },
{ "type": "Feature", "properties": { "osm_id": 119964039, "name": null, "highway": "unclassified", "flooded_m": 50.353384944618682 }, "geometry": { "type": "MultiLineString", "coordinates": [ [ [ -115.718840199999988, 60.85508159999997 ], [ -115.718747, 60.8551656 ], [ -115.7187074, 60.8551918 ], [ -115.718493399999986, 60.8553063 ], [ -115.71836913664842, 60.855356005345243 ] ], [ [ -115.717998068163936, 60.855428633394624 ], [ -115.7178787, 60.8554318 ], [ -115.717813614517723, 60.855437967166125 ] ] ] } },
{ "type": "Feature", "properties": { "osm_id": 119964045, "name": null, "highway": "residential", "flooded_m": 3.9536895775585226 }, "geometry": { "type": "LineString", "coordinates": [ [ -115.746748098501726, 60.849868768172328 ], [ -115.7468187, 60.8498602 ] ] } },
{ "type": "Feature", "properties": { "osm_id": 119964082, "name": null, "highway": "residential", "flooded_m": 51.324387799677538 }, "geometry": { "type": "LineString", "coordinates": [ [ -115.727065534727245, 60.858859548082101 ], [ -115.7271622, 60.858828700000011 ], [ -115.7277766, 60.8586548 ], [ -115.727870412189205, 60.858619233394705 ] ] } },
{ "type": "Feature", "properties": { "osm_id": 119964083, "name": null, "highway": "unclassified", "flooded_m": 27.824209424072304 }, "geometry": { "type": "LineString", "coordinates": [ [ -115.718375907673348, 60.855186972360336 ], [ -115.718840199999988, 60.85508159999997 ] ] } },
{ "type": "Feature", "properties": { "osm_id": 119964093, "name": null, "highway": "unclassified", "flooded_m": 5.5959975010752565 }, "geometry": { "type": "LineString", "coordinates": [ [ -115.718840199999988, 60.85508159999997 ], [ -115.718933224510394, 60.855060040629702 ] ] } },
{ "type": "Feature", "properties": { "osm_id": 119964105, "name": null, "highway": "unclassified", "flooded_m": 24.470798091887779 }, "geometry": { "type": "LineString", "coordinates": [ [ -115.715941390740767, 60.85572227626232 ], [ -115.71600260000001, 60.8557066 ], [ -115.716317300000014, 60.8556454 ], [ -115.716355572324218, 60.855636437984074 ] ] } },
{ "type": "Feature", "properties": { "osm_id": 119965097, "name": "100 Avenue", "highway": "residential", "flooded_m": 231.74442739193626 }, "geometry": { "type": "MultiLineString", "coordinates": [ [ [ -115.739045695411733, 60.849169383237388 ], [ -115.738306430303467, 60.849247859507578 ] ], [ [ -115.73627353878318, 60.849460964528902 ], [ -115.735719137540798, 60.849518361022966 ] ], [ [ -115.734610329171161, 60.849633147134078 ], [ -115.734587600000012, 60.849635499999977 ], [ -115.733869900000016, 60.849741499999986 ], [ -115.7337228, 60.8498657 ], [ -115.733694700000015, 60.85003420000001 ], [ -115.7337564, 60.8502251 ], [ -115.734006516690542, 60.850685605960031 ] ], [ [ -115.734015875986543, 60.850702837699409 ], [ -115.734055537707377, 60.850775860121189 ] ] ] } },
{ "type": "Feature", "properties": { "osm_id": 119965099, "name": "101 Avenue", "highway": "residential", "flooded_m": 15.133892377624386 }, "geometry": { "type": "LineString", "coordinates": [ [ -115.7457885, 60.8486486 ], [ -115.746060833558033, 60.848620229097612 ] ] } },
{ "type": "Feature", "properties": { "osm_id": 119965101, "name": "107 Street", "highway": "residential", "flooded_m": 9.195809780915452 }, "geometry": { "type": "LineString", "coordinates": [ [ -115.747754058469539, 60.847132863970785 ], [ -115.7477112, 60.847053 ] ] } },
{ "type": "Feature", "properties": { "osm_id": 228144033, "name": null, "highway": "service", "flooded_m": 23.806406345113789 }, "geometry": { "type": "LineString", "coordinates": [ [ -115.7802722, 60.8382048 ], [ -115.7804897, 60.8383903 ] ] } },
{ "type": "Feature", "properties": { "osm_id": 266086748, "name": "Highway 5", "highway": "primary", "flooded_m": 20.268577866357401 }, "geometry": { "type": "LineString", "coordinates": [ [ -115.742303196262, 60.742808573545005 ], [ -115.742668773707294, 60.742841530836536 ] ] } },
{ "type": "Feature", "properties": { "osm_id": 266086792, "name": "Rose Hill", "highway": "residential", "flooded_m": 33.220494717406837 }, "geometry": { "type": "MultiLineString", "coordinates": [ [ [ -115.863334295316307, 60.738567818889798 ], [ -115.8633846, 60.7385571 ], [ -115.863517559830683, 60.738526354582447 ] ], [ [ -115.863519179194498, 60.738525980122169 ], [ -115.8635485, 60.7385192 ], [ -115.8638101, 60.7384588 ], [ -115.863888940317352, 60.738442448874082 ] ] ] } },
{ "type": "Feature", "properties": { "osm_id": 266086810, "name": "Wildrose Drive", "highway": "residential", "flooded_m": 79.78134544566899 }, "geometry": { "type": "LineString", "coordinates": [ [ -115.8620516, 60.7412036 ], [ -115.8621152, 60.7412229 ], [ -115.8623145, 60.7412723 ], [ -115.862599, 60.7413342 ], [ -115.862771800000019, 60.741353 ], [ -115.8628971, 60.7413462 ], [ -115.8630147, 60.7413008 ], [ -115.8631477, 60.7411981 ], [ -115.863197378859297, 60.74112760323117 ] ] } },
{ "type": "Feature", "properties": { "osm_id": 266086920, "name": null, "highway": "residential", "flooded_m": 205.74977869659352 }, "geometry": { "type": "MultiLineString", "coordinates": [ [ [ -115.858493543151525, 60.741267239720287 ], [ -115.858637208574365, 60.741358254079486 ] ], [ [ -115.85864983082017, 60.741366002934754 ], [ -115.8588253, 60.741468700000013 ], [ -115.8590586, 60.7415788 ], [ -115.859503100000012, 60.7417639 ], [ -115.8596183, 60.7418381 ], [ -115.859698113772055, 60.741906027959814 ] ], [ [ -115.859730231557791, 60.741933362692848 ], [ -115.8597573, 60.7419564 ], [ -115.859795500000018, 60.7419971 ], [ -115.8598189, 60.7420368 ], [ -115.859832, 60.7420887 ], [ -115.8598437, 60.7421727 ], [ -115.8598455, 60.7423112 ], [ -115.859831221931515, 60.742535702131704 ] ], [ [ -115.85983892423107, 60.743164310242094 ], [ -115.859883, 60.743196899999987 ], [ -115.859956499999981, 60.7432361 ], [ -115.860054, 60.7432824 ], [ -115.8601808, 60.743328 ], [ -115.8604051, 60.7433985 ], [ -115.860411920893057, 60.743400365576427 ] ] ] } },
{ "type": "Feature", "properties": { "osm_id": 266086990, "name": null, "highway": "residential", "flooded_m": 19.844634450832135 }, "geometry": { "type": "MultiLineString", "coordinates": [ [ [ -115.842976907057405, 60.748743200932488 ], [ -115.842893225421548, 60.748765898487683 ] ], [ [ -115.842791633820397, 60.748793453774368 ], [ -115.8427616, 60.7488016 ], [ -115.842552222470189, 60.748852748940848 ] ] ] } },
{ "type": "Feature", "properties": { "osm_id": 266086996, "name": null, "highway": "residential", "flooded_m": 30.060899976409232 }, "geometry": { "type": "LineString", "coordinates": [ [ -115.835059042012887, 60.746632880880931 ], [ -115.8353048, 60.7464435 ], [ -115.835356146761328, 60.746405538123604 ] ] } },
{ "type": "Feature", "properties": { "osm_id": 314671821, "name": "Loop A", "highway": "service", "flooded_m": 121.35995849499794 }, "geometry": { "type": "MultiLineString", "coordinates": [ [ [ -115.74307422305202, 60.863745964420595 ], [ -115.743059699999989, 60.8637453 ], [ -115.74276620000002, 60.86373480000001 ], [ -115.7424354, 60.8637017 ], [ -115.7421793, 60.863641 ], [ -115.7419867, 60.8635516 ], [ -115.741977431388818, 60.863543397048339 ] ], [ [ -115.741940365201103, 60.863510592501122 ], [ -115.7419119, 60.863485399999988 ], [ -115.7418711, 60.8633928 ], [ -115.7418779, 60.8632372 ], [ -115.741998, 60.8631346 ], [ -115.742139421657726, 60.863063493034311 ] ] ] } },
{ "type": "Feature", "properties": { "osm_id": 314671827, "name": null, "highway": "service", "flooded_m": 25.461052263249503 }, "geometry": { "type": "LineString", "coordinates": [ [ -115.738952152007087, 60.862315305772448 ], [ -115.739202, 60.8625087 ] ] } },
{ "type": "Feature", "properties": { "osm_id": 744108885, "name": "Hay River Highway", "highway": "primary", "flooded_m": 268.81518263275893 }, "geometry": { "type": "MultiLineString", "coordinates": [ [ [ -115.844629950458156, 60.771857366507163 ], [ -115.844528376411759, 60.771923532545834 ] ], [ [ -115.844357859703877, 60.772034607521682 ], [ -115.844340372099737, 60.772045998931176 ] ], [ [ -115.844221813198388, 60.772123227817339 ], [ -115.843588340486122, 60.772535861778593 ] ], [ [ -115.842999585309386, 60.772920823304524 ], [ -115.84246012605584, 60.773274084588017 ] ], [ [ -115.84245823523608, 60.77327532276108 ], [ -115.842322895846721, 60.773363947276167 ] ], [ [ -115.829290669735599, 60.781971323124488 ], [ -115.829179473896872, 60.782049549010083 ] ], [ [ -115.829102177586634, 60.782103926414543 ], [ -115.829053399585746, 60.782138241272712 ] ], [ [ -115.825856734351831, 60.785701995844704 ], [ -115.825721086122911, 60.785880393163033 ] ], [ [ -115.824414741166024, 60.787485214407518 ], [ -115.824114979912892, 60.787894260883306 ] ], [ [ -115.823096392064514, 60.789179709958312 ], [ -115.822949464035545, 60.789358005701452 ] ], [ [ -115.820557736786881, 60.792210357400414 ], [ -115.820302775962816, 60.792477493240987 ] ] ] } },
{ "type": "Feature", "properties": { "osm_id": 744111876, "name": null, "highway": "service", "flooded_m": 26.044157917633427 }, "geometry": { "type": "LineString", "coordinates": [ [ -115.8133861, 60.7955936 ], [ -115.813200727193092, 60.795378046620982 ] ] } },
{ "type": "Feature", "properties": { "osm_id": 817406720, "name": null, "highway": "residential", "flooded_m": 63.99760529967628 }, "geometry": { "type": "MultiLineString", "coordinates": [ [ [ -115.8059248, 60.804256 ], [ -115.805969868231031, 60.804203354572067 ] ], [ [ -115.807769282249737, 60.80206433310785 ], [ -115.80779440000002, 60.8019882 ], [ -115.8077583, 60.8018163 ], [ -115.807702435912447, 60.801704572070307 ] ], [ [ -115.805103859285012, 60.800207035073264 ], [ -115.804874, 60.8001038 ] ] ] } },
{ "type": "Feature", "properties": { "osm_id": 827842751, "name": null, "highway": "service", "flooded_m": 57.376253958625881 }, "geometry": { "type": "LineString", "coordinates": [ [ -115.7783161, 60.8169215 ], [ -115.778107300000016, 60.8173193 ], [ -115.778060359549841, 60.817421195640677 ] ] } },
{ "type": "Feature", "properties": { "osm_id": 876108341, "name": null, "highway": "service", "flooded_m": 28.267227288976166 }, "geometry": { "type": "MultiLineString", "coordinates": [ [ [ -115.8213472, 60.789570799999986 ], [ -115.821663844973997, 60.789614778425182 ] ], [ [ -115.821846610869926, 60.789640162158037 ], [ -115.822029377057689, 60.789665545642841 ] ] ] } },
{ "type": "Feature", "properties": { "osm_id": 876108342, "name": null, "highway": "service", "flooded_m": 10.384726802086126 }, "geometry": { "type": "LineString", "coordinates": [ [ -115.821832887393043, 60.790013857879678 ], [ -115.821650169532376, 60.789987108757742 ] ] } },
{ "type": "Feature", "properties": { "osm_id": 876108343, "name": null, "highway": "service", "flooded_m": 18.107006120788554 }, "geometry": { "type": "LineString", "coordinates": [ [ -115.8222297, 60.7888299 ], [ -115.822210900000016, 60.7889922 ] ] } },
{ "type": "Feature", "properties": { "osm_id": 876108344, "name": null, "highway": "service", "flooded_m": 77.843712377844923 }, "geometry": { "type": "MultiLineString", "coordinates": [ [ [ -115.8228296, 60.7890199 ], [ -115.822787896298962, 60.789018953060165 ] ], [ [ -115.822237681208236, 60.788995286661098 ], [ -115.822210900000016, 60.7889922 ], [ -115.821358, 60.788955599999987 ], [ -115.821417, 60.7887108 ] ] ] } },
{ "type": "Feature", "properties": { "osm_id": 876108353, "name": null, "highway": "service", "flooded_m": 35.733555831816901 }, "geometry": { "type": "LineString", "coordinates": [ [ -115.822552728050027, 60.786840355857322 ], [ -115.8224067, 60.787014299999989 ], [ -115.8223611, 60.7871452 ] ] } },
{ "type": "Feature", "properties": { "osm_id": 876189555, "name": null, "highway": "service", "flooded_m": 20.423706468550876 }, "geometry": { "type": "LineString", "coordinates": [ [ -115.777848069588899, 60.830689269341974 ], [ -115.7778119, 60.8306908 ], [ -115.777473873160815, 60.830705098649645 ] ] } },
{ "type": "Feature", "properties": { "osm_id": 876189557, "name": null, "highway": "service", "flooded_m": 0.7178400313388682 }, "geometry": { "type": "LineString", "coordinates": [ [ -115.7778963, 60.8297709 ], [ -115.777883105255754, 60.829771097326038 ] ] } },
{ "type": "Feature", "properties": { "osm_id": 876189568, "name": null, "highway": "service", "flooded_m": 42.55584242127464 }, "geometry": { "type": "MultiLineString", "coordinates": [ [ [ -115.767628099527855, 60.842939435855335 ], [ -115.767809855763446, 60.842997881031607 ] ], [ [ -115.768417630320371, 60.843193312489788 ], [ -115.7686667, 60.8432734 ], [ -115.7688896, 60.8433451 ] ] ] } },
{ "type": "Feature", "properties": { "osm_id": 876189570, "name": null, "highway": "track", "flooded_m": 276.49380489971907 }, "geometry": { "type": "MultiLineString", "coordinates": [ [ [ -115.767187747249721, 60.84282287087337 ], [ -115.767255100000014, 60.8429544 ], [ -115.767249707050581, 60.84300302325564 ] ], [ [ -115.766949447062402, 60.843359437815124 ], [ -115.7666087, 60.8435646 ], [ -115.766498209624345, 60.843610393194716 ] ], [ [ -115.766464498032633, 60.843624365059419 ], [ -115.766311212895886, 60.843687894257009 ] ], [ [ -115.766252537942648, 60.843712212043918 ], [ -115.765962300000012, 60.8438325 ], [ -115.764546878741697, 60.84432509229196 ] ], [ [ -115.760535623731329, 60.84552842650637 ], [ -115.7600373, 60.845603099999984 ], [ -115.758872763013784, 60.845700463252761 ] ] ] } },
{ "type": "Feature", "properties": { "osm_id": 876189571, "name": null, "highway": "service", "flooded_m": 35.067882862155315 }, "geometry": { "type": "LineString", "coordinates": [ [ -115.769019707805285, 60.840246161056278 ], [ -115.76904420000001, 60.8403093 ], [ -115.7692346, 60.840542 ] ] } },
{ "type": "Feature", "properties": { "osm_id": 876189573, "name": null, "highway": "service", "flooded_m": 17.715704544711041 }, "geometry": { "type": "LineString", "coordinates": [ [ -115.777053, 60.8359621 ], [ -115.7767287, 60.8359466 ] ] } },
{ "type": "Feature", "properties": { "osm_id": 876189574, "name": null, "highway": "service", "flooded_m": 63.524477154702687 }, "geometry": { "type": "MultiLineString", "coordinates": [ [ [ -115.778639820386744, 60.838866815864257 ], [ -115.778573806306042, 60.838796379268338 ] ], [ [ -115.778463035032715, 60.83867818627278 ], [ -115.778043, 60.83823 ] ] ] } },
{ "type": "Feature", "properties": { "osm_id": 876189575, "name": null, "highway": "service", "flooded_m": 10.474268281183523 }, "geometry": { "type": "LineString", "coordinates": [ [ -115.77786038948328, 60.838879686623834 ], [ -115.7777908, 60.838792 ] ] } },
{ "type": "Feature", "properties": { "osm_id": 876189576, "name": null, "highway": "service", "flooded_m": 70.787697314298697 }, "geometry": { "type": "MultiLineString", "coordinates": [ [ [ -115.7802722, 60.8382048 ], [ -115.780134377972786, 60.838271002927868 ] ], [ [ -115.779945649910971, 60.838395640827876 ], [ -115.779898507526539, 60.838449242401147 ] ], [ [ -115.779709979625011, 60.838627114842502 ], [ -115.77961670000002, 60.8386845 ], [ -115.779566179398103, 60.838697645907509 ] ], [ [ -115.778452432376085, 60.838956084371617 ], [ -115.778081477271201, 60.839034423460951 ] ], [ [ -115.77789600463521, 60.839073446082701 ], [ -115.77754898376007, 60.839146230792409 ] ] ] } },
{ "type": "Feature", "properties": { "osm_id": 876189577, "name": null, "highway": "service", "flooded_m": 21.197677707763198 }, "geometry": { "type": "LineString", "coordinates": [ [ -115.777877870331281, 60.839548518702045 ], [ -115.778248120919642, 60.839488811431821 ] ] } },
{ "type": "Feature", "properties": { "osm_id": 876189578, "name": null, "highway": "service", "flooded_m": 15.875113454349117 }, "geometry": { "type": "MultiLineString", "coordinates": [ [ [ -115.775655364107479, 60.841194211557948 ], [ -115.775609288934177, 60.841136976237806 ] ], [ [ -115.775996529667893, 60.840633485757955 ], [ -115.776098937712518, 60.840569707221832 ] ] ] } },
{ "type": "Feature", "properties": { "osm_id": 876189579, "name": null, "highway": "service", "flooded_m": 156.2570856608001 }, "geometry": { "type": "LineString", "coordinates": [ [ -115.7854673, 60.841875 ], [ -115.784277527851842, 60.840597979226594 ] ] } },
{ "type": "Feature", "properties": { "osm_id": 876189580, "name": null, "highway": "service", "flooded_m": 27.195914189202508 }, "geometry": { "type": "LineString", "coordinates": [ [ -115.784402499999985, 60.8347977 ], [ -115.783942235183275, 60.834893303611935 ] ] } },
{ "type": "Feature", "properties": { "osm_id": 876206613, "name": null, "highway": "service", "flooded_m": 41.460094011954546 }, "geometry": { "type": "MultiLineString", "coordinates": [ [ [ -115.790329362337829, 60.816774423286205 ], [ -115.7901156, 60.816723 ], [ -115.789992200000015, 60.8166183 ], [ -115.789972023231186, 60.816541290019252 ] ], [ [ -115.789970653006762, 60.816536060181683 ], [ -115.78996, 60.8164954 ], [ -115.789972761194633, 60.81648022696163 ] ] ] } },
{ "type": "Feature", "properties": { "osm_id": 876206630, "name": null, "highway": "service", "flooded_m": 14.317074157533568 }, "geometry": { "type": "LineString", "coordinates": [ [ -115.778107300000016, 60.8173193 ], [ -115.778356432262527, 60.817360740080943 ] ] } },
{ "type": "Feature", "properties": { "osm_id": 876206631, "name": null, "highway": "service", "flooded_m": 10.485530990398875 }, "geometry": { "type": "LineString", "coordinates": [ [ -115.778729287282871, 60.817068108915464 ], [ -115.778667901825003, 60.817157343129679 ] ] } },
{ "type": "Feature", "properties": { "osm_id": 876206632, "name": null, "highway": "service", "flooded_m": 97.017189969443962 }, "geometry": { "type": "MultiLineString", "coordinates": [ [ [ -115.779710810984497, 60.815591608650131 ], [ -115.77934162227892, 60.815630775309266 ] ], [ [ -115.779287591781312, 60.815636507227993 ], [ -115.779180200000013, 60.8156479 ], [ -115.779156199389504, 60.815672098754654 ] ], [ [ -115.779104096080147, 60.815724632076552 ], [ -115.778965005722256, 60.81586486940693 ] ], [ [ -115.778737375605971, 60.816080467964788 ], [ -115.778720502580256, 60.816170106817353 ] ], [ [ -115.778703629457198, 60.816259745666379 ], [ -115.778686756236766, 60.81634938451181 ] ], [ [ -115.778636135991434, 60.816618301026722 ], [ -115.778585514869917, 60.816887217509588 ] ] ] } },
{ "type": "Feature", "properties": { "osm_id": 876206651, "name": null, "highway": "service", "flooded_m": 55.489656023582057 }, "geometry": { "type": "MultiLineString", "coordinates": [ [ [ -115.789494, 60.8088791 ], [ -115.789524215081528, 60.808885371018143 ] ], [ [ -115.789622725924417, 60.808905816481534 ], [ -115.790075002250404, 60.808999683051773 ] ], [ [ -115.790656498679496, 60.809274295698003 ], [ -115.7906237, 60.809316599999988 ], [ -115.7904697, 60.8094985 ] ] ] } },
{ "type": "Feature", "properties": { "osm_id": 876214462, "name": null, "highway": "service", "flooded_m": 4.0476789252025114 }, "geometry": { "type": "LineString", "coordinates": [ [ -115.7924545, 60.8165974 ], [ -115.79248324976821, 60.81656388352156 ] ] } },
{ "type": "Feature", "properties": { "osm_id": 876214465, "name": null, "highway": "service", "flooded_m": 7.1579679459662335 }, "geometry": { "type": "LineString", "coordinates": [ [ -115.795662309131643, 60.816743581381509 ], [ -115.7955404, 60.8167194 ] ] } },
{ "type": "Feature", "properties": { "osm_id": 876214468, "name": null, "highway": "service", "flooded_m": 41.569394732359818 }, "geometry": { "type": "LineString", "coordinates": [ [ -115.7978189, 60.815020100000012 ], [ -115.797136600000016, 60.8148521 ] ] } },
{ "type": "Feature", "properties": { "osm_id": 876365693, "name": null, "highway": "service", "flooded_m": 21.022817426709658 }, "geometry": { "type": "LineString", "coordinates": [ [ -115.7716989, 60.8386833 ], [ -115.771832724547721, 60.838860373938914 ] ] } },
{ "type": "Feature", "properties": { "osm_id": 876365697, "name": null, "highway": "service", "flooded_m": 43.321312627125728 }, "geometry": { "type": "LineString", "coordinates": [ [ -115.760594800000021, 60.8416528 ], [ -115.760343, 60.841283799999985 ] ] } },
{ "type": "Feature", "properties": { "osm_id": 876365704, "name": null, "highway": "service", "flooded_m": 15.278891684959696 }, "geometry": { "type": "LineString", "coordinates": [ [ -115.767523399999988, 60.8436084 ], [ -115.767344, 60.8435028 ] ] } },
{ "type": "Feature", "properties": { "osm_id": 876365705, "name": null, "highway": "service", "flooded_m": 188.72008706005909 }, "geometry": { "type": "LineString", "coordinates": [ [ -115.765739700000012, 60.844184 ], [ -115.767523399999988, 60.8436084 ], [ -115.7686667, 60.8432734 ] ] } },
{ "type": "Feature", "properties": { "osm_id": 876365707, "name": null, "highway": "service", "flooded_m": 18.87702194176855 }, "geometry": { "type": "LineString", "coordinates": [ [ -115.7621723, 60.8419246 ], [ -115.762370100000012, 60.842053199999988 ], [ -115.762380142894969, 60.842060357956605 ] ] } },
{ "type": "Feature", "properties": { "osm_id": 876365708, "name": null, "highway": "service", "flooded_m": 45.780247120208372 }, "geometry": { "type": "MultiLineString", "coordinates": [ [ [ -115.761815259778345, 60.842055156059807 ], [ -115.761960161205437, 60.842002171350572 ] ], [ [ -115.762054787937998, 60.841967569924876 ], [ -115.7621723, 60.8419246 ], [ -115.7619678, 60.8417562 ], [ -115.761929100000017, 60.8417043 ] ] ] } },
{ "type": "Feature", "properties": { "osm_id": 876365715, "name": null, "highway": "service", "flooded_m": 10.692125168067218 }, "geometry": { "type": "MultiLineString", "coordinates": [ [ [ -115.7568213, 60.843484899999972 ], [ -115.756783626059089, 60.843535184643443 ] ], [ [ -115.756746685643478, 60.843584490061261 ], [ -115.756716815083507, 60.843624359022954 ] ] ] } },
{ "type": "Feature", "properties": { "osm_id": 876365717, "name": null, "highway": "service", "flooded_m": 16.805251411089419 }, "geometry": { "type": "LineString", "coordinates": [ [ -115.754245529055183, 60.844499403588188 ], [ -115.754233, 60.844466300000015 ], [ -115.754140433458161, 60.844358145535935 ] ] } },
{ "type": "Feature", "properties": { "osm_id": 876365718, "name": null, "highway": "service", "flooded_m": 77.390723888125692 }, "geometry": { "type": "MultiLineString", "coordinates": [ [ [ -115.751730949421088, 60.844801615579449 ], [ -115.751916364967471, 60.844765753256738 ] ], [ [ -115.752101780101043, 60.844729890676916 ], [ -115.75247260912964, 60.844658164745951 ] ], [ [ -115.752779972352172, 60.844575606983064 ], [ -115.752845253660766, 60.844539799238532 ] ], [ [ -115.752940950268723, 60.844487308057957 ], [ -115.752991099999988, 60.844459799999989 ], [ -115.753019764625634, 60.844488039152516 ] ], [ [ -115.753030859901784, 60.844498969724974 ], [ -115.753203788944617, 60.844669330646276 ] ], [ [ -115.753208075113946, 60.844673553137149 ], [ -115.753295801882288, 60.844759976299152 ] ] ] } },
{ "type": "Feature", "properties": { "osm_id": 876365723, "name": null, "highway": "track", "flooded_m": 8.1877959660799693 }, "geometry": { "type": "LineString", "coordinates": [ [ -115.742653990263932, 60.860384416829667 ], [ -115.7426807, 60.8604305 ], [ -115.742651343893868, 60.860451743161136 ] ] } },
{ "type": "Feature", "properties": { "osm_id": 876365730, "name": null, "highway": "service", "flooded_m": 99.802158056819707 }, "geometry": { "type": "MultiLineString", "coordinates": [ [ [ -115.7369891, 60.860310299999988 ], [ -115.736763782239052, 60.860353384781646 ] ], [ [ -115.736578273984179, 60.860388856903036 ], [ -115.7365519, 60.860393900000012 ], [ -115.73605569999998, 60.8604187 ], [ -115.7356238, 60.8603848 ], [ -115.735001600000018, 60.8603351 ] ] ] } },
{ "type": "Feature", "properties": { "osm_id": 876365731, "name": null, "highway": "service", "flooded_m": 86.823878495377429 }, "geometry": { "type": "MultiLineString", "coordinates": [ [ [ -115.737477937190917, 60.86091773199945 ], [ -115.7370588, 60.860966 ], [ -115.736731599999985, 60.860947699999983 ], [ -115.73655556970705, 60.860963687378344 ] ], [ [ -115.736186022164915, 60.860997249528396 ], [ -115.735538, 60.8610561 ] ] ] } },
{ "type": "Feature", "properties": { "osm_id": 876365733, "name": null, "highway": "service", "flooded_m": 14.2158732882825 }, "geometry": { "type": "LineString", "coordinates": [ [ -115.7401085, 60.8599538 ], [ -115.740092502180488, 60.860081185397696 ] ] } },
{ "type": "Feature", "properties": { "osm_id": 876365734, "name": null, "highway": "service", "flooded_m": 106.09867421273081 }, "geometry": { "type": "MultiLineString", "coordinates": [ [ [ -115.736736984143562, 60.860139498433561 ], [ -115.7367691, 60.860199300000012 ], [ -115.7369891, 60.860310299999988 ], [ -115.7372949, 60.8603573 ], [ -115.73750071832022, 60.860340533112897 ] ], [ [ -115.739722532841128, 60.860022509881304 ], [ -115.7401085, 60.8599538 ], [ -115.740649198434724, 60.859866557842174 ] ] ] } },
{ "type": "Feature", "properties": { "osm_id": 876365736, "name": null, "highway": "service", "flooded_m": 41.018274121625744 }, "geometry": { "type": "MultiLineString", "coordinates": [ [ [ -115.739051311267261, 60.858368471455279 ], [ -115.738866480091488, 60.85838712752102 ] ], [ [ -115.738496817102217, 60.858424438888335 ], [ -115.737942321023979, 60.858480404028917 ] ] ] } },
{ "type": "Feature", "properties": { "osm_id": 876365737, "name": null, "highway": "service", "flooded_m": 7.5042183280387231 }, "geometry": { "type": "LineString", "coordinates": [ [ -115.7391025, 60.857893 ], [ -115.739133871478501, 60.857827391001898 ] ] } },
{ "type": "Feature", "properties": { "osm_id": 876365739, "name": null, "highway": "service", "flooded_m": 31.825638492442714 }, "geometry": { "type": "LineString", "coordinates": [ [ -115.740512508339805, 60.857481141182085 ], [ -115.7404706, 60.8573545 ], [ -115.7402828, 60.8572827 ], [ -115.740198642943099, 60.857282700026516 ] ] } },
{ "type": "Feature", "properties": { "osm_id": 876365742, "name": null, "highway": "service", "flooded_m": 13.679197696632501 }, "geometry": { "type": "LineString", "coordinates": [ [ -115.742232800000011, 60.8587613 ], [ -115.74198120611419, 60.858766081775791 ] ] } },
{ "type": "Feature", "properties": { "osm_id": 876365744, "name": null, "highway": "service", "flooded_m": 13.520152415125036 }, "geometry": { "type": "LineString", "coordinates": [ [ -115.742140054115112, 60.859408244344735 ], [ -115.7421953, 60.8594013 ], [ -115.7423669, 60.859359499999989 ] ] } },
{ "type": "Feature", "properties": { "osm_id": 876365745, "name": null, "highway": "service", "flooded_m": 61.649774406796766 }, "geometry": { "type": "LineString", "coordinates": [ [ -115.73833745488875, 60.857797284227722 ], [ -115.7391025, 60.857893 ], [ -115.73943659105376, 60.857934798251684 ] ] } },
{ "type": "Feature", "properties": { "osm_id": 876365758, "name": null, "highway": "service", "flooded_m": 49.483401184833944 }, "geometry": { "type": "LineString", "coordinates": [ [ -115.743284100000011, 60.8643746 ], [ -115.7427478, 60.864733699999988 ] ] } },
{ "type": "Feature", "properties": { "osm_id": 876365759, "name": null, "highway": "service", "flooded_m": 13.744711968160471 }, "geometry": { "type": "LineString", "coordinates": [ [ -115.744487857220051, 60.865258586072052 ], [ -115.744285500000018, 60.865184500000012 ] ] } },
{ "type": "Feature", "properties": { "osm_id": 876365760, "name": null, "highway": "service", "flooded_m": 48.124419537388235 }, "geometry": { "type": "LineString", "coordinates": [ [ -115.744102175119139, 60.865326642197459 ], [ -115.744105, 60.865307 ], [ -115.744285500000018, 60.865184500000012 ], [ -115.744598350040363, 60.864972105732171 ] ] } },
{ "type": "Feature", "properties": { "osm_id": 876365761, "name": null, "highway": "service", "flooded_m": 35.971321144549371 }, "geometry": { "type": "LineString", "coordinates": [ [ -115.747393400000021, 60.8663725 ], [ -115.747666093290462, 60.866078212004219 ] ] } },
{ "type": "Feature", "properties": { "osm_id": 876365762, "name": null, "highway": "service", "flooded_m": 37.915844052982465 }, "geometry": { "type": "LineString", "coordinates": [ [ -115.746309962906381, 60.865749547765077 ], [ -115.7459316, 60.8660356 ] ] } },
{ "type": "Feature", "properties": { "osm_id": 876365765, "name": null, "highway": "service", "flooded_m": 4.4162168651382459 }, "geometry": { "type": "LineString", "coordinates": [ [ -115.757804300000018, 60.8654143 ], [ -115.75780722334477, 60.865453921332843 ] ] } },
{ "type": "Feature", "properties": { "osm_id": 876365776, "name": null, "highway": "service", "flooded_m": 10.349600798807899 }, "geometry": { "type": "LineString", "coordinates": [ [ -115.768434470153124, 60.864204778193844 ], [ -115.768480108282816, 60.864294987898923 ] ] } },
{ "type": "Feature", "properties": { "osm_id": 876365777, "name": null, "highway": "service", "flooded_m": 5.5570811680008569 }, "geometry": { "type": "LineString", "coordinates": [ [ -115.7672471, 60.864515599999983 ], [ -115.767349293141294, 60.864513272892317 ] ] } },
{ "type": "Feature", "properties": { "osm_id": 876365778, "name": null, "highway": "service", "flooded_m": 59.540730932524852 }, "geometry": { "type": "LineString", "coordinates": [ [ -115.767169970908355, 60.864388544757645 ], [ -115.7672471, 60.864515599999983 ], [ -115.767367236817222, 60.864913335500752 ] ] } },
{ "type": "Feature", "properties": { "osm_id": 885312962, "name": "Hay River Highway", "highway": "primary", "flooded_m": 145.48551915856115 }, "geometry": { "type": "MultiLineString", "coordinates": [ [ [ -115.816109707277946, 60.795044555618865 ], [ -115.815129706167966, 60.79548487186949 ] ], [ [ -115.805859307408383, 60.799658910859314 ], [ -115.804874, 60.8001038 ] ] ] } },
{ "type": "Feature", "properties": { "osm_id": 927940731, "name": "Buffalo Dr", "highway": "unclassified", "flooded_m": 69.484552848180371 }, "geometry": { "type": "LineString", "coordinates": [ [ -115.7659689975345, 60.842362727890581 ], [ -115.767000235869375, 60.842731359023318 ] ] } },
{ "type": "Feature", "properties": { "osm_id": 931609014, "name": "Fraser Place", "highway": "unclassified", "flooded_m": 6.5313432564145568 }, "geometry": { "type": "LineString", "coordinates": [ [ -115.797014829882542, 60.800303345597122 ], [ -115.7969678, 60.8002494 ] ] } },
{ "type": "Feature", "properties": { "osm_id": 960838470, "name": "Riverview Drive", "highway": "residential", "flooded_m": 39.406901459817725 }, "geometry": { "type": "LineString", "coordinates": [ [ -115.784822405653188, 60.811696564932433 ], [ -115.785383150863893, 60.81192048352537 ] ] } },
{ "type": "Feature", "properties": { "osm_id": 960838472, "name": "Hay River Highway", "highway": "primary", "flooded_m": 74.614588502015053 }, "geometry": { "type": "MultiLineString", "coordinates": [ [ [ -115.787136404755955, 60.814719879698075 ], [ -115.786864200000011, 60.815065399999988 ], [ -115.786716341015776, 60.815254839418294 ] ], [ [ -115.785390852381525, 60.816859120676156 ], [ -115.785312728127224, 60.816948206484973 ] ] ] } },
{ "type": "Feature", "properties": { "osm_id": 1128434485, "name": null, "highway": "track", "flooded_m": 214.34597404016782 }, "geometry": { "type": "MultiLineString", "coordinates": [ [ [ -115.7980485, 60.8374089 ], [ -115.798653271488504, 60.837271297167142 ] ], [ [ -115.799311224730715, 60.837121589515526 ], [ -115.79941270218491, 60.837098499390287 ] ], [ [ -115.800424543512364, 60.836868259530398 ], [ -115.802894, 60.8363063 ] ], [ [ -115.802894, 60.8363063 ], [ -115.8029706, 60.836209 ], [ -115.803026064143822, 60.836174262227594 ] ], [ [ -115.803020258927759, 60.836329558291716 ], [ -115.802894, 60.8363063 ] ] ] } },
{ "type": "Feature", "properties": { "osm_id": 1164747645, "name": "Hay River Highway", "highway": "primary", "flooded_m": 33.068631049061793 }, "geometry": { "type": "MultiLineString", "coordinates": [ [ [ -115.791329157441794, 60.809764666397783 ], [ -115.791283219387068, 60.809818688972328 ] ], [ [ -115.791207444178923, 60.809907799227602 ], [ -115.791131668547109, 60.809996909437771 ] ], [ [ -115.791055892491585, 60.810086019602871 ], [ -115.790944465122777, 60.810217053560379 ] ] ] } },
{ "type": "Feature", "properties": { "osm_id": 1276094811, "name": null, "highway": "service", "flooded_m": 22.654001157724153 }, "geometry": { "type": "LineString", "coordinates": [ [ -115.839141, 60.7736747 ], [ -115.839487, 60.773763699999989 ], [ -115.839504450060971, 60.773772410910631 ] ] } },
{ "type": "Feature", "properties": { "osm_id": 1287791977, "name": null, "highway": "service", "flooded_m": 17.075591134845496 }, "geometry": { "type": "MultiLineString", "coordinates": [ [ [ -115.864112857999956, 60.738172230053856 ], [ -115.864092335401779, 60.738082264455485 ] ], [ [ -115.86408604476992, 60.738054687903485 ], [ -115.864071812915697, 60.737992298853101 ] ] ] } },
{ "type": "Feature", "properties": { "osm_id": 1425949289, "name": null, "highway": "service", "flooded_m": 30.033500184270402 }, "geometry": { "type": "LineString", "coordinates": [ [ -115.868173022208509, 60.73657371019813 ], [ -115.867998633498161, 60.736317950009372 ] ] } },
{ "type": "Feature", "properties": { "osm_id": 1425949299, "name": null, "highway": "service", "flooded_m": 32.580876811558376 }, "geometry": { "type": "LineString", "coordinates": [ [ -115.8635485, 60.7385192 ], [ -115.863345309754038, 60.73879427040383 ] ] } }
]
}
