{
"type": "FeatureCollection",
"name": "20220510_012905_16M17_buildings",
"crs": { "type": "name", "properties": { "name": "urn:ogc:def:crs:OGC:1.3:CRS84" } },
"features": [
{ "type": "Feature", "properties": { "osm_id": 119937865, "building": "school", "street": "Commercial Road", "area": "New Town Hay River", "flood_pixels": 5 }, "geometry": { "type": "Polygon", "coordinates": [ [ [ -115.7853275, 60.810132699999983 ], [ -115.7852057, 60.8102893 ], [ -115.7849465, 60.8103 ], [ -115.7846412, 60.8104551 ], [ -115.784896, 60.8106042 ], [ -115.7846969, 60.8107126 ], [ -115.7847619, 60.8107461 ], [ -115.784727, 60.8107756 ], [ -115.784788699999979, 60.810796499999988 ], [ -115.784719, 60.810847499999987 ], [ -115.784886900000018, 60.8109158 ], [ -115.785204400000012, 60.810748099999984 ], [ -115.7852964, 60.810710799999988 ], [ -115.785767, 60.810782 ], [ -115.7857896, 60.8107419 ], [ -115.7858526, 60.8107505 ], [ -115.786012600000021, 60.8105975 ], [ -115.7859522, 60.810528699999985 ], [ -115.7856923, 60.8104663 ], [ -115.785711799999987, 60.8104211 ], [ -115.7856638, 60.8104127 ], [ -115.785800800000018, 60.8102454 ], [ -115.7853275, 60.810132699999983 ] ] ] } },
{ "type": "Feature", "properties": { "osm_id": 119938669, "building": "yes", "street": "unnamed road", "area": "Vale Island", "flood_pixels": 15 }, "geometry": { "type": "Polygon", "coordinates": [ [ [ -115.7521902, 60.8445857 ], [ -115.75225420000001, 60.844648099999986 ], [ -115.7524108, 60.8446134 ], [ -115.75225420000001, 60.8444088 ], [ -115.751393, 60.8445683 ], [ -115.75150690000001, 60.844720899999984 ], [ -115.7521902, 60.8445857 ] ] ] } },
{ "type": "Feature", "properties": { "osm_id": 119964635, "building": "yes", "street": "unnamed road", "area": "Old Town Hay River", "flood_pixels": 35 }, "geometry": { "type": "Polygon", "coordinates": [ [ [ -115.734443200000015, 60.859169299999984 ], [ -115.73472940000002, 60.8596977 ], [ -115.736453400000016, 60.8595012 ], [ -115.7361851, 60.858969899999984 ], [ -115.734443200000015, 60.859169299999984 ] ] ] } },
{ "type": "Feature", "properties": { "osm_id": 228144025, "building": "yes", "street": "Airport Rd", "area": "Hay River (other areas)", "flood_pixels": 20 }, "geometry": { "type": "Polygon", "coordinates": [ [ [ -115.781504500000011, 60.83861180000001 ], [ -115.7812513, 60.838670199999989 ], [ -115.7811647, 60.8386902 ], [ -115.781441, 60.8389737 ], [ -115.7816838, 60.8389176 ], [ -115.781574400000011, 60.8388051 ], [ -115.7816707, 60.8387829 ], [ -115.781504500000011, 60.83861180000001 ] ] ] } },
{ "type": "Feature", "properties": { "osm_id": 228144031, "building": "yes", "street": "unnamed road", "area": "Hay River (other areas)", "flood_pixels": 8 }, "geometry": { "type": "Polygon", "coordinates": [ [ [ -115.778792599999989, 60.8393097 ], [ -115.7783732, 60.8394161 ], [ -115.7782324, 60.8392845 ], [ -115.7782867, 60.8392707 ], [ -115.7781681, 60.839159799999983 ], [ -115.7782361, 60.8391425 ], [ -115.7783568, 60.8392554 ], [ -115.7786539, 60.83918 ], [ -115.778792599999989, 60.8393097 ] ] ] } },
{ "type": "Feature", "properties": { "osm_id": 228144032, "building": "yes", "street": "unnamed road", "area": "Hay River (other areas)", "flood_pixels": 12 }, "geometry": { "type": "Polygon", "coordinates": [ [ [ -115.7779552, 60.838440499999983 ], [ -115.7775881, 60.8385211 ], [ -115.7777895, 60.83873890000001 ], [ -115.77787210000001, 60.8387208 ], [ -115.7780094, 60.8388693 ], [ -115.778217199999986, 60.8388236 ], [ -115.7780883, 60.8386843 ], [ -115.778165, 60.8386675 ], [ -115.7779552, 60.838440499999983 ] ] ] } },
{ "type": "Feature", "properties": { "osm_id": 268294734, "building": "commercial", "street": "Capital Drive", "area": "New Town Hay River", "flood_pixels": 6 }, "geometry": { "type": "Polygon", "coordinates": [ [ [ -115.787102, 60.8082455 ], [ -115.786797, 60.8081924 ], [ -115.78663, 60.808420900000016 ], [ -115.786935, 60.808474 ], [ -115.787102, 60.8082455 ] ] ] } },
{ "type": "Feature", "properties": { "osm_id": 298986966, "building": "yes", "street": "unnamed road", "area": "Vale Island", "flood_pixels": 4 }, "geometry": { "type": "Polygon", "coordinates": [ [ [ -115.7532665, 60.8445704 ], [ -115.7531313, 60.8444248 ], [ -115.7537932, 60.8442583 ], [ -115.7539284, 60.8444109 ], [ -115.7532665, 60.8445704 ] ] ] } },
{ "type": "Feature", "properties": { "osm_id": 305306541, "building": "yes", "street": "Birch Road", "area": "New Town Hay River", "flood_pixels": 10 }, "geometry": { "type": "Polygon", "coordinates": [ [ [ -115.78673240000002, 60.8171841 ], [ -115.7871295, 60.8167162 ], [ -115.7875646, 60.816804 ], [ -115.7874677, 60.8169181 ], [ -115.7874024, 60.8169049 ], [ -115.787316, 60.8170068 ], [ -115.78722980000002, 60.8169894 ], [ -115.787120699999988, 60.817117899999985 ], [ -115.7870044, 60.817094499999982 ], [ -115.7868997, 60.8172178 ], [ -115.78673240000002, 60.8171841 ] ] ] } },
{ "type": "Feature", "properties": { "osm_id": 314671820, "building": "yes", "street": "100 Avenue", "area": "Old Town Hay River", "flood_pixels": 12 }, "geometry": { "type": "Polygon", "coordinates": [ [ [ -115.734769900000018, 60.8509131 ], [ -115.7344423, 60.850945 ], [ -115.734359, 60.8507421 ], [ -115.7346865, 60.850710199999988 ], [ -115.734769900000018, 60.8509131 ] ] ] } },
{ "type": "Feature", "properties": { "osm_id": 532421464, "building": "yes", "street": "Service Road", "area": "New Town Hay River", "flood_pixels": 7 }, "geometry": { "type": "Polygon", "coordinates": [ [ [ -115.7845151, 60.8168354 ], [ -115.7839519, 60.816730799999988 ], [ -115.7840754, 60.8165727 ], [ -115.7846387, 60.8166773 ], [ -115.7845151, 60.8168354 ] ] ] } },
{ "type": "Feature", "properties": { "osm_id": 532421466, "building": "yes", "street": "Service Road", "area": "New Town Hay River", "flood_pixels": 22 }, "geometry": { "type": "Polygon", "coordinates": [ [ [ -115.7848471, 60.8165661 ], [ -115.784439600000013, 60.8164929 ], [ -115.7845971, 60.816284399999986 ], [ -115.7850046, 60.8163576 ], [ -115.7848471, 60.8165661 ] ] ] } },
{ "type": "Feature", "properties": { "osm_id": 561804472, "building": "commercial", "street": "Woodland Drive", "area": "New Town Hay River", "flood_pixels": 4 }, "geometry": { "type": "Polygon", "coordinates": [ [ [ -115.788822, 60.809447899999988 ], [ -115.7884667, 60.8093834 ], [ -115.788889, 60.8088304 ], [ -115.7892446, 60.808895 ], [ -115.788822, 60.809447899999988 ] ] ] } },
{ "type": "Feature", "properties": { "osm_id": 561804473, "building": "commercial", "street": "Capital Drive", "area": "New Town Hay River", "flood_pixels": 7 }, "geometry": { "type": "Polygon", "coordinates": [ [ [ -115.7871759, 60.8090488 ], [ -115.7875572, 60.8085379 ], [ -115.7879591, 60.8086092 ], [ -115.7877431, 60.8088986 ], [ -115.788632, 60.809056400000017 ], [ -115.7884666, 60.809278 ], [ -115.7871759, 60.8090488 ] ] ] } },
{ "type": "Feature", "properties": { "osm_id": 561805767, "building": "yes", "street": "Woodland Drive", "area": "New Town Hay River", "flood_pixels": 7 }, "geometry": { "type": "Polygon", "coordinates": [ [ [ -115.789734, 60.809343199999986 ], [ -115.789379, 60.8092761 ], [ -115.789573, 60.8090318 ], [ -115.789928, 60.8090989 ], [ -115.789734, 60.809343199999986 ] ] ] } },
{ "type": "Feature", "properties": { "osm_id": 561805768, "building": "yes", "street": "Woodland Drive", "area": "New Town Hay River", "flood_pixels": 10 }, "geometry": { "type": "Polygon", "coordinates": [ [ [ -115.789820600000013, 60.8093667 ], [ -115.790011199999981, 60.809126600000013 ], [ -115.790437499999982, 60.8092071 ], [ -115.7902468, 60.8094472 ], [ -115.789820600000013, 60.8093667 ] ] ] } },
{ "type": "Feature", "properties": { "osm_id": 561805775, "building": "yes", "street": "Capital Drive", "area": "New Town Hay River", "flood_pixels": 11 }, "geometry": { "type": "Polygon", "coordinates": [ [ [ -115.7867575, 60.808696899999987 ], [ -115.786331, 60.8086158 ], [ -115.7864323, 60.8084892 ], [ -115.7868587, 60.8085703 ], [ -115.7867575, 60.808696899999987 ] ] ] } },
{ "type": "Feature", "properties": { "osm_id": 561805776, "building": "yes", "street": "Capital Drive", "area": "New Town Hay River", "flood_pixels": 19 }, "geometry": { "type": "Polygon", "coordinates": [ [ [ -115.7856926, 60.809412499999986 ], [ -115.785920600000011, 60.8091351 ], [ -115.7860547, 60.8091509 ], [ -115.7862676, 60.809212 ], [ -115.786100299999987, 60.809420399999986 ], [ -115.7861285, 60.809427499999984 ], [ -115.7860665, 60.8095051 ], [ -115.7856926, 60.809412499999986 ] ] ] } },
{ "type": "Feature", "properties": { "osm_id": 777610018, "building": "apartments", "street": "Capital Drive", "area": "New Town Hay River", "flood_pixels": 9 }, "geometry": { "type": "Polygon", "coordinates": [ [ [ -115.7887484, 60.8063494 ], [ -115.788642300000021, 60.8064875 ], [ -115.7884582, 60.806453 ], [ -115.788309600000019, 60.8066153 ], [ -115.7879981, 60.8065704 ], [ -115.78826, 60.8062527 ], [ -115.7887484, 60.8063494 ] ] ] } },
{ "type": "Feature", "properties": { "osm_id": 817120301, "building": "yes", "street": "Service Road", "area": "New Town Hay River", "flood_pixels": 13 }, "geometry": { "type": "Polygon", "coordinates": [ [ [ -115.7864611, 60.8147671 ], [ -115.7857752, 60.8146366 ], [ -115.785892300000015, 60.8145088 ], [ -115.7865726, 60.81465020000001 ], [ -115.7864611, 60.8147671 ] ] ] } },
{ "type": "Feature", "properties": { "osm_id": 817120306, "building": "yes", "street": "Service Road", "area": "New Town Hay River", "flood_pixels": 6 }, "geometry": { "type": "Polygon", "coordinates": [ [ [ -115.7857839, 60.815108 ], [ -115.7859294, 60.8149197 ], [ -115.7856251, 60.8148577 ], [ -115.7854664, 60.8150577 ], [ -115.7857839, 60.815108 ] ] ] } },
{ "type": "Feature", "properties": { "osm_id": 817120344, "building": "yes", "street": "Service Road", "area": "New Town Hay River", "flood_pixels": 4 }, "geometry": { "type": "Polygon", "coordinates": [ [ [ -115.784146, 60.816313 ], [ -115.7839222, 60.8161727 ], [ -115.7839925, 60.8161556 ], [ -115.78419390000002, 60.8162881 ], [ -115.784146, 60.816313 ] ] ] } },
{ "type": "Feature", "properties": { "osm_id": 817120361, "building": "yes", "street": "Nahanni Road", "area": "New Town Hay River", "flood_pixels": 24 }, "geometry": { "type": "Polygon", "coordinates": [ [ [ -115.7873798, 60.8133723 ], [ -115.786835600000018, 60.8132642 ], [ -115.787200100000021, 60.812828 ], [ -115.7875441, 60.812896399999985 ], [ -115.7873252, 60.8131584 ], [ -115.7875253, 60.8131981 ], [ -115.7873798, 60.8133723 ] ] ] } },
{ "type": "Feature", "properties": { "osm_id": 817120362, "building": "yes", "street": "Woodland Drive", "area": "New Town Hay River", "flood_pixels": 25 }, "geometry": { "type": "Polygon", "coordinates": [ [ [ -115.786577900000012, 60.8128902 ], [ -115.786605, 60.8128667 ], [ -115.7866682, 60.8128755 ], [ -115.786776500000016, 60.812799200000015 ], [ -115.786671200000015, 60.8127787 ], [ -115.7867374, 60.8127317 ], [ -115.7865448, 60.8126774 ], [ -115.786271, 60.8125688 ], [ -115.7861868, 60.8126173 ], [ -115.7864636, 60.8127302 ], [ -115.786602, 60.812768400000017 ], [ -115.7864907, 60.8128652 ], [ -115.786577900000012, 60.8128902 ] ] ] } },
{ "type": "Feature", "properties": { "osm_id": 817120364, "building": "yes", "street": "Hay River Highway", "area": "New Town Hay River", "flood_pixels": 3 }, "geometry": { "type": "Polygon", "coordinates": [ [ [ -115.788383200000013, 60.8120391 ], [ -115.7880462, 60.8119482 ], [ -115.7881184, 60.811876299999987 ], [ -115.788356100000016, 60.8119335 ], [ -115.788398199999989, 60.8118895 ], [ -115.78853359999998, 60.8119247 ], [ -115.788383200000013, 60.8120391 ] ] ] } },
{ "type": "Feature", "properties": { "osm_id": 817120386, "building": "yes", "street": "Riverview Drive", "area": "New Town Hay River", "flood_pixels": 3 }, "geometry": { "type": "Polygon", "coordinates": [ [ [ -115.7796684, 60.8125467 ], [ -115.7795377, 60.812468 ], [ -115.779667, 60.81242060000001 ], [ -115.779799, 60.8124966 ], [ -115.7796684, 60.8125467 ] ] ] } },
{ "type": "Feature", "properties": { "osm_id": 817120392, "building": "yes", "street": "Commercial Road", "area": "New Town Hay River", "flood_pixels": 12 }, "geometry": { "type": "Polygon", "coordinates": [ [ [ -115.7891493, 60.8111049 ], [ -115.789061, 60.8110882 ], [ -115.789093500000021, 60.8110475 ], [ -115.788843600000021, 60.811 ], [ -115.788878200000013, 60.810956699999984 ], [ -115.7892244, 60.81102239999997 ], [ -115.789159900000016, 60.8111032 ], [ -115.7891493, 60.8111049 ] ] ] } },
{ "type": "Feature", "properties": { "osm_id": 817120393, "building": "yes", "street": "Woodland Drive", "area": "New Town Hay River", "flood_pixels": 9 }, "geometry": { "type": "Polygon", "coordinates": [ [ [ -115.7881411, 60.8113226 ], [ -115.788251800000012, 60.8112175 ], [ -115.7880857, 60.811179 ], [ -115.7879785, 60.8112824 ], [ -115.7881411, 60.8113226 ] ] ] } },
{ "type": "Feature", "properties": { "osm_id": 817120399, "building": "yes", "street": "Industrial Drive", "area": "New Town Hay River", "flood_pixels": 12 }, "geometry": { "type": "Polygon", "coordinates": [ [ [ -115.793061100000017, 60.8095419 ], [ -115.792645399999984, 60.8094443 ], [ -115.7927752, 60.8092877 ], [ -115.793197400000011, 60.8093842 ], [ -115.793061100000017, 60.8095419 ] ] ] } },
{ "type": "Feature", "properties": { "osm_id": 817120412, "building": "yes", "street": "Industrial Drive", "area": "New Town Hay River", "flood_pixels": 5 }, "geometry": { "type": "Polygon", "coordinates": [ [ [ -115.79480270000002, 60.8087064 ], [ -115.7949171, 60.8085787 ], [ -115.7946752, 60.8085326 ], [ -115.794558599999988, 60.8086549 ], [ -115.79480270000002, 60.8087064 ] ] ] } },
{ "type": "Feature", "properties": { "osm_id": 817120415, "building": "yes", "street": "Industrial Drive", "area": "New Town Hay River", "flood_pixels": 7 }, "geometry": { "type": "Polygon", "coordinates": [ [ [ -115.793289800000011, 60.8089509 ], [ -115.7930721, 60.8089059 ], [ -115.7931292, 60.808849 ], [ -115.7933535, 60.808887599999984 ], [ -115.793289800000011, 60.8089509 ] ] ] } },
{ "type": "Feature", "properties": { "osm_id": 817120416, "building": "yes", "street": "Industrial Drive", "area": "New Town Hay River", "flood_pixels": 18 }, "geometry": { "type": "Polygon", "coordinates": [ [ [ -115.7953736, 60.8081972 ], [ -115.7950591, 60.8081214 ], [ -115.795225400000021, 60.807936199999986 ], [ -115.7957351, 60.808042 ], [ -115.795605, 60.8081901 ], [ -115.7954062, 60.8081496 ], [ -115.7953736, 60.8081972 ] ] ] } },
{ "type": "Feature", "properties": { "osm_id": 817120417, "building": "yes", "street": "Industrial Drive", "area": "New Town Hay River", "flood_pixels": 11 }, "geometry": { "type": "Polygon", "coordinates": [ [ [ -115.796454499999982, 60.8078763 ], [ -115.795464, 60.807675299999985 ], [ -115.7955435, 60.8075783 ], [ -115.79576040000002, 60.80761 ], [ -115.795821900000021, 60.8075501 ], [ -115.7965955, 60.807721099999988 ], [ -115.796454499999982, 60.8078763 ] ] ] } },
{ "type": "Feature", "properties": { "osm_id": 817406643, "building": "yes", "street": "Studney Drive", "area": "New Town Hay River", "flood_pixels": 6 }, "geometry": { "type": "Polygon", "coordinates": [ [ [ -115.7941642, 60.8127661 ], [ -115.7932118, 60.8125914 ], [ -115.793051599999984, 60.8127989 ], [ -115.794004, 60.8129738 ], [ -115.7941642, 60.8127661 ] ] ] } },
{ "type": "Feature", "properties": { "osm_id": 817406644, "building": "yes", "street": "Industrial Drive", "area": "New Town Hay River", "flood_pixels": 9 }, "geometry": { "type": "Polygon", "coordinates": [ [ [ -115.79203480000001, 60.8121022 ], [ -115.792556, 60.8121982 ], [ -115.7926424, 60.812086599999986 ], [ -115.792121100000017, 60.811990699999988 ], [ -115.79203480000001, 60.8121022 ] ] ] } },
{ "type": "Feature", "properties": { "osm_id": 817406645, "building": "yes", "street": "Industrial Drive", "area": "New Town Hay River", "flood_pixels": 3 }, "geometry": { "type": "Polygon", "coordinates": [ [ [ -115.7928755, 60.8121104 ], [ -115.7931258, 60.812156300000019 ], [ -115.7932485, 60.8119972 ], [ -115.792998199999985, 60.8119513 ], [ -115.7928755, 60.8121104 ] ] ] } },
{ "type": "Feature", "properties": { "osm_id": 817406650, "building": "yes", "street": "Studney Drive", "area": "New Town Hay River", "flood_pixels": 21 }, "geometry": { "type": "Polygon", "coordinates": [ [ [ -115.79789, 60.8108177 ], [ -115.798257299999989, 60.810398 ], [ -115.7979789, 60.8103401 ], [ -115.7976115, 60.8107597 ], [ -115.79789, 60.8108177 ] ] ] } },
{ "type": "Feature", "properties": { "osm_id": 817406686, "building": "yes", "street": "Studney Drive", "area": "New Town Hay River", "flood_pixels": 10 }, "geometry": { "type": "Polygon", "coordinates": [ [ [ -115.8002662, 60.8050063 ], [ -115.8006892, 60.805095799999982 ], [ -115.800780499999988, 60.804993 ], [ -115.8003575, 60.80490360000001 ], [ -115.8002662, 60.8050063 ] ] ] } },
{ "type": "Feature", "properties": { "osm_id": 817406693, "building": "yes", "street": "Aspen Drive", "area": "New Town Hay River", "flood_pixels": 3 }, "geometry": { "type": "Polygon", "coordinates": [ [ [ -115.799279199999987, 60.804291 ], [ -115.79953519999998, 60.8039679 ], [ -115.7992075, 60.8039061 ], [ -115.798951500000015, 60.8042292 ], [ -115.799279199999987, 60.804291 ] ] ] } },
{ "type": "Feature", "properties": { "osm_id": 817406694, "building": "yes", "street": "Aspen Drive", "area": "New Town Hay River", "flood_pixels": 11 }, "geometry": { "type": "Polygon", "coordinates": [ [ [ -115.7990659, 60.8040269 ], [ -115.799166, 60.803905899999982 ], [ -115.799022399999984, 60.803877599999986 ], [ -115.7989223, 60.8039987 ], [ -115.7990659, 60.8040269 ] ] ] } },
{ "type": "Feature", "properties": { "osm_id": 817406729, "building": "yes", "street": "Service Road", "area": "Hay River (other areas)", "flood_pixels": 9 }, "geometry": { "type": "Polygon", "coordinates": [ [ [ -115.8031301, 60.8003557 ], [ -115.8028844, 60.800463399999984 ], [ -115.802782, 60.8004078 ], [ -115.803027699999987, 60.800300099999987 ], [ -115.8031301, 60.8003557 ] ] ] } },
{ "type": "Feature", "properties": { "osm_id": 817417590, "building": "yes", "street": "Miron Drive", "area": "Hay River (other areas)", "flood_pixels": 4 }, "geometry": { "type": "Polygon", "coordinates": [ [ [ -115.8159255, 60.794241 ], [ -115.815784400000013, 60.7941208 ], [ -115.81556519999998, 60.7941821 ], [ -115.81565879999998, 60.7942618 ], [ -115.81580120000001, 60.7942219 ], [ -115.8158488, 60.7942625 ], [ -115.8159255, 60.794241 ] ] ] } },
{ "type": "Feature", "properties": { "osm_id": 817417591, "building": "yes", "street": "Miron Drive", "area": "Hay River (other areas)", "flood_pixels": 3 }, "geometry": { "type": "Polygon", "coordinates": [ [ [ -115.8156498, 60.7943697 ], [ -115.8155777, 60.7943062 ], [ -115.8156225, 60.7942941 ], [ -115.8155182, 60.7942022 ], [ -115.8153089, 60.7942588 ], [ -115.8154852, 60.7944142 ], [ -115.8156498, 60.7943697 ] ] ] } },
{ "type": "Feature", "properties": { "osm_id": 817417608, "building": "house", "street": "Miron Drive", "area": "Hay River (other areas)", "flood_pixels": 4 }, "geometry": { "type": "Polygon", "coordinates": [ [ [ -115.8098042, 60.79574479999998 ], [ -115.8100514, 60.7957368 ], [ -115.8100329, 60.7956017 ], [ -115.8097857, 60.7956097 ], [ -115.8098042, 60.79574479999998 ] ] ] } },
{ "type": "Feature", "properties": { "osm_id": 817417611, "building": "house", "street": "Miron Drive", "area": "Hay River (other areas)", "flood_pixels": 3 }, "geometry": { "type": "Polygon", "coordinates": [ [ [ -115.8088872, 60.7953567 ], [ -115.808740799999981, 60.7953596 ], [ -115.8087388, 60.7953363 ], [ -115.8086043, 60.7953389 ], [ -115.8085929, 60.7952019 ], [ -115.8088089, 60.7951976 ], [ -115.808814500000011, 60.795265200000024 ], [ -115.8088795, 60.795264 ], [ -115.8088872, 60.7953567 ] ] ] } },
{ "type": "Feature", "properties": { "osm_id": 817417616, "building": "house", "street": "Riverbend Road", "area": "Hay River (other areas)", "flood_pixels": 3 }, "geometry": { "type": "Polygon", "coordinates": [ [ [ -115.8078973, 60.7959918 ], [ -115.8080748, 60.795950399999988 ], [ -115.807973600000011, 60.795847 ], [ -115.8077961, 60.7958884 ], [ -115.8078973, 60.7959918 ] ] ] } },
{ "type": "Feature", "properties": { "osm_id": 817417617, "building": "house", "street": "Riverbend Road", "area": "Hay River (other areas)", "flood_pixels": 3 }, "geometry": { "type": "Polygon", "coordinates": [ [ [ -115.80796070000001, 60.7961564 ], [ -115.8082096, 60.7960809 ], [ -115.8081184, 60.7960094 ], [ -115.80786950000001, 60.7960849 ], [ -115.80796070000001, 60.7961564 ] ] ] } },
{ "type": "Feature", "properties": { "osm_id": 817417619, "building": "house", "street": "John Mapes Crescent", "area": "Hay River (other areas)", "flood_pixels": 6 }, "geometry": { "type": "Polygon", "coordinates": [ [ [ -115.808836400000018, 60.7961477 ], [ -115.8091448, 60.7960831 ], [ -115.809087800000015, 60.7960184 ], [ -115.8089938, 60.7960381 ], [ -115.8089497, 60.795987899999986 ], [ -115.8087354, 60.7960328 ], [ -115.808836400000018, 60.7961477 ] ] ] } },
{ "type": "Feature", "properties": { "osm_id": 817417638, "building": "house", "street": "Miron Drive", "area": "Hay River (other areas)", "flood_pixels": 19 }, "geometry": { "type": "Polygon", "coordinates": [ [ [ -115.8130806, 60.7956888 ], [ -115.813009100000016, 60.7955978 ], [ -115.812971, 60.7956049 ], [ -115.81290030000001, 60.795515 ], [ -115.8128596, 60.7955226 ], [ -115.8127795, 60.7954209 ], [ -115.81282640000002, 60.7954121 ], [ -115.812754400000017, 60.7953206 ], [ -115.8129337, 60.795287 ], [ -115.8130078, 60.7953812 ], [ -115.812985500000011, 60.795385399999986 ], [ -115.813054100000016, 60.79547250000001 ], [ -115.813081299999979, 60.7954674 ], [ -115.8131572, 60.7955639 ], [ -115.8131875, 60.7955583 ], [ -115.8132632, 60.7956546 ], [ -115.8130806, 60.7956888 ] ] ] } },
{ "type": "Feature", "properties": { "osm_id": 817417639, "building": "house", "street": "Miron Drive", "area": "Hay River (other areas)", "flood_pixels": 4 }, "geometry": { "type": "Polygon", "coordinates": [ [ [ -115.813502600000021, 60.795508 ], [ -115.8134277, 60.7954097 ], [ -115.8134528, 60.7954052 ], [ -115.813382, 60.7953122 ], [ -115.813359500000018, 60.7953162 ], [ -115.8132815, 60.795213699999984 ], [ -115.8134704, 60.7951795 ], [ -115.8135438, 60.795276 ], [ -115.813572300000018, 60.7952708 ], [ -115.8136466, 60.7953683 ], [ -115.813618599999984, 60.7953734 ], [ -115.813694700000013, 60.7954732 ], [ -115.813502600000021, 60.795508 ] ] ] } },
{ "type": "Feature", "properties": { "osm_id": 817417669, "building": "house", "street": "Miron Drive", "area": "Hay River (other areas)", "flood_pixels": 4 }, "geometry": { "type": "Polygon", "coordinates": [ [ [ -115.8035332, 60.796871899999985 ], [ -115.803387699999988, 60.7967964 ], [ -115.803603700000011, 60.7966972 ], [ -115.8036749, 60.7967341 ], [ -115.8037682, 60.7966913 ], [ -115.803886600000013, 60.7967527 ], [ -115.8037644, 60.7968087 ], [ -115.803720499999983, 60.796786 ], [ -115.8035332, 60.796871899999985 ] ] ] } },
{ "type": "Feature", "properties": { "osm_id": 817417671, "building": "house", "street": "Miron Drive", "area": "Hay River (other areas)", "flood_pixels": 5 }, "geometry": { "type": "Polygon", "coordinates": [ [ [ -115.8032703, 60.797016299999981 ], [ -115.8030413, 60.79710229999997 ], [ -115.802949, 60.7970438 ], [ -115.8030129, 60.7970198 ], [ -115.802967700000011, 60.7969912 ], [ -115.8031329, 60.796929199999987 ], [ -115.8032703, 60.797016299999981 ] ] ] } },
{ "type": "Feature", "properties": { "osm_id": 817417683, "building": "house", "street": "Miron Drive", "area": "Hay River (other areas)", "flood_pixels": 10 }, "geometry": { "type": "Polygon", "coordinates": [ [ [ -115.8039805, 60.796218 ], [ -115.804183600000016, 60.7961381 ], [ -115.804068700000016, 60.7960685 ], [ -115.8038656, 60.7961484 ], [ -115.8039805, 60.796218 ] ] ] } },
{ "type": "Feature", "properties": { "osm_id": 817417684, "building": "house", "street": "Miron Drive", "area": "Hay River (other areas)", "flood_pixels": 5 }, "geometry": { "type": "Polygon", "coordinates": [ [ [ -115.803475, 60.7963799 ], [ -115.8033814, 60.796419 ], [ -115.803328600000015, 60.7963889 ], [ -115.803208899999987, 60.7964389 ], [ -115.8030531, 60.7963501 ], [ -115.8032663, 60.796261 ], [ -115.803475, 60.7963799 ] ] ] } },
{ "type": "Feature", "properties": { "osm_id": 817417685, "building": "house", "street": "Miron Drive", "area": "Hay River (other areas)", "flood_pixels": 11 }, "geometry": { "type": "Polygon", "coordinates": [ [ [ -115.802986200000021, 60.796606199999985 ], [ -115.8031183, 60.796554 ], [ -115.8030439, 60.7965091 ], [ -115.8031031, 60.7964858 ], [ -115.8029474, 60.79639190000001 ], [ -115.8027561, 60.7964674 ], [ -115.802986200000021, 60.796606199999985 ] ] ] } },
{ "type": "Feature", "properties": { "osm_id": 817417686, "building": "house", "street": "Miron Drive", "area": "Hay River (other areas)", "flood_pixels": 8 }, "geometry": { "type": "Polygon", "coordinates": [ [ [ -115.8026681, 60.7967517 ], [ -115.802909199999988, 60.7966498 ], [ -115.802795799999984, 60.796586 ], [ -115.8025547, 60.796687900000016 ], [ -115.8026681, 60.7967517 ] ] ] } },
{ "type": "Feature", "properties": { "osm_id": 817417720, "building": "house", "street": "McBryan Drive", "area": "Hay River (other areas)", "flood_pixels": 3 }, "geometry": { "type": "Polygon", "coordinates": [ [ [ -115.7969228, 60.8007229 ], [ -115.7967853, 60.800586 ], [ -115.7966055, 60.8006289 ], [ -115.7966738, 60.800697 ], [ -115.7966137, 60.800711299999989 ], [ -115.7966829, 60.8007802 ], [ -115.7969228, 60.8007229 ] ] ] } },
{ "type": "Feature", "properties": { "osm_id": 817417722, "building": "house", "street": "McBryan Drive", "area": "Hay River (other areas)", "flood_pixels": 3 }, "geometry": { "type": "Polygon", "coordinates": [ [ [ -115.79598559999998, 60.8008184 ], [ -115.7961222, 60.8007857 ], [ -115.796081, 60.8007448 ], [ -115.7961935, 60.8007178 ], [ -115.7961033, 60.8006284 ], [ -115.795951, 60.8006649 ], [ -115.7959706, 60.8006844 ], [ -115.7958738, 60.8007076 ], [ -115.79598559999998, 60.8008184 ] ] ] } },
{ "type": "Feature", "properties": { "osm_id": 817417739, "building": "house", "street": "McRorie Road", "area": "Hay River (other areas)", "flood_pixels": 3 }, "geometry": { "type": "Polygon", "coordinates": [ [ [ -115.7959768, 60.8019173 ], [ -115.7958465, 60.8018818 ], [ -115.7959897, 60.8017567 ], [ -115.79612, 60.8017922 ], [ -115.7959768, 60.8019173 ] ] ] } },
{ "type": "Feature", "properties": { "osm_id": 817417740, "building": "house", "street": "McRorie Road", "area": "Hay River (other areas)", "flood_pixels": 9 }, "geometry": { "type": "Polygon", "coordinates": [ [ [ -115.79573670000002, 60.8018477 ], [ -115.7955602, 60.8018025 ], [ -115.7956674, 60.801703 ], [ -115.7958438, 60.8017483 ], [ -115.79573670000002, 60.8018477 ] ] ] } },
{ "type": "Feature", "properties": { "osm_id": 817417741, "building": "house", "street": "McBryan Drive", "area": "Hay River (other areas)", "flood_pixels": 11 }, "geometry": { "type": "Polygon", "coordinates": [ [ [ -115.7961452, 60.8014643 ], [ -115.7962811, 60.801348 ], [ -115.796145, 60.8013101 ], [ -115.796009, 60.8014265 ], [ -115.7961452, 60.8014643 ] ] ] } },
{ "type": "Feature", "properties": { "osm_id": 817417745, "building": "house", "street": "McBryan Drive", "area": "Hay River (other areas)", "flood_pixels": 8 }, "geometry": { "type": "Polygon", "coordinates": [ [ [ -115.795438599999983, 60.801057900000011 ], [ -115.795277700000014, 60.8010048 ], [ -115.7953772, 60.8009331 ], [ -115.7954056, 60.8009425 ], [ -115.7954885, 60.80088270000001 ], [ -115.795734300000021, 60.8009639 ], [ -115.7956248, 60.8010428 ], [ -115.7955114, 60.80100539999998 ], [ -115.795438599999983, 60.801057900000011 ] ] ] } },
{ "type": "Feature", "properties": { "osm_id": 817417747, "building": "house", "street": "McBryan Drive", "area": "Hay River (other areas)", "flood_pixels": 3 }, "geometry": { "type": "Polygon", "coordinates": [ [ [ -115.794984900000017, 60.8016848 ], [ -115.7947133, 60.8016189 ], [ -115.794829799999988, 60.801504600000015 ], [ -115.794983, 60.8015418 ], [ -115.7949327, 60.8015912 ], [ -115.7950511, 60.8016199 ], [ -115.794984900000017, 60.8016848 ] ] ] } },
{ "type": "Feature", "properties": { "osm_id": 817417748, "building": "house", "street": "McBryan Drive", "area": "Hay River (other areas)", "flood_pixels": 13 }, "geometry": { "type": "Polygon", "coordinates": [ [ [ -115.7945896, 60.801936 ], [ -115.7946564, 60.801863499999989 ], [ -115.7946173, 60.8018445 ], [ -115.7946552, 60.801803300000017 ], [ -115.7944811, 60.8017652 ], [ -115.79436840000001, 60.8018876 ], [ -115.7945896, 60.801936 ] ] ] } },
{ "type": "Feature", "properties": { "osm_id": 817417749, "building": "house", "street": "McBryan Drive", "area": "Hay River (other areas)", "flood_pixels": 8 }, "geometry": { "type": "Polygon", "coordinates": [ [ [ -115.7945273, 60.8021701 ], [ -115.7943907, 60.8021389 ], [ -115.7943251, 60.8022071 ], [ -115.7941369, 60.8021641 ], [ -115.7942585, 60.8020375 ], [ -115.7945833, 60.802111699999983 ], [ -115.7945273, 60.8021701 ] ] ] } },
{ "type": "Feature", "properties": { "osm_id": 817417750, "building": "house", "street": "McRorie Road", "area": "Hay River (other areas)", "flood_pixels": 4 }, "geometry": { "type": "Polygon", "coordinates": [ [ [ -115.795205300000021, 60.8021657 ], [ -115.7953682, 60.802209700000013 ], [ -115.7954877, 60.8021044 ], [ -115.795294500000011, 60.8020522 ], [ -115.7952314, 60.8021078 ], [ -115.7952617, 60.802116 ], [ -115.795205300000021, 60.8021657 ] ] ] } },
{ "type": "Feature", "properties": { "osm_id": 817417751, "building": "house", "street": "McRorie Road", "area": "Hay River (other areas)", "flood_pixels": 6 }, "geometry": { "type": "Polygon", "coordinates": [ [ [ -115.795641100000012, 60.8022638 ], [ -115.795465599999986, 60.8022211 ], [ -115.79549560000001, 60.8021918 ], [ -115.795436199999983, 60.8021773 ], [ -115.795495200000019, 60.802119600000019 ], [ -115.7957301, 60.8021768 ], [ -115.795641100000012, 60.8022638 ] ] ] } },
{ "type": "Feature", "properties": { "osm_id": 817417755, "building": "house", "street": "Abby Place", "area": "Hay River (other areas)", "flood_pixels": 10 }, "geometry": { "type": "Polygon", "coordinates": [ [ [ -115.7949742, 60.8025812 ], [ -115.7950994, 60.8024623 ], [ -115.7949416, 60.8024227 ], [ -115.7948165, 60.8025416 ], [ -115.7949742, 60.8025812 ] ] ] } },
{ "type": "Feature", "properties": { "osm_id": 817417770, "building": "house", "street": "McBryan Drive", "area": "New Town Hay River", "flood_pixels": 3 }, "geometry": { "type": "Polygon", "coordinates": [ [ [ -115.793743400000011, 60.802730299999986 ], [ -115.79347540000002, 60.8026642 ], [ -115.793528800000018, 60.8026126 ], [ -115.7936362, 60.8026392 ], [ -115.7936872, 60.80259 ], [ -115.7938622, 60.80263320000001 ], [ -115.793879200000021, 60.8026168 ], [ -115.7940243, 60.8026526 ], [ -115.7939783, 60.802696899999987 ], [ -115.793818799999983, 60.8026575 ], [ -115.793743400000011, 60.802730299999986 ] ] ] } },
{ "type": "Feature", "properties": { "osm_id": 817417772, "building": "house", "street": "McBryan Drive", "area": "New Town Hay River", "flood_pixels": 6 }, "geometry": { "type": "Polygon", "coordinates": [ [ [ -115.7938763, 60.8024253 ], [ -115.7941274, 60.802491099999983 ], [ -115.7942038, 60.8024218 ], [ -115.794073700000013, 60.8023877 ], [ -115.794103, 60.8023612 ], [ -115.7939819, 60.802329499999985 ], [ -115.7938763, 60.8024253 ] ] ] } },
{ "type": "Feature", "properties": { "osm_id": 817417773, "building": "house", "street": "McBryan Drive", "area": "Hay River (other areas)", "flood_pixels": 14 }, "geometry": { "type": "Polygon", "coordinates": [ [ [ -115.794100499999985, 60.80231710000001 ], [ -115.7942801, 60.802363100000015 ], [ -115.79439570000001, 60.8022557 ], [ -115.794150500000015, 60.8021929 ], [ -115.7941093, 60.8022312 ], [ -115.7941749, 60.802248 ], [ -115.794100499999985, 60.80231710000001 ] ] ] } },
{ "type": "Feature", "properties": { "osm_id": 817417776, "building": "house", "street": "McBryan Drive", "area": "New Town Hay River", "flood_pixels": 8 }, "geometry": { "type": "Polygon", "coordinates": [ [ [ -115.7944472, 60.8030252 ], [ -115.7945132, 60.8029593 ], [ -115.794381200000018, 60.802927899999986 ], [ -115.794315200000014, 60.802993699999988 ], [ -115.7944472, 60.8030252 ] ] ] } },
{ "type": "Feature", "properties": { "osm_id": 817417783, "building": "house", "street": "McBryan Drive", "area": "New Town Hay River", "flood_pixels": 4 }, "geometry": { "type": "Polygon", "coordinates": [ [ [ -115.7928249, 60.8033106 ], [ -115.7925088, 60.8034785 ], [ -115.7923774, 60.8034175 ], [ -115.792690399999984, 60.8032419 ], [ -115.7928249, 60.8033106 ] ] ] } },
{ "type": "Feature", "properties": { "osm_id": 817417784, "building": "house", "street": "McBryan Drive", "area": "New Town Hay River", "flood_pixels": 9 }, "geometry": { "type": "Polygon", "coordinates": [ [ [ -115.7931242, 60.803191599999984 ], [ -115.79295310000002, 60.8031089 ], [ -115.792798, 60.8031853 ], [ -115.7929691, 60.803268 ], [ -115.7931242, 60.803191599999984 ] ] ] } },
{ "type": "Feature", "properties": { "osm_id": 817417785, "building": "house", "street": "McBryan Drive", "area": "New Town Hay River", "flood_pixels": 4 }, "geometry": { "type": "Polygon", "coordinates": [ [ [ -115.793293099999985, 60.8031266 ], [ -115.793142, 60.8030629 ], [ -115.7933088, 60.8029688 ], [ -115.793459899999988, 60.8030325 ], [ -115.793293099999985, 60.8031266 ] ] ] } },
{ "type": "Feature", "properties": { "osm_id": 817417786, "building": "house", "street": "McBryan Drive", "area": "New Town Hay River", "flood_pixels": 11 }, "geometry": { "type": "Polygon", "coordinates": [ [ [ -115.79345170000002, 60.8029833 ], [ -115.7932868, 60.8029258 ], [ -115.7934203, 60.8028347 ], [ -115.7935852, 60.8028923 ], [ -115.79345170000002, 60.8029833 ] ] ] } },
{ "type": "Feature", "properties": { "osm_id": 817417798, "building": "house", "street": "McBryan Drive", "area": "New Town Hay River", "flood_pixels": 3 }, "geometry": { "type": "Polygon", "coordinates": [ [ [ -115.792170399999989, 60.803548899999988 ], [ -115.7922933, 60.803603099999989 ], [ -115.7924509, 60.8035182 ], [ -115.792328, 60.803464 ], [ -115.792170399999989, 60.803548899999988 ] ] ] } },
{ "type": "Feature", "properties": { "osm_id": 817417800, "building": "house", "street": "McBryan Drive", "area": "New Town Hay River", "flood_pixels": 9 }, "geometry": { "type": "Polygon", "coordinates": [ [ [ -115.791553800000017, 60.803868 ], [ -115.791672600000012, 60.803917500000018 ], [ -115.7919487, 60.8037599 ], [ -115.79179, 60.8036938 ], [ -115.79171460000002, 60.80373680000001 ], [ -115.7917546, 60.8037535 ], [ -115.791553800000017, 60.803868 ] ] ] } },
{ "type": "Feature", "properties": { "osm_id": 817417801, "building": "house", "street": "McBryan Drive", "area": "New Town Hay River", "flood_pixels": 6 }, "geometry": { "type": "Polygon", "coordinates": [ [ [ -115.7913193, 60.8040873 ], [ -115.791158700000011, 60.8040156 ], [ -115.791416499999983, 60.803878199999986 ], [ -115.7915771, 60.8039499 ], [ -115.7913193, 60.8040873 ] ] ] } },
{ "type": "Feature", "properties": { "osm_id": 817417802, "building": "house", "street": "McBryan Drive", "area": "New Town Hay River", "flood_pixels": 6 }, "geometry": { "type": "Polygon", "coordinates": [ [ [ -115.7910477, 60.8042307 ], [ -115.7909057, 60.8041704 ], [ -115.79113839999998, 60.8040399 ], [ -115.791280500000013, 60.8041002 ], [ -115.7910477, 60.8042307 ] ] ] } },
{ "type": "Feature", "properties": { "osm_id": 817417808, "building": "house", "street": "McBryan Drive", "area": "New Town Hay River", "flood_pixels": 6 }, "geometry": { "type": "Polygon", "coordinates": [ [ [ -115.7920054, 60.8044915 ], [ -115.791806100000016, 60.8043992 ], [ -115.7920304, 60.804284 ], [ -115.7921339, 60.804332 ], [ -115.7920776, 60.8043609 ], [ -115.79217340000001, 60.8044053 ], [ -115.7920054, 60.8044915 ] ] ] } },
{ "type": "Feature", "properties": { "osm_id": 817419784, "building": "house", "street": "McBryan Drive", "area": "New Town Hay River", "flood_pixels": 7 }, "geometry": { "type": "Polygon", "coordinates": [ [ [ -115.790508800000012, 60.8052112 ], [ -115.7903632, 60.8051813 ], [ -115.790438600000016, 60.8050938 ], [ -115.790584199999984, 60.8051237 ], [ -115.790508800000012, 60.8052112 ] ] ] } },
{ "type": "Feature", "properties": { "osm_id": 817419785, "building": "house", "street": "McBryan Drive", "area": "New Town Hay River", "flood_pixels": 4 }, "geometry": { "type": "Polygon", "coordinates": [ [ [ -115.790882600000018, 60.805127700000014 ], [ -115.790678600000021, 60.8050282 ], [ -115.790782799999988, 60.8049773 ], [ -115.790986800000013, 60.8050769 ], [ -115.790882600000018, 60.805127700000014 ] ] ] } },
{ "type": "Feature", "properties": { "osm_id": 817419786, "building": "house", "street": "McBryan Drive", "area": "New Town Hay River", "flood_pixels": 5 }, "geometry": { "type": "Polygon", "coordinates": [ [ [ -115.7911831, 60.8049728 ], [ -115.7911224, 60.8049465 ], [ -115.791065, 60.804978 ], [ -115.79088710000002, 60.8049009 ], [ -115.790964399999979, 60.8048585 ], [ -115.791012900000013, 60.8048795 ], [ -115.7911697, 60.8047934 ], [ -115.791359799999981, 60.804875799999984 ], [ -115.7911831, 60.8049728 ] ] ] } },
{ "type": "Feature", "properties": { "osm_id": 817419787, "building": "house", "street": "McBryan Drive", "area": "New Town Hay River", "flood_pixels": 5 }, "geometry": { "type": "Polygon", "coordinates": [ [ [ -115.7913292, 60.804787 ], [ -115.7915002, 60.804695 ], [ -115.7913655, 60.8046355 ], [ -115.7911946, 60.8047275 ], [ -115.7913292, 60.804787 ] ] ] } },
{ "type": "Feature", "properties": { "osm_id": 817419788, "building": "house", "street": "McBryan Drive", "area": "New Town Hay River", "flood_pixels": 15 }, "geometry": { "type": "Polygon", "coordinates": [ [ [ -115.7915087, 60.804675 ], [ -115.79171, 60.8045749 ], [ -115.791587100000015, 60.804516099999987 ], [ -115.791385800000015, 60.8046161 ], [ -115.7915087, 60.804675 ] ] ] } },
{ "type": "Feature", "properties": { "osm_id": 817419789, "building": "house", "street": "McBryan Drive", "area": "New Town Hay River", "flood_pixels": 8 }, "geometry": { "type": "Polygon", "coordinates": [ [ [ -115.7903986, 60.805525399999979 ], [ -115.7901232, 60.8054676 ], [ -115.7901883, 60.805393799999983 ], [ -115.7904637, 60.805451600000012 ], [ -115.7903986, 60.805525399999979 ] ] ] } },
{ "type": "Feature", "properties": { "osm_id": 817419801, "building": "house", "street": "McBryan Drive", "area": "New Town Hay River", "flood_pixels": 13 }, "geometry": { "type": "Polygon", "coordinates": [ [ [ -115.7898531, 60.805738600000012 ], [ -115.79001479999998, 60.8057702 ], [ -115.7901093, 60.805654799999985 ], [ -115.7901468, 60.8056621 ], [ -115.7902033, 60.8055931 ], [ -115.790047900000019, 60.805562800000011 ], [ -115.78999690000002, 60.8056252 ], [ -115.789953, 60.805616599999986 ], [ -115.7898531, 60.805738600000012 ] ] ] } },
{ "type": "Feature", "properties": { "osm_id": 817419803, "building": "house", "street": "McBryan Drive", "area": "New Town Hay River", "flood_pixels": 12 }, "geometry": { "type": "Polygon", "coordinates": [ [ [ -115.790889299999989, 60.804425 ], [ -115.790661200000017, 60.8043222 ], [ -115.7905702, 60.8043703 ], [ -115.7906259, 60.804395300000017 ], [ -115.7904316, 60.804498 ], [ -115.790604, 60.8045757 ], [ -115.790889299999989, 60.804425 ] ] ] } },
{ "type": "Feature", "properties": { "osm_id": 817419804, "building": "house", "street": "McBryan Drive", "area": "New Town Hay River", "flood_pixels": 8 }, "geometry": { "type": "Polygon", "coordinates": [ [ [ -115.790351300000012, 60.8047276 ], [ -115.79011060000002, 60.804611700000024 ], [ -115.7903149, 60.804510699999987 ], [ -115.7904295, 60.804565899999972 ], [ -115.790336600000018, 60.8046118 ], [ -115.7904627, 60.804672499999988 ], [ -115.790351300000012, 60.8047276 ] ] ] } },
{ "type": "Feature", "properties": { "osm_id": 817419805, "building": "house", "street": "McBryan Drive", "area": "New Town Hay River", "flood_pixels": 6 }, "geometry": { "type": "Polygon", "coordinates": [ [ [ -115.7901158, 60.8048506 ], [ -115.7899856, 60.80479110000001 ], [ -115.7900202, 60.8047731 ], [ -115.789916399999981, 60.8047257 ], [ -115.7900874, 60.8046365 ], [ -115.790218, 60.804696199999988 ], [ -115.7901666, 60.804723 ], [ -115.7902701, 60.804770199999986 ], [ -115.7901158, 60.8048506 ] ] ] } },
{ "type": "Feature", "properties": { "osm_id": 817419806, "building": "house", "street": "McBryan Drive", "area": "New Town Hay River", "flood_pixels": 10 }, "geometry": { "type": "Polygon", "coordinates": [ [ [ -115.7899302, 60.804967799999986 ], [ -115.7898084, 60.8049277 ], [ -115.7898486, 60.8048986 ], [ -115.789709300000013, 60.804852699999984 ], [ -115.7898255, 60.8047688 ], [ -115.7900671, 60.8048485 ], [ -115.7899738, 60.8049159 ], [ -115.7899932, 60.8049222 ], [ -115.7899302, 60.804967799999986 ] ] ] } },
{ "type": "Feature", "properties": { "osm_id": 817419807, "building": "house", "street": "McBryan Drive", "area": "New Town Hay River", "flood_pixels": 9 }, "geometry": { "type": "Polygon", "coordinates": [ [ [ -115.7897597, 60.80510120000001 ], [ -115.789570600000019, 60.8050703 ], [ -115.7896575, 60.8049437 ], [ -115.7899167, 60.804986 ], [ -115.78985950000002, 60.8050694 ], [ -115.789789399999989, 60.805058 ], [ -115.7897597, 60.80510120000001 ] ] ] } },
{ "type": "Feature", "properties": { "osm_id": 817419808, "building": "house", "street": "McBryan Drive", "area": "New Town Hay River", "flood_pixels": 7 }, "geometry": { "type": "Polygon", "coordinates": [ [ [ -115.789425400000013, 60.8053257 ], [ -115.7895951, 60.805108500000017 ], [ -115.7897633, 60.8051398 ], [ -115.7895936, 60.805357 ], [ -115.789425400000013, 60.8053257 ] ] ] } },
{ "type": "Feature", "properties": { "osm_id": 817419819, "building": "house", "street": "Woodland Drive", "area": "New Town Hay River", "flood_pixels": 10 }, "geometry": { "type": "Polygon", "coordinates": [ [ [ -115.7919676, 60.8066717 ], [ -115.7920432, 60.806561 ], [ -115.7918609, 60.8065208 ], [ -115.7917715, 60.806641499999984 ], [ -115.7919676, 60.8066717 ] ] ] } },
{ "type": "Feature", "properties": { "osm_id": 817419826, "building": "yes", "street": "Studney Drive", "area": "New Town Hay River", "flood_pixels": 26 }, "geometry": { "type": "Polygon", "coordinates": [ [ [ -115.7897144, 60.81711580000001 ], [ -115.7904806, 60.8172746 ], [ -115.790758100000019, 60.8169893 ], [ -115.7900764, 60.8168451 ], [ -115.7900161, 60.8168922 ], [ -115.789925599999989, 60.8168775 ], [ -115.7897144, 60.81711580000001 ] ] ] } },
{ "type": "Feature", "properties": { "osm_id": 823666251, "building": "yes", "street": "unnamed road", "area": "Old Town Hay River", "flood_pixels": 7 }, "geometry": { "type": "Polygon", "coordinates": [ [ [ -115.736229699999981, 60.8582861 ], [ -115.736050800000015, 60.8578973 ], [ -115.73647560000002, 60.85785090000001 ], [ -115.73665440000002, 60.8582397 ], [ -115.736229699999981, 60.8582861 ] ] ] } },
{ "type": "Feature", "properties": { "osm_id": 823666252, "building": "yes", "street": "106th Avenue", "area": "Old Town Hay River", "flood_pixels": 11 }, "geometry": { "type": "Polygon", "coordinates": [ [ [ -115.7395596, 60.8623071 ], [ -115.7394776, 60.8622172 ], [ -115.739721399999979, 60.862164500000013 ], [ -115.7398033, 60.862254399999976 ], [ -115.7395596, 60.8623071 ] ] ] } },
{ "type": "Feature", "properties": { "osm_id": 823666253, "building": "yes", "street": "106th Avenue", "area": "Old Town Hay River", "flood_pixels": 16 }, "geometry": { "type": "Polygon", "coordinates": [ [ [ -115.73933790000001, 60.8618812 ], [ -115.7392375, 60.861662099999982 ], [ -115.739401599999979, 60.8616443 ], [ -115.739502, 60.861863399999969 ], [ -115.73933790000001, 60.8618812 ] ] ] } },
{ "type": "Feature", "properties": { "osm_id": 823666254, "building": "yes", "street": "Lakeshore Drive", "area": "Old Town Hay River", "flood_pixels": 4 }, "geometry": { "type": "Polygon", "coordinates": [ [ [ -115.749934100000019, 60.8666437 ], [ -115.74979949999998, 60.866645 ], [ -115.7497944, 60.8665238 ], [ -115.749929, 60.8665224 ], [ -115.749934100000019, 60.8666437 ] ] ] } },
{ "type": "Feature", "properties": { "osm_id": 823666260, "building": "yes", "street": "104th Avenue", "area": "Old Town Hay River", "flood_pixels": 13 }, "geometry": { "type": "Polygon", "coordinates": [ [ [ -115.73706780000002, 60.857805499999976 ], [ -115.7369468, 60.8575937 ], [ -115.737148500000018, 60.857561 ], [ -115.7372696, 60.8577749 ], [ -115.73706780000002, 60.857805499999976 ] ] ] } },
{ "type": "Feature", "properties": { "osm_id": 823666279, "building": "yes", "street": "103rd Avenue", "area": "Old Town Hay River", "flood_pixels": 6 }, "geometry": { "type": "Polygon", "coordinates": [ [ [ -115.7414362, 60.8545147 ], [ -115.7413424, 60.8543136 ], [ -115.7412941, 60.8543189 ], [ -115.7412622, 60.8542504 ], [ -115.7412989, 60.8542464 ], [ -115.7412816, 60.85420929999998 ], [ -115.7415177, 60.8541831 ], [ -115.7416608, 60.8544898 ], [ -115.7414362, 60.8545147 ] ] ] } },
{ "type": "Feature", "properties": { "osm_id": 823666281, "building": "yes", "street": "103rd Street", "area": "Old Town Hay River", "flood_pixels": 6 }, "geometry": { "type": "Polygon", "coordinates": [ [ [ -115.7414748, 60.8548821 ], [ -115.7414305, 60.854782 ], [ -115.741636900000017, 60.8547604 ], [ -115.7416812, 60.854860499999987 ], [ -115.7414748, 60.8548821 ] ] ] } },
{ "type": "Feature", "properties": { "osm_id": 823666282, "building": "yes", "street": "103rd Street", "area": "Old Town Hay River", "flood_pixels": 7 }, "geometry": { "type": "Polygon", "coordinates": [ [ [ -115.740261, 60.854944 ], [ -115.7402356, 60.8548831 ], [ -115.7406593, 60.854841200000024 ], [ -115.740684699999989, 60.8549021 ], [ -115.740261, 60.854944 ] ] ] } },
{ "type": "Feature", "properties": { "osm_id": 823666296, "building": "yes", "street": "103rd Street", "area": "Old Town Hay River", "flood_pixels": 10 }, "geometry": { "type": "Polygon", "coordinates": [ [ [ -115.740282600000015, 60.854745099999974 ], [ -115.740254, 60.8546907 ], [ -115.740660199999979, 60.8546434 ], [ -115.7406889, 60.854701899999988 ], [ -115.740282600000015, 60.854745099999974 ] ] ] } },
{ "type": "Feature", "properties": { "osm_id": 824375602, "building": "yes", "street": "101st Street", "area": "Old Town Hay River", "flood_pixels": 8 }, "geometry": { "type": "Polygon", "coordinates": [ [ [ -115.735894, 60.8554775 ], [ -115.7358618, 60.8553795 ], [ -115.7360576, 60.8553651 ], [ -115.7360978, 60.8554592 ], [ -115.735894, 60.8554775 ] ] ] } },
{ "type": "Feature", "properties": { "osm_id": 824375603, "building": "yes", "street": "103rd Avenue", "area": "Old Town Hay River", "flood_pixels": 11 }, "geometry": { "type": "Polygon", "coordinates": [ [ [ -115.7353843, 60.854469 ], [ -115.7353151, 60.8543633 ], [ -115.735424399999985, 60.85434630000001 ], [ -115.7354474, 60.8543813 ], [ -115.7355133, 60.854371099999987 ], [ -115.735582, 60.854476 ], [ -115.735485200000014, 60.854491 ], [ -115.735462700000014, 60.8544568 ], [ -115.7353843, 60.854469 ] ] ] } },
{ "type": "Feature", "properties": { "osm_id": 824375604, "building": "yes", "street": "101st Street", "area": "Old Town Hay River", "flood_pixels": 5 }, "geometry": { "type": "Polygon", "coordinates": [ [ [ -115.735257, 60.8541831 ], [ -115.73521, 60.8540829 ], [ -115.735480200000012, 60.8540528 ], [ -115.735527200000021, 60.8541531 ], [ -115.735257, 60.8541831 ] ] ] } },
{ "type": "Feature", "properties": { "osm_id": 824375608, "building": "yes", "street": "100 Street", "area": "Old Town Hay River", "flood_pixels": 6 }, "geometry": { "type": "Polygon", "coordinates": [ [ [ -115.7345007, 60.8534427 ], [ -115.7342223, 60.8534651 ], [ -115.734194500000015, 60.853383200000017 ], [ -115.7344729, 60.8533608 ], [ -115.7345007, 60.8534427 ] ] ] } },
{ "type": "Feature", "properties": { "osm_id": 824375615, "building": "yes", "street": "101st Street", "area": "Old Town Hay River", "flood_pixels": 3 }, "geometry": { "type": "Polygon", "coordinates": [ [ [ -115.735676700000013, 60.8523044 ], [ -115.7356418, 60.8521881 ], [ -115.7358135, 60.8521724 ], [ -115.7358511, 60.8522887 ], [ -115.735676700000013, 60.8523044 ] ] ] } },
{ "type": "Feature", "properties": { "osm_id": 824375616, "building": "yes", "street": "101st Street", "area": "Old Town Hay River", "flood_pixels": 7 }, "geometry": { "type": "Polygon", "coordinates": [ [ [ -115.73553680000002, 60.8520234 ], [ -115.735501199999987, 60.8518621 ], [ -115.7356569, 60.851854 ], [ -115.7356925, 60.8520153 ], [ -115.73553680000002, 60.8520234 ] ] ] } },
{ "type": "Feature", "properties": { "osm_id": 824375618, "building": "yes", "street": "102nd Avenue", "area": "Old Town Hay River", "flood_pixels": 6 }, "geometry": { "type": "Polygon", "coordinates": [ [ [ -115.735573, 60.851481699999979 ], [ -115.735528, 60.8513752 ], [ -115.735369100000014, 60.8513911 ], [ -115.735414100000014, 60.8514976 ], [ -115.735573, 60.851481699999979 ] ] ] } },
{ "type": "Feature", "properties": { "osm_id": 824375619, "building": "yes", "street": "101st Street", "area": "Old Town Hay River", "flood_pixels": 3 }, "geometry": { "type": "Polygon", "coordinates": [ [ [ -115.7355186, 60.8516916 ], [ -115.7354924, 60.8516184 ], [ -115.73568, 60.851602400000012 ], [ -115.7357062, 60.8516756 ], [ -115.7355186, 60.8516916 ] ] ] } },
{ "type": "Feature", "properties": { "osm_id": 824375620, "building": "yes", "street": "102nd Street", "area": "Old Town Hay River", "flood_pixels": 8 }, "geometry": { "type": "Polygon", "coordinates": [ [ [ -115.737031200000018, 60.8518732 ], [ -115.736991, 60.8517713 ], [ -115.736797899999985, 60.8517962 ], [ -115.736838099999986, 60.8518928 ], [ -115.737031200000018, 60.8518732 ] ] ] } },
{ "type": "Feature", "properties": { "osm_id": 824375635, "building": "yes", "street": "Hay River Highway", "area": "Old Town Hay River", "flood_pixels": 4 }, "geometry": { "type": "Polygon", "coordinates": [ [ [ -115.7410187, 60.851525 ], [ -115.740995500000011, 60.851478 ], [ -115.7413784, 60.851433200000017 ], [ -115.7414016, 60.851480099999989 ], [ -115.7410187, 60.851525 ] ] ] } },
{ "type": "Feature", "properties": { "osm_id": 824375638, "building": "yes", "street": "Hay River Highway", "area": "Old Town Hay River", "flood_pixels": 3 }, "geometry": { "type": "Polygon", "coordinates": [ [ [ -115.74109270000001, 60.8511364 ], [ -115.7410351, 60.851019199999982 ], [ -115.7411951, 60.851000499999984 ], [ -115.7412528, 60.8511177 ], [ -115.74109270000001, 60.8511364 ] ] ] } },
{ "type": "Feature", "properties": { "osm_id": 824375639, "building": "yes", "street": "102nd Avenue", "area": "Old Town Hay River", "flood_pixels": 7 }, "geometry": { "type": "Polygon", "coordinates": [ [ [ -115.7407803, 60.8508341 ], [ -115.7407067, 60.850697 ], [ -115.740923, 60.850669399999973 ], [ -115.7409966, 60.8508065 ], [ -115.7407803, 60.8508341 ] ] ] } },
{ "type": "Feature", "properties": { "osm_id": 824375640, "building": "yes", "street": "Hay River Highway", "area": "Old Town Hay River", "flood_pixels": 5 }, "geometry": { "type": "Polygon", "coordinates": [ [ [ -115.7409723, 60.851051 ], [ -115.7407145, 60.8510796 ], [ -115.74068170000001, 60.851009499999989 ], [ -115.740939499999982, 60.85098090000001 ], [ -115.7409723, 60.851051 ] ] ] } },
{ "type": "Feature", "properties": { "osm_id": 824375642, "building": "yes", "street": "103rd Street", "area": "Old Town Hay River", "flood_pixels": 5 }, "geometry": { "type": "Polygon", "coordinates": [ [ [ -115.7389468, 60.8511224 ], [ -115.7385805, 60.8511573 ], [ -115.7385663, 60.8511221 ], [ -115.7389327, 60.8510872 ], [ -115.7389468, 60.8511224 ] ] ] } },
{ "type": "Feature", "properties": { "osm_id": 824375643, "building": "yes", "street": "102nd Avenue", "area": "Old Town Hay River", "flood_pixels": 7 }, "geometry": { "type": "Polygon", "coordinates": [ [ [ -115.7389407, 60.8510161 ], [ -115.7389179, 60.8509384 ], [ -115.7388447, 60.8509435 ], [ -115.738867499999984, 60.8510212 ], [ -115.7389407, 60.8510161 ] ] ] } },
{ "type": "Feature", "properties": { "osm_id": 824375657, "building": "yes", "street": "103rd Street", "area": "Old Town Hay River", "flood_pixels": 3 }, "geometry": { "type": "Polygon", "coordinates": [ [ [ -115.739858499999983, 60.8539017 ], [ -115.7398382, 60.8538601 ], [ -115.7402162, 60.8538163 ], [ -115.7402365, 60.8538579 ], [ -115.739858499999983, 60.8539017 ] ] ] } },
{ "type": "Feature", "properties": { "osm_id": 824375659, "building": "yes", "street": "102nd Street", "area": "Old Town Hay River", "flood_pixels": 3 }, "geometry": { "type": "Polygon", "coordinates": [ [ [ -115.738044, 60.8517196 ], [ -115.7380221, 60.8516726 ], [ -115.7383293, 60.8516387 ], [ -115.7383512, 60.8516856 ], [ -115.738044, 60.8517196 ] ] ] } },
{ "type": "Feature", "properties": { "osm_id": 824375660, "building": "yes", "street": "102nd Street", "area": "Old Town Hay River", "flood_pixels": 6 }, "geometry": { "type": "Polygon", "coordinates": [ [ [ -115.737965200000019, 60.85140530000001 ], [ -115.73795920000002, 60.851313299999987 ], [ -115.738089400000021, 60.8513113 ], [ -115.73809540000002, 60.851403299999987 ], [ -115.737965200000019, 60.85140530000001 ] ] ] } },
{ "type": "Feature", "properties": { "osm_id": 824375662, "building": "yes", "street": "102nd Avenue", "area": "Old Town Hay River", "flood_pixels": 12 }, "geometry": { "type": "Polygon", "coordinates": [ [ [ -115.7422488, 60.8506924 ], [ -115.742232199999989, 60.8506013 ], [ -115.7420161, 60.8506216 ], [ -115.7420328, 60.8507086 ], [ -115.7422488, 60.8506924 ] ] ] } },
{ "type": "Feature", "properties": { "osm_id": 824375664, "building": "yes", "street": "Hay River Highway", "area": "Old Town Hay River", "flood_pixels": 11 }, "geometry": { "type": "Polygon", "coordinates": [ [ [ -115.7422179, 60.8512846 ], [ -115.7421655, 60.8511996 ], [ -115.742058, 60.8512154 ], [ -115.742110400000016, 60.851300299999984 ], [ -115.7422179, 60.8512846 ] ] ] } },
{ "type": "Feature", "properties": { "osm_id": 824375677, "building": "yes", "street": "102nd Avenue", "area": "Old Town Hay River", "flood_pixels": 7 }, "geometry": { "type": "Polygon", "coordinates": [ [ [ -115.7440554, 60.8505271 ], [ -115.743993099999983, 60.850402299999985 ], [ -115.7442764, 60.8503688 ], [ -115.744338700000014, 60.8504935 ], [ -115.7440554, 60.8505271 ] ] ] } },
{ "type": "Feature", "properties": { "osm_id": 824375678, "building": "yes", "street": "105th Street", "area": "Old Town Hay River", "flood_pixels": 3 }, "geometry": { "type": "Polygon", "coordinates": [ [ [ -115.7440893, 60.8507516 ], [ -115.7440507, 60.8506139 ], [ -115.7442184, 60.8506028 ], [ -115.744257100000013, 60.8507404 ], [ -115.7440893, 60.8507516 ] ] ] } },
{ "type": "Feature", "properties": { "osm_id": 824375695, "building": "yes", "street": "102nd Avenue", "area": "Old Town Hay River", "flood_pixels": 16 }, "geometry": { "type": "Polygon", "coordinates": [ [ [ -115.739767400000019, 60.8505121 ], [ -115.73953680000001, 60.8505367 ], [ -115.739506799999987, 60.8504702 ], [ -115.739304500000017, 60.8504919 ], [ -115.7391601, 60.8501718 ], [ -115.739598, 60.850124899999983 ], [ -115.7396771, 60.8503003 ], [ -115.739748500000019, 60.8502927 ], [ -115.7398223, 60.850456499999979 ], [ -115.739746, 60.8504647 ], [ -115.739767400000019, 60.8505121 ] ] ] } },
{ "type": "Feature", "properties": { "osm_id": 824375696, "building": "yes", "street": "100 Avenue", "area": "Old Town Hay River", "flood_pixels": 19 }, "geometry": { "type": "Polygon", "coordinates": [ [ [ -115.736540799999986, 60.8501641 ], [ -115.736764900000011, 60.850132399999971 ], [ -115.7366565, 60.8499503 ], [ -115.736432400000012, 60.849981899999989 ], [ -115.736540799999986, 60.8501641 ] ] ] } },
{ "type": "Feature", "properties": { "osm_id": 824375701, "building": "yes", "street": "100 Avenue", "area": "Old Town Hay River", "flood_pixels": 11 }, "geometry": { "type": "Polygon", "coordinates": [ [ [ -115.733208, 60.8502439 ], [ -115.7331505, 60.8501433 ], [ -115.7334504, 60.8501026 ], [ -115.7335079, 60.8502031 ], [ -115.733208, 60.8502439 ] ] ] } },
{ "type": "Feature", "properties": { "osm_id": 824375702, "building": "yes", "street": "100 Avenue", "area": "Old Town Hay River", "flood_pixels": 4 }, "geometry": { "type": "Polygon", "coordinates": [ [ [ -115.735863800000018, 60.8498389 ], [ -115.7356359, 60.849858 ], [ -115.7356131, 60.8497936 ], [ -115.735841, 60.8497745 ], [ -115.735863800000018, 60.8498389 ] ] ] } },
{ "type": "Feature", "properties": { "osm_id": 824375703, "building": "yes", "street": "100 Avenue", "area": "Old Town Hay River", "flood_pixels": 8 }, "geometry": { "type": "Polygon", "coordinates": [ [ [ -115.7359618, 60.8497544 ], [ -115.7358943, 60.8496163 ], [ -115.735796099999988, 60.8496277 ], [ -115.7358637, 60.849765799999986 ], [ -115.7359618, 60.8497544 ] ] ] } },
{ "type": "Feature", "properties": { "osm_id": 824375705, "building": "yes", "street": "100 Avenue", "area": "Old Town Hay River", "flood_pixels": 4 }, "geometry": { "type": "Polygon", "coordinates": [ [ [ -115.737557, 60.849140699999985 ], [ -115.737507400000013, 60.849049200000017 ], [ -115.737634900000018, 60.8490328 ], [ -115.7376845, 60.8491243 ], [ -115.737557, 60.849140699999985 ] ] ] } },
{ "type": "Feature", "properties": { "osm_id": 824375706, "building": "yes", "street": "Hay River Highway", "area": "Old Town Hay River", "flood_pixels": 10 }, "geometry": { "type": "Polygon", "coordinates": [ [ [ -115.7396399, 60.8488754 ], [ -115.7408586, 60.8487405 ], [ -115.7407314, 60.84846790000001 ], [ -115.73951270000002, 60.8486028 ], [ -115.7396399, 60.8488754 ] ] ] } },
{ "type": "Feature", "properties": { "osm_id": 824375717, "building": "yes", "street": "Hay River Highway", "area": "Old Town Hay River", "flood_pixels": 4 }, "geometry": { "type": "Polygon", "coordinates": [ [ [ -115.743210500000018, 60.8489446 ], [ -115.7434764, 60.8489153 ], [ -115.7434523, 60.848863299999984 ], [ -115.7431864, 60.848892600000013 ], [ -115.743210500000018, 60.8489446 ] ] ] } },
{ "type": "Feature", "properties": { "osm_id": 824375718, "building": "yes", "street": "106 Street", "area": "Old Town Hay River", "flood_pixels": 6 }, "geometry": { "type": "Polygon", "coordinates": [ [ [ -115.744434700000014, 60.849511800000016 ], [ -115.744988800000016, 60.849458 ], [ -115.7449145, 60.8492764 ], [ -115.7443604, 60.8493302 ], [ -115.744434700000014, 60.849511800000016 ] ] ] } },
{ "type": "Feature", "properties": { "osm_id": 824375721, "building": "yes", "street": "Hay River Highway", "area": "Old Town Hay River", "flood_pixels": 13 }, "geometry": { "type": "Polygon", "coordinates": [ [ [ -115.7448606, 60.848144499999982 ], [ -115.7446014, 60.848178 ], [ -115.7445486, 60.8480808 ], [ -115.744807699999981, 60.8480474 ], [ -115.7448606, 60.848144499999982 ] ] ] } },
{ "type": "Feature", "properties": { "osm_id": 824375722, "building": "yes", "street": "Hay River Highway", "area": "Old Town Hay River", "flood_pixels": 33 }, "geometry": { "type": "Polygon", "coordinates": [ [ [ -115.742915700000012, 60.8479077 ], [ -115.7424295, 60.8480253 ], [ -115.7425929, 60.8481857 ], [ -115.7427027, 60.8481591 ], [ -115.742620700000018, 60.848078500000014 ], [ -115.742772500000015, 60.8480419 ], [ -115.7429998, 60.8482654 ], [ -115.7422213, 60.8484532 ], [ -115.7421385, 60.8483718 ], [ -115.7422363, 60.8483482 ], [ -115.742052, 60.848167099999984 ], [ -115.742216900000017, 60.8481273 ], [ -115.7422956, 60.848204599999988 ], [ -115.7423368, 60.8481946 ], [ -115.74239630000001, 60.8482529 ], [ -115.7424373, 60.84824290000001 ], [ -115.7421724, 60.8479842 ], [ -115.7430917, 60.8477608 ], [ -115.7431775, 60.8478447 ], [ -115.7430658, 60.8478718 ], [ -115.743349, 60.8481486 ], [ -115.7431413, 60.848199 ], [ -115.7430553, 60.8481148 ], [ -115.7431127, 60.84810090000002 ], [ -115.742915700000012, 60.8479077 ] ] ] } },
{ "type": "Feature", "properties": { "osm_id": 824375723, "building": "yes", "street": "Hay River Highway", "area": "Old Town Hay River", "flood_pixels": 8 }, "geometry": { "type": "Polygon", "coordinates": [ [ [ -115.7436433, 60.8476609 ], [ -115.74358359999998, 60.8475282 ], [ -115.7437553, 60.847509900000013 ], [ -115.7438149, 60.8476426 ], [ -115.7436433, 60.8476609 ] ] ] } },
{ "type": "Feature", "properties": { "osm_id": 824375724, "building": "yes", "street": "Hay River Highway", "area": "Old Town Hay River", "flood_pixels": 11 }, "geometry": { "type": "Polygon", "coordinates": [ [ [ -115.7438578, 60.8479083 ], [ -115.7440691, 60.8478411 ], [ -115.7439948, 60.8477856 ], [ -115.743783399999984, 60.8478527 ], [ -115.7438578, 60.8479083 ] ] ] } },
{ "type": "Feature", "properties": { "osm_id": 824375725, "building": "yes", "street": "106 Street", "area": "Old Town Hay River", "flood_pixels": 8 }, "geometry": { "type": "Polygon", "coordinates": [ [ [ -115.7466547, 60.849326 ], [ -115.747002600000016, 60.8492597 ], [ -115.7469346, 60.8491752 ], [ -115.7465867, 60.8492415 ], [ -115.7466547, 60.849326 ] ] ] } },
{ "type": "Feature", "properties": { "osm_id": 824375727, "building": "yes", "street": "107 Street", "area": "Old Town Hay River", "flood_pixels": 7 }, "geometry": { "type": "Polygon", "coordinates": [ [ [ -115.7475442, 60.8474758 ], [ -115.7475062, 60.847358 ], [ -115.747718100000014, 60.8473417 ], [ -115.7477561, 60.8474595 ], [ -115.7475442, 60.8474758 ] ] ] } },
{ "type": "Feature", "properties": { "osm_id": 824375729, "building": "yes", "street": "106 Street", "area": "Old Town Hay River", "flood_pixels": 20 }, "geometry": { "type": "Polygon", "coordinates": [ [ [ -115.7452072, 60.848112300000018 ], [ -115.74512630000001, 60.8479509 ], [ -115.7452793, 60.847932700000023 ], [ -115.7453602, 60.8480941 ], [ -115.7452072, 60.848112300000018 ] ] ] } },
{ "type": "Feature", "properties": { "osm_id": 824375730, "building": "yes", "street": "107 Street", "area": "Old Town Hay River", "flood_pixels": 8 }, "geometry": { "type": "Polygon", "coordinates": [ [ [ -115.74804709999998, 60.8482471 ], [ -115.747831299999987, 60.8482732 ], [ -115.7477862, 60.848185 ], [ -115.748002, 60.8481588 ], [ -115.74804709999998, 60.8482471 ] ] ] } },
{ "type": "Feature", "properties": { "osm_id": 824375731, "building": "yes", "street": "Hay River Highway", "area": "Old Town Hay River", "flood_pixels": 8 }, "geometry": { "type": "Polygon", "coordinates": [ [ [ -115.7469976, 60.8465237 ], [ -115.7469619, 60.8465245 ], [ -115.7469287, 60.8465311 ], [ -115.7469019, 60.8465426 ], [ -115.746884499999979, 60.8465579 ], [ -115.74687849999998, 60.84657510000001 ], [ -115.746884499999979, 60.8465923 ], [ -115.7469019, 60.8466075 ], [ -115.7469288, 60.846619 ], [ -115.7469597, 60.846625299999985 ], [ -115.7469931, 60.8466266 ], [ -115.7470256, 60.8466228 ], [ -115.7470541, 60.8466142 ], [ -115.7470757, 60.8466017 ], [ -115.747088199999979, 60.8465865 ], [ -115.747090299999982, 60.846570199999988 ], [ -115.7470811, 60.8465534 ], [ -115.747060800000014, 60.846539 ], [ -115.7470319, 60.8465287 ], [ -115.7469976, 60.8465237 ] ] ] } },
{ "type": "Feature", "properties": { "osm_id": 824375733, "building": "yes", "street": "Hay River Highway", "area": "Old Town Hay River", "flood_pixels": 4 }, "geometry": { "type": "Polygon", "coordinates": [ [ [ -115.74788820000002, 60.8463996 ], [ -115.74784360000001, 60.8464116 ], [ -115.747809100000012, 60.8464298 ], [ -115.7477882, 60.8464524 ], [ -115.747783, 60.8464771 ], [ -115.7477942, 60.8465013 ], [ -115.7478205, 60.846522499999985 ], [ -115.7478593, 60.8465386 ], [ -115.7479065, 60.846547799999989 ], [ -115.74796090000001, 60.8465491 ], [ -115.748013, 60.8465414 ], [ -115.7480567, 60.8465255 ], [ -115.7480867, 60.8465034 ], [ -115.7480996, 60.8464776 ], [ -115.7480939, 60.8464512 ], [ -115.7480702, 60.8464273 ], [ -115.7480342, 60.8464098 ], [ -115.7479887, 60.846398699999988 ], [ -115.747938300000015, 60.846395200000011 ], [ -115.74788820000002, 60.8463996 ] ] ] } },
{ "type": "Feature", "properties": { "osm_id": 824375737, "building": "yes", "street": "Hay River Highway", "area": "Old Town Hay River", "flood_pixels": 7 }, "geometry": { "type": "Polygon", "coordinates": [ [ [ -115.7488163, 60.846212800000011 ], [ -115.748867200000021, 60.8462307 ], [ -115.7489033, 60.8462557 ], [ -115.7489208, 60.8462851 ], [ -115.7489178, 60.8463157 ], [ -115.74889450000002, 60.8463441 ], [ -115.7488536, 60.8463673 ], [ -115.7487994, 60.8463828 ], [ -115.7487378, 60.8463888 ], [ -115.748675599999984, 60.846384799999989 ], [ -115.7486195, 60.8463712 ], [ -115.7485754, 60.846349399999987 ], [ -115.7485482, 60.846321899999971 ], [ -115.748540899999981, 60.8462915 ], [ -115.7485542, 60.8462616 ], [ -115.7485866, 60.8462355 ], [ -115.7486348, 60.846215800000024 ], [ -115.748693500000016, 60.8462049 ], [ -115.748756200000017, 60.8462038 ], [ -115.7488163, 60.846212800000011 ] ] ] } },
{ "type": "Feature", "properties": { "osm_id": 824375738, "building": "yes", "street": "107 Street", "area": "Old Town Hay River", "flood_pixels": 4 }, "geometry": { "type": "Polygon", "coordinates": [ [ [ -115.7474849, 60.8469977 ], [ -115.7479435, 60.846939 ], [ -115.747893300000015, 60.84684570000001 ], [ -115.747434699999985, 60.8469042 ], [ -115.7474849, 60.8469977 ] ] ] } },
{ "type": "Feature", "properties": { "osm_id": 824375742, "building": "yes", "street": "Hay River Highway", "area": "Vale Island", "flood_pixels": 14 }, "geometry": { "type": "Polygon", "coordinates": [ [ [ -115.7522616, 60.8462351 ], [ -115.7523395, 60.846462499999987 ], [ -115.752821899999986, 60.8464233 ], [ -115.752743899999984, 60.8461959 ], [ -115.7522616, 60.8462351 ] ] ] } },
{ "type": "Feature", "properties": { "osm_id": 824375744, "building": "yes", "street": "Hay River Highway", "area": "Vale Island", "flood_pixels": 12 }, "geometry": { "type": "Polygon", "coordinates": [ [ [ -115.7533696, 60.8463618 ], [ -115.7535545, 60.8463431 ], [ -115.7534562, 60.846112 ], [ -115.7532712, 60.8461307 ], [ -115.7533696, 60.8463618 ] ] ] } },
{ "type": "Feature", "properties": { "osm_id": 824375745, "building": "yes", "street": "Hay River Highway", "area": "Vale Island", "flood_pixels": 13 }, "geometry": { "type": "Polygon", "coordinates": [ [ [ -115.7529993, 60.845869 ], [ -115.7529075, 60.8457035 ], [ -115.7531523, 60.8456712 ], [ -115.753191500000014, 60.8457418 ], [ -115.753492, 60.8457023 ], [ -115.7535447, 60.8457972 ], [ -115.7529993, 60.845869 ] ] ] } },
{ "type": "Feature", "properties": { "osm_id": 824375748, "building": "yes", "street": "Hay River Highway", "area": "Vale Island", "flood_pixels": 3 }, "geometry": { "type": "Polygon", "coordinates": [ [ [ -115.7570953, 60.843406899999984 ], [ -115.75673519999998, 60.8433272 ], [ -115.75687360000002, 60.8431787 ], [ -115.7568996, 60.8431509 ], [ -115.757259800000014, 60.8432307 ], [ -115.7570953, 60.843406899999984 ] ] ] } },
{ "type": "Feature", "properties": { "osm_id": 825393736, "building": "yes", "street": "Pine Crescent", "area": "New Town Hay River", "flood_pixels": 4 }, "geometry": { "type": "Polygon", "coordinates": [ [ [ -115.7894021, 60.8193342 ], [ -115.789455, 60.8192696 ], [ -115.7892087, 60.8192217 ], [ -115.7891445, 60.8193 ], [ -115.7891696, 60.8193049 ], [ -115.7891559, 60.819321699999982 ], [ -115.789233, 60.8193367 ], [ -115.789258099999984, 60.8193061 ], [ -115.7894021, 60.8193342 ] ] ] } },
{ "type": "Feature", "properties": { "osm_id": 825393737, "building": "yes", "street": "Pine Crescent", "area": "New Town Hay River", "flood_pixels": 5 }, "geometry": { "type": "Polygon", "coordinates": [ [ [ -115.7890572, 60.8193469 ], [ -115.78902, 60.819395200000017 ], [ -115.789209700000015, 60.81942990000001 ], [ -115.7891876, 60.819458699999977 ], [ -115.7892711, 60.819474 ], [ -115.789301, 60.8194351 ], [ -115.7893602, 60.8194459 ], [ -115.7893896, 60.8194077 ], [ -115.7890572, 60.8193469 ] ] ] } },
{ "type": "Feature", "properties": { "osm_id": 825393738, "building": "yes", "street": "Pine Crescent", "area": "New Town Hay River", "flood_pixels": 4 }, "geometry": { "type": "Polygon", "coordinates": [ [ [ -115.788901, 60.819480099999986 ], [ -115.7888739, 60.8195154 ], [ -115.7889287, 60.8195254 ], [ -115.788906400000016, 60.819554499999988 ], [ -115.789059100000017, 60.819582399999987 ], [ -115.7890824, 60.819552099999989 ], [ -115.7892129, 60.819576 ], [ -115.789239100000017, 60.819541899999983 ], [ -115.788901, 60.819480099999986 ] ] ] } },
{ "type": "Feature", "properties": { "osm_id": 825393740, "building": "yes", "street": "Pine Crescent", "area": "New Town Hay River", "flood_pixels": 5 }, "geometry": { "type": "Polygon", "coordinates": [ [ [ -115.788785899999979, 60.8196041 ], [ -115.789131, 60.81968 ], [ -115.7890749, 60.8197407 ], [ -115.7887297, 60.8196647 ], [ -115.788785899999979, 60.8196041 ] ] ] } },
{ "type": "Feature", "properties": { "osm_id": 825401344, "building": "yes", "street": "Airport Rd", "area": "Hay River (other areas)", "flood_pixels": 6 }, "geometry": { "type": "Polygon", "coordinates": [ [ [ -115.778723, 60.8383665 ], [ -115.7785981, 60.8383989 ], [ -115.7785024, 60.838311200000014 ], [ -115.7787465, 60.838247900000013 ], [ -115.7788152, 60.8383108 ], [ -115.778714900000011, 60.838336799999986 ], [ -115.778723, 60.8383665 ] ] ] } },
{ "type": "Feature", "properties": { "osm_id": 825401347, "building": "yes", "street": "Buffalo Dr", "area": "Vale Island", "flood_pixels": 10 }, "geometry": { "type": "Polygon", "coordinates": [ [ [ -115.7674254, 60.8434718 ], [ -115.767344, 60.8435028 ], [ -115.7672622, 60.843534099999985 ], [ -115.767082099999982, 60.8434222 ], [ -115.767245299999985, 60.843359799999988 ], [ -115.7674254, 60.8434718 ] ] ] } },
{ "type": "Feature", "properties": { "osm_id": 826303692, "building": "yes", "street": "Cranberry Crescent", "area": "New Town Hay River", "flood_pixels": 3 }, "geometry": { "type": "Polygon", "coordinates": [ [ [ -115.784687, 60.8247995 ], [ -115.7846258, 60.8248709 ], [ -115.78435540000001, 60.8248159 ], [ -115.7844605, 60.8246931 ], [ -115.7846412, 60.8247299 ], [ -115.7846184, 60.8247565 ], [ -115.7846606, 60.8247651 ], [ -115.784639500000011, 60.8247898 ], [ -115.784687, 60.8247995 ] ] ] } },
{ "type": "Feature", "properties": { "osm_id": 826303693, "building": "yes", "street": "Cranberry Crescent", "area": "New Town Hay River", "flood_pixels": 7 }, "geometry": { "type": "Polygon", "coordinates": [ [ [ -115.7843413, 60.824839 ], [ -115.7844883, 60.824867 ], [ -115.784464, 60.8248974 ], [ -115.784509200000016, 60.824906 ], [ -115.7844896, 60.824930499999972 ], [ -115.7845559, 60.8249431 ], [ -115.784499, 60.8250143 ], [ -115.784181600000011, 60.824954 ], [ -115.7842302, 60.824893199999984 ], [ -115.784289, 60.8249044 ], [ -115.7843413, 60.824839 ] ] ] } },
{ "type": "Feature", "properties": { "osm_id": 826303694, "building": "yes", "street": "Cranberry Crescent", "area": "New Town Hay River", "flood_pixels": 4 }, "geometry": { "type": "Polygon", "coordinates": [ [ [ -115.784465700000013, 60.8250435 ], [ -115.7844221, 60.8250959 ], [ -115.784454, 60.825102200000011 ], [ -115.7844009, 60.8251661 ], [ -115.7840948, 60.8251057 ], [ -115.7841212, 60.8250739 ], [ -115.7840771, 60.8250652 ], [ -115.7841188, 60.8250149 ], [ -115.7841323, 60.8250201 ], [ -115.78416270000001, 60.8249836 ], [ -115.784465700000013, 60.8250435 ] ] ] } },
{ "type": "Feature", "properties": { "osm_id": 826303698, "building": "yes", "street": "Cranberry Crescent", "area": "New Town Hay River", "flood_pixels": 7 }, "geometry": { "type": "Polygon", "coordinates": [ [ [ -115.7832805, 60.8256052 ], [ -115.783364400000011, 60.8256643 ], [ -115.7833268, 60.825677 ], [ -115.783424700000012, 60.825746 ], [ -115.7835651, 60.8256987 ], [ -115.7835165, 60.8256644 ], [ -115.7836182, 60.8256301 ], [ -115.783485099999979, 60.8255363 ], [ -115.7832805, 60.8256052 ] ] ] } },
{ "type": "Feature", "properties": { "osm_id": 827517462, "building": "yes", "street": "Hay River Highway", "area": "New Town Hay River", "flood_pixels": 15 }, "geometry": { "type": "Polygon", "coordinates": [ [ [ -115.7758525, 60.826475599999988 ], [ -115.776299499999979, 60.826530799999986 ], [ -115.776212699999988, 60.8266979 ], [ -115.7765876, 60.8267442 ], [ -115.7765403, 60.8268352 ], [ -115.7767925, 60.8268664 ], [ -115.7767622, 60.826924700000021 ], [ -115.776529100000019, 60.8268959 ], [ -115.776508899999982, 60.826934799999989 ], [ -115.77631479999998, 60.8269109 ], [ -115.776344099999989, 60.8268543 ], [ -115.7756972, 60.8267745 ], [ -115.7758525, 60.826475599999988 ] ] ] } },
{ "type": "Feature", "properties": { "osm_id": 827517463, "building": "yes", "street": "unnamed road", "area": "New Town Hay River", "flood_pixels": 3 }, "geometry": { "type": "Polygon", "coordinates": [ [ [ -115.7756089, 60.827253 ], [ -115.7753696, 60.8272282 ], [ -115.775444900000011, 60.827055799999989 ], [ -115.7756841, 60.8270806 ], [ -115.7756089, 60.827253 ] ] ] } },
{ "type": "Feature", "properties": { "osm_id": 827761210, "building": "yes", "street": "Woodland Drive", "area": "New Town Hay River", "flood_pixels": 7 }, "geometry": { "type": "Polygon", "coordinates": [ [ [ -115.7786641, 60.8202002 ], [ -115.77869920000002, 60.8201511 ], [ -115.77873, 60.8201564 ], [ -115.778781100000018, 60.8200851 ], [ -115.778581, 60.8200511 ], [ -115.7784948, 60.8201714 ], [ -115.7786641, 60.8202002 ] ] ] } },
{ "type": "Feature", "properties": { "osm_id": 831551648, "building": "yes", "street": "Marten Rd", "area": "Hay River (other areas)", "flood_pixels": 4 }, "geometry": { "type": "Polygon", "coordinates": [ [ [ -115.767553300000017, 60.8321468 ], [ -115.7674206, 60.8320794 ], [ -115.767598300000017, 60.8319963 ], [ -115.767731, 60.832063699999985 ], [ -115.767553300000017, 60.8321468 ] ] ] } },
{ "type": "Feature", "properties": { "osm_id": 831551649, "building": "yes", "street": "Marten Rd", "area": "Hay River (other areas)", "flood_pixels": 8 }, "geometry": { "type": "Polygon", "coordinates": [ [ [ -115.7671014, 60.8323833 ], [ -115.766976600000021, 60.8323229 ], [ -115.7671465, 60.8322395 ], [ -115.767271300000019, 60.83229990000001 ], [ -115.7671014, 60.8323833 ] ] ] } },
{ "type": "Feature", "properties": { "osm_id": 831551651, "building": "yes", "street": "Fox Rd", "area": "Hay River (other areas)", "flood_pixels": 11 }, "geometry": { "type": "Polygon", "coordinates": [ [ [ -115.766068200000021, 60.8326319 ], [ -115.7662657, 60.83272130000001 ], [ -115.7663886, 60.8326568 ], [ -115.7661911, 60.8325674 ], [ -115.766068200000021, 60.8326319 ] ] ] } },
{ "type": "Feature", "properties": { "osm_id": 831551652, "building": "yes", "street": "Fox Rd", "area": "Hay River (other areas)", "flood_pixels": 12 }, "geometry": { "type": "Polygon", "coordinates": [ [ [ -115.7669298, 60.832995899999986 ], [ -115.766996899999981, 60.833021 ], [ -115.7670261, 60.833002499999985 ], [ -115.767089, 60.833026 ], [ -115.76720060000001, 60.8329553 ], [ -115.7670046, 60.8328819 ], [ -115.7668935, 60.8329523 ], [ -115.7669595, 60.8329771 ], [ -115.7669298, 60.832995899999986 ] ] ] } },
{ "type": "Feature", "properties": { "osm_id": 831551656, "building": "yes", "street": "unnamed road", "area": "Hay River (other areas)", "flood_pixels": 7 }, "geometry": { "type": "Polygon", "coordinates": [ [ [ -115.771331500000016, 60.8298423 ], [ -115.771617800000016, 60.8297967 ], [ -115.771522, 60.8296539 ], [ -115.7712357, 60.8296995 ], [ -115.771331500000016, 60.8298423 ] ] ] } },
{ "type": "Feature", "properties": { "osm_id": 831551669, "building": "yes", "street": "Wolf Dr", "area": "Hay River (other areas)", "flood_pixels": 8 }, "geometry": { "type": "Polygon", "coordinates": [ [ [ -115.7579672, 60.8366147 ], [ -115.7576728, 60.836573 ], [ -115.7577205, 60.83649310000002 ], [ -115.75801490000002, 60.8365348 ], [ -115.7579672, 60.8366147 ] ] ] } },
{ "type": "Feature", "properties": { "osm_id": 831551670, "building": "yes", "street": "Wolf Dr", "area": "Hay River (other areas)", "flood_pixels": 6 }, "geometry": { "type": "Polygon", "coordinates": [ [ [ -115.7572108, 60.8371216 ], [ -115.757276300000015, 60.8370318 ], [ -115.757058, 60.8369939 ], [ -115.7569998, 60.837083800000023 ], [ -115.7572108, 60.8371216 ] ] ] } },
{ "type": "Feature", "properties": { "osm_id": 831551682, "building": "yes", "street": "Reserve Highway", "area": "Hay River (other areas)", "flood_pixels": 3 }, "geometry": { "type": "Polygon", "coordinates": [ [ [ -115.7550749, 60.8366631 ], [ -115.7548646, 60.836640200000012 ], [ -115.754881200000014, 60.8366041 ], [ -115.754828799999984, 60.8365984 ], [ -115.7548486, 60.8365552 ], [ -115.7550565, 60.8365779 ], [ -115.755033900000015, 60.836627300000025 ], [ -115.7550886, 60.8366332 ], [ -115.7550749, 60.8366631 ] ] ] } },
{ "type": "Feature", "properties": { "osm_id": 831551688, "building": "yes", "street": "Wolf Dr", "area": "Hay River (other areas)", "flood_pixels": 3 }, "geometry": { "type": "Polygon", "coordinates": [ [ [ -115.7590717, 60.8374289 ], [ -115.7588455, 60.8373703 ], [ -115.7589322, 60.8372908 ], [ -115.7591584, 60.8373495 ], [ -115.7590717, 60.8374289 ] ] ] } },
{ "type": "Feature", "properties": { "osm_id": 831551717, "building": "yes", "street": "Fox Rd", "area": "Hay River (other areas)", "flood_pixels": 11 }, "geometry": { "type": "Polygon", "coordinates": [ [ [ -115.7678547, 60.8333948 ], [ -115.7677234, 60.8333149 ], [ -115.7679141, 60.833240399999987 ], [ -115.7680236, 60.833307 ], [ -115.76796920000001, 60.833328300000019 ], [ -115.7680085, 60.8333522 ], [ -115.767941900000011, 60.8333782 ], [ -115.7679244, 60.8333675 ], [ -115.7678547, 60.8333948 ] ] ] } },
{ "type": "Feature", "properties": { "osm_id": 831551738, "building": "yes", "street": "Reserve Highway", "area": "Old Town Hay River", "flood_pixels": 9 }, "geometry": { "type": "Polygon", "coordinates": [ [ [ -115.726693600000019, 60.859504099999988 ], [ -115.726542199999983, 60.8593607 ], [ -115.7267075, 60.859319299999989 ], [ -115.7268591, 60.8594627 ], [ -115.726693600000019, 60.859504099999988 ] ] ] } },
{ "type": "Feature", "properties": { "osm_id": 831551745, "building": "yes", "street": "Hay River Highway", "area": "Hay River (other areas)", "flood_pixels": 3 }, "geometry": { "type": "Polygon", "coordinates": [ [ [ -115.7766602, 60.8295456 ], [ -115.776609500000021, 60.829432699999984 ], [ -115.776822699999983, 60.82941 ], [ -115.776861, 60.8294953 ], [ -115.776823899999982, 60.8294993 ], [ -115.7768362, 60.829526799999989 ], [ -115.7766602, 60.8295456 ] ] ] } },
{ "type": "Feature", "properties": { "osm_id": 831551746, "building": "yes", "street": "Hay River Highway", "area": "Hay River (other areas)", "flood_pixels": 4 }, "geometry": { "type": "Polygon", "coordinates": [ [ [ -115.7765188, 60.829192499999984 ], [ -115.7764441, 60.8290235 ], [ -115.7766007, 60.8290071 ], [ -115.7766753, 60.829176 ], [ -115.7765188, 60.829192499999984 ] ] ] } },
{ "type": "Feature", "properties": { "osm_id": 831551747, "building": "yes", "street": "Hay River Highway", "area": "Hay River (other areas)", "flood_pixels": 3 }, "geometry": { "type": "Polygon", "coordinates": [ [ [ -115.7770268, 60.829108 ], [ -115.7770199, 60.829023699999986 ], [ -115.7772268, 60.8290197 ], [ -115.777233700000011, 60.829104 ], [ -115.7770268, 60.829108 ] ] ] } },
{ "type": "Feature", "properties": { "osm_id": 831551748, "building": "yes", "street": "Hay River Highway", "area": "Hay River (other areas)", "flood_pixels": 13 }, "geometry": { "type": "Polygon", "coordinates": [ [ [ -115.7771285, 60.828538099999989 ], [ -115.7767747, 60.8285514 ], [ -115.7767555, 60.8284645 ], [ -115.777114800000021, 60.8284498 ], [ -115.7771285, 60.828538099999989 ] ] ] } },
{ "type": "Feature", "properties": { "osm_id": 831551749, "building": "yes", "street": "Hay River Highway", "area": "Hay River (other areas)", "flood_pixels": 9 }, "geometry": { "type": "Polygon", "coordinates": [ [ [ -115.776431, 60.8287693 ], [ -115.7761841, 60.8287777 ], [ -115.776178499999986, 60.828738900000012 ], [ -115.7762469, 60.8287366 ], [ -115.7762377, 60.8286721 ], [ -115.7765168, 60.8286626 ], [ -115.7765261, 60.8287273 ], [ -115.7764255, 60.8287307 ], [ -115.776431, 60.8287693 ] ] ] } },
{ "type": "Feature", "properties": { "osm_id": 831551750, "building": "yes", "street": "Hay River Highway", "area": "Hay River (other areas)", "flood_pixels": 19 }, "geometry": { "type": "Polygon", "coordinates": [ [ [ -115.776452400000011, 60.828557599999989 ], [ -115.776191, 60.8285605 ], [ -115.7761889, 60.8285175 ], [ -115.776121800000013, 60.8285182 ], [ -115.776118400000016, 60.8284479 ], [ -115.776447, 60.828444199999986 ], [ -115.776452400000011, 60.828557599999989 ] ] ] } },
{ "type": "Feature", "properties": { "osm_id": 831551759, "building": "yes", "street": "Caribou Crescent", "area": "New Town Hay River", "flood_pixels": 12 }, "geometry": { "type": "Polygon", "coordinates": [ [ [ -115.777136199999987, 60.813589299999983 ], [ -115.777282, 60.8136586 ], [ -115.777155600000015, 60.81372180000001 ], [ -115.776977799999983, 60.813637300000018 ], [ -115.7770346, 60.8136089 ], [ -115.77707820000002, 60.8136184 ], [ -115.777136199999987, 60.813589299999983 ] ] ] } },
{ "type": "Feature", "properties": { "osm_id": 831551764, "building": "yes", "street": "Riverview Drive", "area": "New Town Hay River", "flood_pixels": 4 }, "geometry": { "type": "Polygon", "coordinates": [ [ [ -115.777739299999979, 60.8133614 ], [ -115.7776048, 60.8132874 ], [ -115.7777317, 60.813232500000019 ], [ -115.7778662, 60.8133065 ], [ -115.777739299999979, 60.8133614 ] ] ] } },
{ "type": "Feature", "properties": { "osm_id": 831551766, "building": "yes", "street": "Riverview Drive", "area": "New Town Hay River", "flood_pixels": 4 }, "geometry": { "type": "Polygon", "coordinates": [ [ [ -115.7780822, 60.8132061 ], [ -115.777956900000021, 60.813128099999986 ], [ -115.7781197, 60.8130659 ], [ -115.7782905, 60.8131723 ], [ -115.778204299999985, 60.8132052 ], [ -115.7781588, 60.8131769 ], [ -115.7780822, 60.8132061 ] ] ] } },
{ "type": "Feature", "properties": { "osm_id": 831551769, "building": "yes", "street": "Riverview Drive", "area": "New Town Hay River", "flood_pixels": 7 }, "geometry": { "type": "Polygon", "coordinates": [ [ [ -115.7767081, 60.813860600000019 ], [ -115.7769977, 60.8140156 ], [ -115.777089300000014, 60.8139749 ], [ -115.7767996, 60.8138199 ], [ -115.7767081, 60.813860600000019 ] ] ] } },
{ "type": "Feature", "properties": { "osm_id": 876108327, "building": "yes", "street": "unnamed road", "area": "Hay River (other areas)", "flood_pixels": 12 }, "geometry": { "type": "Polygon", "coordinates": [ [ [ -115.826687, 60.781682 ], [ -115.826513299999988, 60.7817634 ], [ -115.826358199999987, 60.7816845 ], [ -115.8265318, 60.7816031 ], [ -115.826687, 60.781682 ] ] ] } },
{ "type": "Feature", "properties": { "osm_id": 876108328, "building": "yes", "street": "unnamed road", "area": "Hay River (other areas)", "flood_pixels": 4 }, "geometry": { "type": "Polygon", "coordinates": [ [ [ -115.8261201, 60.781754699999972 ], [ -115.8259548, 60.7818935 ], [ -115.826256700000016, 60.7819792 ], [ -115.8263317, 60.7819162 ], [ -115.8262254, 60.781886 ], [ -115.8262803, 60.7818399 ], [ -115.8262086, 60.7818196 ], [ -115.8262441, 60.7817898 ], [ -115.8261201, 60.781754699999972 ] ] ] } },
{ "type": "Feature", "properties": { "osm_id": 876206655, "building": "yes", "street": "Capital Drive", "area": "New Town Hay River", "flood_pixels": 21 }, "geometry": { "type": "Polygon", "coordinates": [ [ [ -115.7866184, 60.8089146 ], [ -115.7865121, 60.8090307 ], [ -115.786048099999988, 60.8089298 ], [ -115.78594630000002, 60.809041 ], [ -115.7856734, 60.808981599999989 ], [ -115.7858814, 60.808754199999989 ], [ -115.7866184, 60.8089146 ] ] ] } },
{ "type": "Feature", "properties": { "osm_id": 876214444, "building": "yes", "street": "Capital Drive", "area": "New Town Hay River", "flood_pixels": 15 }, "geometry": { "type": "Polygon", "coordinates": [ [ [ -115.7863954, 60.8084118 ], [ -115.7860735, 60.8083437 ], [ -115.785979600000019, 60.808362 ], [ -115.785789200000011, 60.808591 ], [ -115.7858241, 60.8086459 ], [ -115.7861567, 60.808716599999983 ], [ -115.7862318, 60.8086237 ], [ -115.7861406, 60.8086067 ], [ -115.786242500000014, 60.80847450000001 ], [ -115.7863203, 60.8084929 ], [ -115.7863954, 60.8084118 ] ] ] } },
{ "type": "Feature", "properties": { "osm_id": 876214445, "building": "yes", "street": "Capital Drive", "area": "New Town Hay River", "flood_pixels": 25 }, "geometry": { "type": "Polygon", "coordinates": [ [ [ -115.7858442, 60.8096434 ], [ -115.785877699999986, 60.8097075 ], [ -115.7857624, 60.80984620000001 ], [ -115.7856323, 60.8098658 ], [ -115.7854995, 60.8098252 ], [ -115.7854968, 60.8098056 ], [ -115.784989900000014, 60.8096715 ], [ -115.785173599999979, 60.8094524 ], [ -115.7858442, 60.8096434 ] ] ] } },
{ "type": "Feature", "properties": { "osm_id": 876214464, "building": "yes", "street": "Dean Drive", "area": "New Town Hay River", "flood_pixels": 6 }, "geometry": { "type": "Polygon", "coordinates": [ [ [ -115.7971557, 60.8169779 ], [ -115.797092500000019, 60.8170473 ], [ -115.796796400000019, 60.8169833 ], [ -115.796859500000011, 60.81691390000001 ], [ -115.7971557, 60.8169779 ] ] ] } },
{ "type": "Feature", "properties": { "osm_id": 876365694, "building": "yes", "street": "Hay River Highway", "area": "Hay River (other areas)", "flood_pixels": 11 }, "geometry": { "type": "Polygon", "coordinates": [ [ [ -115.7715287, 60.838691 ], [ -115.771287700000016, 60.838748099999989 ], [ -115.771232, 60.8386924 ], [ -115.771473, 60.8386352 ], [ -115.7715287, 60.838691 ] ] ] } },
{ "type": "Feature", "properties": { "osm_id": 876365695, "building": "yes", "street": "Hay River Highway", "area": "Hay River (other areas)", "flood_pixels": 4 }, "geometry": { "type": "Polygon", "coordinates": [ [ [ -115.7718434, 60.8386018 ], [ -115.771668, 60.8386419 ], [ -115.7715987, 60.8385698 ], [ -115.771774100000016, 60.8385298 ], [ -115.7718434, 60.8386018 ] ] ] } },
{ "type": "Feature", "properties": { "osm_id": 876365696, "building": "yes", "street": "Hay River Highway", "area": "Hay River (other areas)", "flood_pixels": 21 }, "geometry": { "type": "Polygon", "coordinates": [ [ [ -115.772190899999984, 60.8385142 ], [ -115.772111399999986, 60.8384302 ], [ -115.7717956, 60.8385013 ], [ -115.7718751, 60.8385852 ], [ -115.772190899999984, 60.8385142 ] ] ] } },
{ "type": "Feature", "properties": { "osm_id": 876365700, "building": "yes", "street": "unnamed road", "area": "Hay River (other areas)", "flood_pixels": 12 }, "geometry": { "type": "Polygon", "coordinates": [ [ [ -115.756746799999988, 60.8410946 ], [ -115.7566983, 60.8412514 ], [ -115.75676390000001, 60.8412562 ], [ -115.756756, 60.8412817 ], [ -115.756897400000014, 60.8412921 ], [ -115.756905700000019, 60.841265 ], [ -115.757027600000015, 60.8412739 ], [ -115.7570755, 60.8411187 ], [ -115.756746799999988, 60.8410946 ] ] ] } },
{ "type": "Feature", "properties": { "osm_id": 876365701, "building": "yes", "street": "unnamed road", "area": "Hay River (other areas)", "flood_pixels": 8 }, "geometry": { "type": "Polygon", "coordinates": [ [ [ -115.75671490000002, 60.841024 ], [ -115.7566782, 60.841128 ], [ -115.756447600000016, 60.8411087 ], [ -115.7564844, 60.8410047 ], [ -115.75671490000002, 60.841024 ] ] ] } },
{ "type": "Feature", "properties": { "osm_id": 876365702, "building": "yes", "street": "unnamed road", "area": "Hay River (other areas)", "flood_pixels": 12 }, "geometry": { "type": "Polygon", "coordinates": [ [ [ -115.7565474, 60.840987 ], [ -115.7566044, 60.8408361 ], [ -115.756325800000013, 60.8408111 ], [ -115.756268800000015, 60.840962 ], [ -115.7565474, 60.840987 ] ] ] } },
{ "type": "Feature", "properties": { "osm_id": 876365712, "building": "yes", "street": "unnamed road", "area": "Vale Island", "flood_pixels": 6 }, "geometry": { "type": "Polygon", "coordinates": [ [ [ -115.7512493, 60.8447326 ], [ -115.751087, 60.8447612 ], [ -115.7509699, 60.844603099999986 ], [ -115.7511322, 60.8445745 ], [ -115.7512493, 60.8447326 ] ] ] } },
{ "type": "Feature", "properties": { "osm_id": 876365726, "building": "yes", "street": "unnamed road", "area": "Old Town Hay River", "flood_pixels": 10 }, "geometry": { "type": "Polygon", "coordinates": [ [ [ -115.740499899999989, 60.8602677 ], [ -115.740446799999987, 60.8601718 ], [ -115.740236100000018, 60.8601995 ], [ -115.740289200000021, 60.8602954 ], [ -115.740499899999989, 60.8602677 ] ] ] } },
{ "type": "Feature", "properties": { "osm_id": 1276094812, "building": "yes", "street": "unnamed road", "area": "Hay River (other areas)", "flood_pixels": 10 }, "geometry": { "type": "Polygon", "coordinates": [ [ [ -115.839092400000013, 60.7740291 ], [ -115.839052200000012, 60.7740609 ], [ -115.838902, 60.7740158 ], [ -115.8390551, 60.773894400000017 ], [ -115.8392093, 60.7739408 ], [ -115.839178800000013, 60.773964899999989 ], [ -115.8392052, 60.7739729 ], [ -115.8391227, 60.7740383 ], [ -115.839092400000013, 60.7740291 ] ] ] } },
{ "type": "Feature", "properties": { "osm_id": 1359398187, "building": "yes", "street": "unnamed road", "area": "Hay River (other areas)", "flood_pixels": 6 }, "geometry": { "type": "Polygon", "coordinates": [ [ [ -115.7824685, 60.839491699999989 ], [ -115.7825481, 60.8395738 ], [ -115.7824248, 60.8396022 ], [ -115.7823451, 60.83952009999998 ], [ -115.7824685, 60.839491699999989 ] ] ] } },
{ "type": "Feature", "properties": { "osm_id": 1359398188, "building": "yes", "street": "unnamed road", "area": "Hay River (other areas)", "flood_pixels": 12 }, "geometry": { "type": "Polygon", "coordinates": [ [ [ -115.782798500000013, 60.839554 ], [ -115.7828676, 60.8396323 ], [ -115.782647, 60.8396786 ], [ -115.782577900000021, 60.8396003 ], [ -115.782798500000013, 60.839554 ] ] ] } },
{ "type": "Feature", "properties": { "osm_id": 1425949303, "building": "yes", "street": "unnamed road", "area": "Hay River (other areas)", "flood_pixels": 12 }, "geometry": { "type": "Polygon", "coordinates": [ [ [ -115.8389771, 60.7500465 ], [ -115.8386548, 60.7501706 ], [ -115.838844599999987, 60.7502883 ], [ -115.83903810000001, 60.750213800000012 ], [ -115.83897540000001, 60.750175 ], [ -115.8391043, 60.750125399999988 ], [ -115.8389771, 60.7500465 ] ] ] } },
{ "type": "Feature", "properties": { "osm_id": 1426742408, "building": "yes", "street": "Miron Drive", "area": "Hay River (other areas)", "flood_pixels": 5 }, "geometry": { "type": "Polygon", "coordinates": [ [ [ -115.8412065, 60.7726911 ], [ -115.8408795, 60.77290150000001 ], [ -115.8414113, 60.7730985 ], [ -115.8417382, 60.7728881 ], [ -115.8412065, 60.7726911 ] ] ] } },
{ "type": "Feature", "properties": { "osm_id": 1426742409, "building": "yes", "street": "Miron Drive", "area": "Hay River (other areas)", "flood_pixels": 7 }, "geometry": { "type": "Polygon", "coordinates": [ [ [ -115.841084900000013, 60.7723586 ], [ -115.8414238, 60.7720177 ], [ -115.84169270000001, 60.772081399999983 ], [ -115.8416016, 60.7721731 ], [ -115.841799200000011, 60.7722199 ], [ -115.841551400000014, 60.772469199999989 ], [ -115.841084900000013, 60.7723586 ] ] ] } }
]
}
