{
"type": "FeatureCollection",
"name": "20220513_012118_16M12_buildings",
"crs": { "type": "name", "properties": { "name": "urn:ogc:def:crs:OGC:1.3:CRS84" } },
"features": [
{ "type": "Feature", "properties": { "osm_id": 119937865, "building": "school", "street": "Commercial Road", "area": "New Town Hay River", "flood_pixels": 26 }, "geometry": { "type": "Polygon", "coordinates": [ [ [ -115.7853275, 60.810132699999983 ], [ -115.7852057, 60.8102893 ], [ -115.7849465, 60.8103 ], [ -115.7846412, 60.8104551 ], [ -115.784896, 60.8106042 ], [ -115.7846969, 60.8107126 ], [ -115.7847619, 60.8107461 ], [ -115.784727, 60.8107756 ], [ -115.784788699999979, 60.810796499999988 ], [ -115.784719, 60.810847499999987 ], [ -115.784886900000018, 60.8109158 ], [ -115.785204400000012, 60.810748099999984 ], [ -115.7852964, 60.810710799999988 ], [ -115.785767, 60.810782 ], [ -115.7857896, 60.8107419 ], [ -115.7858526, 60.8107505 ], [ -115.786012600000021, 60.8105975 ], [ -115.7859522, 60.810528699999985 ], [ -115.7856923, 60.8104663 ], [ -115.785711799999987, 60.8104211 ], [ -115.7856638, 60.8104127 ], [ -115.785800800000018, 60.8102454 ], [ -115.7853275, 60.810132699999983 ] ] ] } },
{ "type": "Feature", "properties": { "osm_id": 119938669, "building": "yes", "street": "unnamed road", "area": "Vale Island", "flood_pixels": 16 }, "geometry": { "type": "Polygon", "coordinates": [ [ [ -115.7521902, 60.8445857 ], [ -115.75225420000001, 60.844648099999986 ], [ -115.7524108, 60.8446134 ], [ -115.75225420000001, 60.8444088 ], [ -115.751393, 60.8445683 ], [ -115.75150690000001, 60.844720899999984 ], [ -115.7521902, 60.8445857 ] ] ] } },
{ "type": "Feature", "properties": { "osm_id": 119964635, "building": "yes", "street": "unnamed road", "area": "Old Town Hay River", "flood_pixels": 59 }, "geometry": { "type": "Polygon", "coordinates": [ [ [ -115.734443200000015, 60.859169299999984 ], [ -115.73472940000002, 60.8596977 ], [ -115.736453400000016, 60.8595012 ], [ -115.7361851, 60.858969899999984 ], [ -115.734443200000015, 60.859169299999984 ] ] ] } },
{ "type": "Feature", "properties": { "osm_id": 228144025, "building": "yes", "street": "Airport Rd", "area": "Hay River (other areas)", "flood_pixels": 14 }, "geometry": { "type": "Polygon", "coordinates": [ [ [ -115.781504500000011, 60.83861180000001 ], [ -115.7812513, 60.838670199999989 ], [ -115.7811647, 60.8386902 ], [ -115.781441, 60.8389737 ], [ -115.7816838, 60.8389176 ], [ -115.781574400000011, 60.8388051 ], [ -115.7816707, 60.8387829 ], [ -115.781504500000011, 60.83861180000001 ] ] ] } },
{ "type": "Feature", "properties": { "osm_id": 228144031, "building": "yes", "street": "unnamed road", "area": "Hay River (other areas)", "flood_pixels": 12 }, "geometry": { "type": "Polygon", "coordinates": [ [ [ -115.778792599999989, 60.8393097 ], [ -115.7783732, 60.8394161 ], [ -115.7782324, 60.8392845 ], [ -115.7782867, 60.8392707 ], [ -115.7781681, 60.839159799999983 ], [ -115.7782361, 60.8391425 ], [ -115.7783568, 60.8392554 ], [ -115.7786539, 60.83918 ], [ -115.778792599999989, 60.8393097 ] ] ] } },
{ "type": "Feature", "properties": { "osm_id": 228144032, "building": "yes", "street": "unnamed road", "area": "Hay River (other areas)", "flood_pixels": 16 }, "geometry": { "type": "Polygon", "coordinates": [ [ [ -115.7779552, 60.838440499999983 ], [ -115.7775881, 60.8385211 ], [ -115.7777895, 60.83873890000001 ], [ -115.77787210000001, 60.8387208 ], [ -115.7780094, 60.8388693 ], [ -115.778217199999986, 60.8388236 ], [ -115.7780883, 60.8386843 ], [ -115.778165, 60.8386675 ], [ -115.7779552, 60.838440499999983 ] ] ] } },
{ "type": "Feature", "properties": { "osm_id": 298986966, "building": "yes", "street": "unnamed road", "area": "Vale Island", "flood_pixels": 12 }, "geometry": { "type": "Polygon", "coordinates": [ [ [ -115.7532665, 60.8445704 ], [ -115.7531313, 60.8444248 ], [ -115.7537932, 60.8442583 ], [ -115.7539284, 60.8444109 ], [ -115.7532665, 60.8445704 ] ] ] } },
{ "type": "Feature", "properties": { "osm_id": 305306541, "building": "yes", "street": "Birch Road", "area": "New Town Hay River", "flood_pixels": 22 }, "geometry": { "type": "Polygon", "coordinates": [ [ [ -115.78673240000002, 60.8171841 ], [ -115.7871295, 60.8167162 ], [ -115.7875646, 60.816804 ], [ -115.7874677, 60.8169181 ], [ -115.7874024, 60.8169049 ], [ -115.787316, 60.8170068 ], [ -115.78722980000002, 60.8169894 ], [ -115.787120699999988, 60.817117899999985 ], [ -115.7870044, 60.817094499999982 ], [ -115.7868997, 60.8172178 ], [ -115.78673240000002, 60.8171841 ] ] ] } },
{ "type": "Feature", "properties": { "osm_id": 314671820, "building": "yes", "street": "100 Avenue", "area": "Old Town Hay River", "flood_pixels": 9 }, "geometry": { "type": "Polygon", "coordinates": [ [ [ -115.734769900000018, 60.8509131 ], [ -115.7344423, 60.850945 ], [ -115.734359, 60.8507421 ], [ -115.7346865, 60.850710199999988 ], [ -115.734769900000018, 60.8509131 ] ] ] } },
{ "type": "Feature", "properties": { "osm_id": 532421464, "building": "yes", "street": "Service Road", "area": "New Town Hay River", "flood_pixels": 3 }, "geometry": { "type": "Polygon", "coordinates": [ [ [ -115.7845151, 60.8168354 ], [ -115.7839519, 60.816730799999988 ], [ -115.7840754, 60.8165727 ], [ -115.7846387, 60.8166773 ], [ -115.7845151, 60.8168354 ] ] ] } },
{ "type": "Feature", "properties": { "osm_id": 532421466, "building": "yes", "street": "Service Road", "area": "New Town Hay River", "flood_pixels": 14 }, "geometry": { "type": "Polygon", "coordinates": [ [ [ -115.7848471, 60.8165661 ], [ -115.784439600000013, 60.8164929 ], [ -115.7845971, 60.816284399999986 ], [ -115.7850046, 60.8163576 ], [ -115.7848471, 60.8165661 ] ] ] } },
{ "type": "Feature", "properties": { "osm_id": 532421478, "building": "commercial", "street": "Service Road", "area": "New Town Hay River", "flood_pixels": 3 }, "geometry": { "type": "Polygon", "coordinates": [ [ [ -115.7864596, 60.8140981 ], [ -115.7865069, 60.8140442 ], [ -115.7867521, 60.8140954 ], [ -115.7867048, 60.8141493 ], [ -115.7867118, 60.8141507 ], [ -115.786618, 60.814257599999983 ], [ -115.7861648, 60.814163 ], [ -115.7862586, 60.814056100000016 ], [ -115.7864596, 60.8140981 ] ] ] } },
{ "type": "Feature", "properties": { "osm_id": 532421479, "building": "commercial", "street": "Service Road", "area": "New Town Hay River", "flood_pixels": 3 }, "geometry": { "type": "Polygon", "coordinates": [ [ [ -115.78658750000001, 60.813823 ], [ -115.7864881, 60.813802299999985 ], [ -115.786529099999981, 60.8137555 ], [ -115.7868466, 60.8138218 ], [ -115.7866765, 60.814015599999983 ], [ -115.7864584, 60.8139701 ], [ -115.78658750000001, 60.813823 ] ] ] } },
{ "type": "Feature", "properties": { "osm_id": 561804473, "building": "commercial", "street": "Capital Drive", "area": "New Town Hay River", "flood_pixels": 17 }, "geometry": { "type": "Polygon", "coordinates": [ [ [ -115.7871759, 60.8090488 ], [ -115.7875572, 60.8085379 ], [ -115.7879591, 60.8086092 ], [ -115.7877431, 60.8088986 ], [ -115.788632, 60.809056400000017 ], [ -115.7884666, 60.809278 ], [ -115.7871759, 60.8090488 ] ] ] } },
{ "type": "Feature", "properties": { "osm_id": 561805764, "building": "yes", "street": "Commercial Road", "area": "New Town Hay River", "flood_pixels": 4 }, "geometry": { "type": "Polygon", "coordinates": [ [ [ -115.7896328, 60.8103714 ], [ -115.789476, 60.8105688 ], [ -115.788790600000013, 60.8104394 ], [ -115.7889474, 60.8102419 ], [ -115.7896328, 60.8103714 ] ] ] } },
{ "type": "Feature", "properties": { "osm_id": 817120301, "building": "yes", "street": "Service Road", "area": "New Town Hay River", "flood_pixels": 6 }, "geometry": { "type": "Polygon", "coordinates": [ [ [ -115.7864611, 60.8147671 ], [ -115.7857752, 60.8146366 ], [ -115.785892300000015, 60.8145088 ], [ -115.7865726, 60.81465020000001 ], [ -115.7864611, 60.8147671 ] ] ] } },
{ "type": "Feature", "properties": { "osm_id": 817120304, "building": "yes", "street": "Service Road", "area": "New Town Hay River", "flood_pixels": 3 }, "geometry": { "type": "Polygon", "coordinates": [ [ [ -115.785180700000012, 60.8147752 ], [ -115.785484900000014, 60.8147365 ], [ -115.7854664, 60.8146887 ], [ -115.785156799999982, 60.8147261 ], [ -115.785180700000012, 60.8147752 ] ] ] } },
{ "type": "Feature", "properties": { "osm_id": 817120306, "building": "yes", "street": "Service Road", "area": "New Town Hay River", "flood_pixels": 8 }, "geometry": { "type": "Polygon", "coordinates": [ [ [ -115.7857839, 60.815108 ], [ -115.7859294, 60.8149197 ], [ -115.7856251, 60.8148577 ], [ -115.7854664, 60.8150577 ], [ -115.7857839, 60.815108 ] ] ] } },
{ "type": "Feature", "properties": { "osm_id": 817120325, "building": "yes", "street": "Service Road", "area": "New Town Hay River", "flood_pixels": 3 }, "geometry": { "type": "Polygon", "coordinates": [ [ [ -115.785025200000021, 60.8149941 ], [ -115.785012400000014, 60.8149559 ], [ -115.7852748, 60.81491230000001 ], [ -115.7852876, 60.8149577 ], [ -115.785025200000021, 60.8149941 ] ] ] } },
{ "type": "Feature", "properties": { "osm_id": 817120342, "building": "yes", "street": "Porrit Place", "area": "New Town Hay River", "flood_pixels": 10 }, "geometry": { "type": "Polygon", "coordinates": [ [ [ -115.783821300000014, 60.8166731 ], [ -115.7834937, 60.816566 ], [ -115.7835529, 60.816523 ], [ -115.783880499999981, 60.8166301 ], [ -115.783821300000014, 60.8166731 ] ] ] } },
{ "type": "Feature", "properties": { "osm_id": 817120344, "building": "yes", "street": "Service Road", "area": "New Town Hay River", "flood_pixels": 4 }, "geometry": { "type": "Polygon", "coordinates": [ [ [ -115.784146, 60.816313 ], [ -115.7839222, 60.8161727 ], [ -115.7839925, 60.8161556 ], [ -115.78419390000002, 60.8162881 ], [ -115.784146, 60.816313 ] ] ] } },
{ "type": "Feature", "properties": { "osm_id": 817120345, "building": "yes", "street": "Service Road", "area": "New Town Hay River", "flood_pixels": 3 }, "geometry": { "type": "Polygon", "coordinates": [ [ [ -115.7842099, 60.816179 ], [ -115.7840309, 60.816048 ], [ -115.7841236, 60.8160215 ], [ -115.784293, 60.816154 ], [ -115.7842099, 60.816179 ] ] ] } },
{ "type": "Feature", "properties": { "osm_id": 817120360, "building": "yes", "street": "Nahanni Road", "area": "New Town Hay River", "flood_pixels": 15 }, "geometry": { "type": "Polygon", "coordinates": [ [ [ -115.785469, 60.813410299999987 ], [ -115.7856126, 60.813252800000015 ], [ -115.7854941, 60.8132271 ], [ -115.7855494, 60.8131665 ], [ -115.7853172, 60.813116099999988 ], [ -115.785251400000021, 60.8131882 ], [ -115.785171199999979, 60.813170800000023 ], [ -115.7850388, 60.8133158 ], [ -115.7852047, 60.8133518 ], [ -115.7851893, 60.8133686 ], [ -115.7853242, 60.813397800000011 ], [ -115.7853386, 60.813382 ], [ -115.785469, 60.813410299999987 ] ] ] } },
{ "type": "Feature", "properties": { "osm_id": 817120362, "building": "yes", "street": "Woodland Drive", "area": "New Town Hay River", "flood_pixels": 8 }, "geometry": { "type": "Polygon", "coordinates": [ [ [ -115.786577900000012, 60.8128902 ], [ -115.786605, 60.8128667 ], [ -115.7866682, 60.8128755 ], [ -115.786776500000016, 60.812799200000015 ], [ -115.786671200000015, 60.8127787 ], [ -115.7867374, 60.8127317 ], [ -115.7865448, 60.8126774 ], [ -115.786271, 60.8125688 ], [ -115.7861868, 60.8126173 ], [ -115.7864636, 60.8127302 ], [ -115.786602, 60.812768400000017 ], [ -115.7864907, 60.8128652 ], [ -115.786577900000012, 60.8128902 ] ] ] } },
{ "type": "Feature", "properties": { "osm_id": 817120363, "building": "yes", "street": "Woodland Drive", "area": "New Town Hay River", "flood_pixels": 5 }, "geometry": { "type": "Polygon", "coordinates": [ [ [ -115.7879357, 60.8123203 ], [ -115.7873599, 60.812212199999983 ], [ -115.7874376, 60.8121138 ], [ -115.7880134, 60.8122219 ], [ -115.7879357, 60.8123203 ] ] ] } },
{ "type": "Feature", "properties": { "osm_id": 817120364, "building": "yes", "street": "Hay River Highway", "area": "New Town Hay River", "flood_pixels": 7 }, "geometry": { "type": "Polygon", "coordinates": [ [ [ -115.788383200000013, 60.8120391 ], [ -115.7880462, 60.8119482 ], [ -115.7881184, 60.811876299999987 ], [ -115.788356100000016, 60.8119335 ], [ -115.788398199999989, 60.8118895 ], [ -115.78853359999998, 60.8119247 ], [ -115.788383200000013, 60.8120391 ] ] ] } },
{ "type": "Feature", "properties": { "osm_id": 817120365, "building": "yes", "street": "Woodland Drive", "area": "New Town Hay River", "flood_pixels": 17 }, "geometry": { "type": "Polygon", "coordinates": [ [ [ -115.7877365, 60.8116806 ], [ -115.788077700000017, 60.811784799999984 ], [ -115.788202200000015, 60.8116879 ], [ -115.787860899999984, 60.8115837 ], [ -115.7877365, 60.8116806 ] ] ] } },
{ "type": "Feature", "properties": { "osm_id": 817120371, "building": "yes", "street": "Industrial Drive", "area": "New Town Hay River", "flood_pixels": 3 }, "geometry": { "type": "Polygon", "coordinates": [ [ [ -115.790823299999985, 60.813325900000017 ], [ -115.7909858, 60.813135199999984 ], [ -115.790709, 60.8130721 ], [ -115.7905495, 60.813265799999989 ], [ -115.790823299999985, 60.813325900000017 ] ] ] } },
{ "type": "Feature", "properties": { "osm_id": 817120374, "building": "yes", "street": "Industrial Drive", "area": "New Town Hay River", "flood_pixels": 8 }, "geometry": { "type": "Polygon", "coordinates": [ [ [ -115.789730299999988, 60.8148859 ], [ -115.790066600000017, 60.8144566 ], [ -115.790709599999985, 60.8145764 ], [ -115.790373200000019, 60.815005699999986 ], [ -115.789730299999988, 60.8148859 ] ] ] } },
{ "type": "Feature", "properties": { "osm_id": 817120391, "building": "yes", "street": "Commercial Road", "area": "New Town Hay River", "flood_pixels": 4 }, "geometry": { "type": "Polygon", "coordinates": [ [ [ -115.7886522, 60.8106925 ], [ -115.7883743, 60.810638499999989 ], [ -115.78824, 60.810809099999972 ], [ -115.788519099999988, 60.8108677 ], [ -115.7886522, 60.8106925 ] ] ] } },
{ "type": "Feature", "properties": { "osm_id": 817120392, "building": "yes", "street": "Commercial Road", "area": "New Town Hay River", "flood_pixels": 19 }, "geometry": { "type": "Polygon", "coordinates": [ [ [ -115.7891493, 60.8111049 ], [ -115.789061, 60.8110882 ], [ -115.789093500000021, 60.8110475 ], [ -115.788843600000021, 60.811 ], [ -115.788878200000013, 60.810956699999984 ], [ -115.7892244, 60.81102239999997 ], [ -115.789159900000016, 60.8111032 ], [ -115.7891493, 60.8111049 ] ] ] } },
{ "type": "Feature", "properties": { "osm_id": 817120393, "building": "yes", "street": "Woodland Drive", "area": "New Town Hay River", "flood_pixels": 7 }, "geometry": { "type": "Polygon", "coordinates": [ [ [ -115.7881411, 60.8113226 ], [ -115.788251800000012, 60.8112175 ], [ -115.7880857, 60.811179 ], [ -115.7879785, 60.8112824 ], [ -115.7881411, 60.8113226 ] ] ] } },
{ "type": "Feature", "properties": { "osm_id": 817120399, "building": "yes", "street": "Industrial Drive", "area": "New Town Hay River", "flood_pixels": 7 }, "geometry": { "type": "Polygon", "coordinates": [ [ [ -115.793061100000017, 60.8095419 ], [ -115.792645399999984, 60.8094443 ], [ -115.7927752, 60.8092877 ], [ -115.793197400000011, 60.8093842 ], [ -115.793061100000017, 60.8095419 ] ] ] } },
{ "type": "Feature", "properties": { "osm_id": 817120402, "building": "yes", "street": "Industrial Drive", "area": "New Town Hay River", "flood_pixels": 6 }, "geometry": { "type": "Polygon", "coordinates": [ [ [ -115.7935053, 60.8102057 ], [ -115.7936284, 60.810047 ], [ -115.7934195, 60.8100009 ], [ -115.793276600000013, 60.8101628 ], [ -115.7935053, 60.8102057 ] ] ] } },
{ "type": "Feature", "properties": { "osm_id": 817120409, "building": "yes", "street": "Industrial Drive", "area": "New Town Hay River", "flood_pixels": 4 }, "geometry": { "type": "Polygon", "coordinates": [ [ [ -115.794928100000021, 60.8092855 ], [ -115.7945476, 60.8092137 ], [ -115.7946114, 60.8091386 ], [ -115.7949808, 60.8092105 ], [ -115.794928100000021, 60.8092855 ] ] ] } },
{ "type": "Feature", "properties": { "osm_id": 817120410, "building": "yes", "street": "Industrial Drive", "area": "New Town Hay River", "flood_pixels": 13 }, "geometry": { "type": "Polygon", "coordinates": [ [ [ -115.7943805, 60.8091836 ], [ -115.794125399999984, 60.8091375 ], [ -115.7941936, 60.8090549 ], [ -115.794450899999987, 60.8091021 ], [ -115.7943805, 60.8091836 ] ] ] } },
{ "type": "Feature", "properties": { "osm_id": 817120411, "building": "yes", "street": "Industrial Drive", "area": "New Town Hay River", "flood_pixels": 3 }, "geometry": { "type": "Polygon", "coordinates": [ [ [ -115.7952601, 60.808958400000016 ], [ -115.7948247, 60.8088855 ], [ -115.7948731, 60.808821099999989 ], [ -115.7953085, 60.8089016 ], [ -115.7952601, 60.808958400000016 ] ] ] } },
{ "type": "Feature", "properties": { "osm_id": 817120413, "building": "yes", "street": "Industrial Drive", "area": "New Town Hay River", "flood_pixels": 6 }, "geometry": { "type": "Polygon", "coordinates": [ [ [ -115.79349209999998, 60.8087149 ], [ -115.793624, 60.8085487 ], [ -115.7931754, 60.8084661 ], [ -115.793030299999984, 60.808621599999974 ], [ -115.79349209999998, 60.8087149 ] ] ] } },
{ "type": "Feature", "properties": { "osm_id": 817120416, "building": "yes", "street": "Industrial Drive", "area": "New Town Hay River", "flood_pixels": 10 }, "geometry": { "type": "Polygon", "coordinates": [ [ [ -115.7953736, 60.8081972 ], [ -115.7950591, 60.8081214 ], [ -115.795225400000021, 60.807936199999986 ], [ -115.7957351, 60.808042 ], [ -115.795605, 60.8081901 ], [ -115.7954062, 60.8081496 ], [ -115.7953736, 60.8081972 ] ] ] } },
{ "type": "Feature", "properties": { "osm_id": 817120417, "building": "yes", "street": "Industrial Drive", "area": "New Town Hay River", "flood_pixels": 15 }, "geometry": { "type": "Polygon", "coordinates": [ [ [ -115.796454499999982, 60.8078763 ], [ -115.795464, 60.807675299999985 ], [ -115.7955435, 60.8075783 ], [ -115.79576040000002, 60.80761 ], [ -115.795821900000021, 60.8075501 ], [ -115.7965955, 60.807721099999988 ], [ -115.796454499999982, 60.8078763 ] ] ] } },
{ "type": "Feature", "properties": { "osm_id": 817120418, "building": "yes", "street": "unnamed road", "area": "New Town Hay River", "flood_pixels": 6 }, "geometry": { "type": "Polygon", "coordinates": [ [ [ -115.7970582, 60.8079821 ], [ -115.7968016, 60.8079345 ], [ -115.796852200000018, 60.807867499999986 ], [ -115.7971052, 60.8079204 ], [ -115.7970582, 60.8079821 ] ] ] } },
{ "type": "Feature", "properties": { "osm_id": 817406640, "building": "yes", "street": "Studney Drive", "area": "New Town Hay River", "flood_pixels": 9 }, "geometry": { "type": "Polygon", "coordinates": [ [ [ -115.7926362, 60.8142984 ], [ -115.7928887, 60.8140037 ], [ -115.793104900000017, 60.814047800000012 ], [ -115.7928523, 60.8143424 ], [ -115.7926362, 60.8142984 ] ] ] } },
{ "type": "Feature", "properties": { "osm_id": 817406642, "building": "yes", "street": "Poplar Road", "area": "New Town Hay River", "flood_pixels": 6 }, "geometry": { "type": "Polygon", "coordinates": [ [ [ -115.791286200000016, 60.813483099999985 ], [ -115.791427299999981, 60.8133283 ], [ -115.7916176, 60.813369499999986 ], [ -115.7914766, 60.813524299999983 ], [ -115.791286200000016, 60.813483099999985 ] ] ] } },
{ "type": "Feature", "properties": { "osm_id": 817406644, "building": "yes", "street": "Industrial Drive", "area": "New Town Hay River", "flood_pixels": 4 }, "geometry": { "type": "Polygon", "coordinates": [ [ [ -115.79203480000001, 60.8121022 ], [ -115.792556, 60.8121982 ], [ -115.7926424, 60.812086599999986 ], [ -115.792121100000017, 60.811990699999988 ], [ -115.79203480000001, 60.8121022 ] ] ] } },
{ "type": "Feature", "properties": { "osm_id": 817406646, "building": "yes", "street": "Industrial Drive", "area": "New Town Hay River", "flood_pixels": 7 }, "geometry": { "type": "Polygon", "coordinates": [ [ [ -115.792581499999983, 60.8115123 ], [ -115.792295200000012, 60.8114556 ], [ -115.792476, 60.811238399999986 ], [ -115.7931302, 60.811368 ], [ -115.7929977, 60.8115271 ], [ -115.7926298, 60.8114543 ], [ -115.792581499999983, 60.8115123 ] ] ] } },
{ "type": "Feature", "properties": { "osm_id": 817406653, "building": "yes", "street": "Dean Drive", "area": "New Town Hay River", "flood_pixels": 9 }, "geometry": { "type": "Polygon", "coordinates": [ [ [ -115.8001836, 60.8103379 ], [ -115.8003125, 60.810172899999984 ], [ -115.7999929, 60.8101135 ], [ -115.7998639, 60.8102786 ], [ -115.8001836, 60.8103379 ] ] ] } },
{ "type": "Feature", "properties": { "osm_id": 817419826, "building": "yes", "street": "Studney Drive", "area": "New Town Hay River", "flood_pixels": 20 }, "geometry": { "type": "Polygon", "coordinates": [ [ [ -115.7897144, 60.81711580000001 ], [ -115.7904806, 60.8172746 ], [ -115.790758100000019, 60.8169893 ], [ -115.7900764, 60.8168451 ], [ -115.7900161, 60.8168922 ], [ -115.789925599999989, 60.8168775 ], [ -115.7897144, 60.81711580000001 ] ] ] } },
{ "type": "Feature", "properties": { "osm_id": 823666243, "building": "yes", "street": "Hay River Highway", "area": "Old Town Hay River", "flood_pixels": 3 }, "geometry": { "type": "Polygon", "coordinates": [ [ [ -115.745318899999987, 60.858253499999982 ], [ -115.7452905, 60.8581949 ], [ -115.745706, 60.858147099999989 ], [ -115.7457345, 60.8582056 ], [ -115.745318899999987, 60.858253499999982 ] ] ] } },
{ "type": "Feature", "properties": { "osm_id": 823666251, "building": "yes", "street": "unnamed road", "area": "Old Town Hay River", "flood_pixels": 4 }, "geometry": { "type": "Polygon", "coordinates": [ [ [ -115.736229699999981, 60.8582861 ], [ -115.736050800000015, 60.8578973 ], [ -115.73647560000002, 60.85785090000001 ], [ -115.73665440000002, 60.8582397 ], [ -115.736229699999981, 60.8582861 ] ] ] } },
{ "type": "Feature", "properties": { "osm_id": 823666252, "building": "yes", "street": "106th Avenue", "area": "Old Town Hay River", "flood_pixels": 16 }, "geometry": { "type": "Polygon", "coordinates": [ [ [ -115.7395596, 60.8623071 ], [ -115.7394776, 60.8622172 ], [ -115.739721399999979, 60.862164500000013 ], [ -115.7398033, 60.862254399999976 ], [ -115.7395596, 60.8623071 ] ] ] } },
{ "type": "Feature", "properties": { "osm_id": 823666253, "building": "yes", "street": "106th Avenue", "area": "Old Town Hay River", "flood_pixels": 5 }, "geometry": { "type": "Polygon", "coordinates": [ [ [ -115.73933790000001, 60.8618812 ], [ -115.7392375, 60.861662099999982 ], [ -115.739401599999979, 60.8616443 ], [ -115.739502, 60.861863399999969 ], [ -115.73933790000001, 60.8618812 ] ] ] } },
{ "type": "Feature", "properties": { "osm_id": 823666254, "building": "yes", "street": "Lakeshore Drive", "area": "Old Town Hay River", "flood_pixels": 8 }, "geometry": { "type": "Polygon", "coordinates": [ [ [ -115.749934100000019, 60.8666437 ], [ -115.74979949999998, 60.866645 ], [ -115.7497944, 60.8665238 ], [ -115.749929, 60.8665224 ], [ -115.749934100000019, 60.8666437 ] ] ] } },
{ "type": "Feature", "properties": { "osm_id": 823666255, "building": "yes", "street": "Lakeshore Drive", "area": "Old Town Hay River", "flood_pixels": 10 }, "geometry": { "type": "Polygon", "coordinates": [ [ [ -115.7487828, 60.8666173 ], [ -115.7485698, 60.8666267 ], [ -115.7485539, 60.8665412 ], [ -115.748767, 60.8665318 ], [ -115.7487828, 60.8666173 ] ] ] } },
{ "type": "Feature", "properties": { "osm_id": 823666256, "building": "yes", "street": "Lakeshore Drive", "area": "Old Town Hay River", "flood_pixels": 13 }, "geometry": { "type": "Polygon", "coordinates": [ [ [ -115.747701, 60.8665002 ], [ -115.7474889, 60.8664413 ], [ -115.7475967, 60.8663493 ], [ -115.747808799999987, 60.8664083 ], [ -115.747701, 60.8665002 ] ] ] } },
{ "type": "Feature", "properties": { "osm_id": 823666257, "building": "yes", "street": "Lakeshore Drive", "area": "Old Town Hay River", "flood_pixels": 14 }, "geometry": { "type": "Polygon", "coordinates": [ [ [ -115.7472096, 60.8662506 ], [ -115.747305, 60.8661673 ], [ -115.7470919, 60.8661095 ], [ -115.7469965, 60.8661927 ], [ -115.7472096, 60.8662506 ] ] ] } },
{ "type": "Feature", "properties": { "osm_id": 823666258, "building": "yes", "street": "Lakeshore Drive", "area": "Old Town Hay River", "flood_pixels": 7 }, "geometry": { "type": "Polygon", "coordinates": [ [ [ -115.7455281, 60.8660238 ], [ -115.7453031, 60.865947199999979 ], [ -115.745473, 60.865829 ], [ -115.745698, 60.8659056 ], [ -115.7455281, 60.8660238 ] ] ] } },
{ "type": "Feature", "properties": { "osm_id": 823666260, "building": "yes", "street": "104th Avenue", "area": "Old Town Hay River", "flood_pixels": 3 }, "geometry": { "type": "Polygon", "coordinates": [ [ [ -115.73706780000002, 60.857805499999976 ], [ -115.7369468, 60.8575937 ], [ -115.737148500000018, 60.857561 ], [ -115.7372696, 60.8577749 ], [ -115.73706780000002, 60.857805499999976 ] ] ] } },
{ "type": "Feature", "properties": { "osm_id": 823666282, "building": "yes", "street": "103rd Street", "area": "Old Town Hay River", "flood_pixels": 6 }, "geometry": { "type": "Polygon", "coordinates": [ [ [ -115.740261, 60.854944 ], [ -115.7402356, 60.8548831 ], [ -115.7406593, 60.854841200000024 ], [ -115.740684699999989, 60.8549021 ], [ -115.740261, 60.854944 ] ] ] } },
{ "type": "Feature", "properties": { "osm_id": 823666296, "building": "yes", "street": "103rd Street", "area": "Old Town Hay River", "flood_pixels": 13 }, "geometry": { "type": "Polygon", "coordinates": [ [ [ -115.740282600000015, 60.854745099999974 ], [ -115.740254, 60.8546907 ], [ -115.740660199999979, 60.8546434 ], [ -115.7406889, 60.854701899999988 ], [ -115.740282600000015, 60.854745099999974 ] ] ] } },
{ "type": "Feature", "properties": { "osm_id": 823666306, "building": "yes", "street": "101st Street", "area": "Old Town Hay River", "flood_pixels": 17 }, "geometry": { "type": "Polygon", "coordinates": [ [ [ -115.736646, 60.8558364 ], [ -115.736538, 60.8558423 ], [ -115.7365507, 60.8558973 ], [ -115.73635, 60.855908299999989 ], [ -115.736324499999981, 60.8557982 ], [ -115.7366333, 60.8557813 ], [ -115.736646, 60.8558364 ] ] ] } },
{ "type": "Feature", "properties": { "osm_id": 824375602, "building": "yes", "street": "101st Street", "area": "Old Town Hay River", "flood_pixels": 13 }, "geometry": { "type": "Polygon", "coordinates": [ [ [ -115.735894, 60.8554775 ], [ -115.7358618, 60.8553795 ], [ -115.7360576, 60.8553651 ], [ -115.7360978, 60.8554592 ], [ -115.735894, 60.8554775 ] ] ] } },
{ "type": "Feature", "properties": { "osm_id": 824375605, "building": "yes", "street": "101st Street", "area": "Old Town Hay River", "flood_pixels": 5 }, "geometry": { "type": "Polygon", "coordinates": [ [ [ -115.7353297, 60.8538918 ], [ -115.7353141, 60.853846 ], [ -115.735721600000019, 60.8538131 ], [ -115.735737200000017, 60.8538589 ], [ -115.7353297, 60.8538918 ] ] ] } },
{ "type": "Feature", "properties": { "osm_id": 824375606, "building": "yes", "street": "101st Street", "area": "Old Town Hay River", "flood_pixels": 6 }, "geometry": { "type": "Polygon", "coordinates": [ [ [ -115.7354501, 60.8537174 ], [ -115.7353894, 60.85350649999998 ], [ -115.7355115, 60.8534981 ], [ -115.7355722, 60.85370910000001 ], [ -115.7354501, 60.8537174 ] ] ] } },
{ "type": "Feature", "properties": { "osm_id": 824375608, "building": "yes", "street": "100 Street", "area": "Old Town Hay River", "flood_pixels": 10 }, "geometry": { "type": "Polygon", "coordinates": [ [ [ -115.7345007, 60.8534427 ], [ -115.7342223, 60.8534651 ], [ -115.734194500000015, 60.853383200000017 ], [ -115.7344729, 60.8533608 ], [ -115.7345007, 60.8534427 ] ] ] } },
{ "type": "Feature", "properties": { "osm_id": 824375609, "building": "yes", "street": "101st Street", "area": "Old Town Hay River", "flood_pixels": 6 }, "geometry": { "type": "Polygon", "coordinates": [ [ [ -115.73527, 60.8533135 ], [ -115.735266, 60.8532619 ], [ -115.734909400000021, 60.8532684 ], [ -115.734913400000011, 60.85332 ], [ -115.73527, 60.8533135 ] ] ] } },
{ "type": "Feature", "properties": { "osm_id": 824375613, "building": "yes", "street": "101st Street", "area": "Old Town Hay River", "flood_pixels": 4 }, "geometry": { "type": "Polygon", "coordinates": [ [ [ -115.736106, 60.8525861 ], [ -115.73594660000002, 60.852604299999989 ], [ -115.7358918, 60.8524907 ], [ -115.736167200000011, 60.8524592 ], [ -115.7361558, 60.8524355 ], [ -115.7362305, 60.852427 ], [ -115.736272299999982, 60.852513800000018 ], [ -115.73608160000002, 60.852535599999989 ], [ -115.736106, 60.8525861 ] ] ] } },
{ "type": "Feature", "properties": { "osm_id": 824375615, "building": "yes", "street": "101st Street", "area": "Old Town Hay River", "flood_pixels": 7 }, "geometry": { "type": "Polygon", "coordinates": [ [ [ -115.735676700000013, 60.8523044 ], [ -115.7356418, 60.8521881 ], [ -115.7358135, 60.8521724 ], [ -115.7358511, 60.8522887 ], [ -115.735676700000013, 60.8523044 ] ] ] } },
{ "type": "Feature", "properties": { "osm_id": 824375617, "building": "yes", "street": "102nd Street", "area": "Old Town Hay River", "flood_pixels": 5 }, "geometry": { "type": "Polygon", "coordinates": [ [ [ -115.736679900000013, 60.8513245 ], [ -115.736446500000014, 60.8513546 ], [ -115.736406300000013, 60.8512671 ], [ -115.7366369, 60.8512396 ], [ -115.736679900000013, 60.8513245 ] ] ] } },
{ "type": "Feature", "properties": { "osm_id": 824375644, "building": "yes", "street": "102nd Avenue", "area": "Old Town Hay River", "flood_pixels": 3 }, "geometry": { "type": "Polygon", "coordinates": [ [ [ -115.737767, 60.8510595 ], [ -115.7375714, 60.8510895 ], [ -115.737643300000016, 60.851200799999987 ], [ -115.7377935, 60.8511777 ], [ -115.737750100000014, 60.8511105 ], [ -115.7377955, 60.8511035 ], [ -115.737767, 60.8510595 ] ] ] } },
{ "type": "Feature", "properties": { "osm_id": 824375657, "building": "yes", "street": "103rd Street", "area": "Old Town Hay River", "flood_pixels": 5 }, "geometry": { "type": "Polygon", "coordinates": [ [ [ -115.739858499999983, 60.8539017 ], [ -115.7398382, 60.8538601 ], [ -115.7402162, 60.8538163 ], [ -115.7402365, 60.8538579 ], [ -115.739858499999983, 60.8539017 ] ] ] } },
{ "type": "Feature", "properties": { "osm_id": 824375695, "building": "yes", "street": "102nd Avenue", "area": "Old Town Hay River", "flood_pixels": 10 }, "geometry": { "type": "Polygon", "coordinates": [ [ [ -115.739767400000019, 60.8505121 ], [ -115.73953680000001, 60.8505367 ], [ -115.739506799999987, 60.8504702 ], [ -115.739304500000017, 60.8504919 ], [ -115.7391601, 60.8501718 ], [ -115.739598, 60.850124899999983 ], [ -115.7396771, 60.8503003 ], [ -115.739748500000019, 60.8502927 ], [ -115.7398223, 60.850456499999979 ], [ -115.739746, 60.8504647 ], [ -115.739767400000019, 60.8505121 ] ] ] } },
{ "type": "Feature", "properties": { "osm_id": 824375697, "building": "yes", "street": "102nd Avenue", "area": "Old Town Hay River", "flood_pixels": 16 }, "geometry": { "type": "Polygon", "coordinates": [ [ [ -115.732020299999988, 60.851225699999986 ], [ -115.73229090000001, 60.8512196 ], [ -115.7322844, 60.851152 ], [ -115.7320138, 60.8511582 ], [ -115.732020299999988, 60.851225699999986 ] ] ] } },
{ "type": "Feature", "properties": { "osm_id": 824375698, "building": "yes", "street": "102nd Avenue", "area": "Old Town Hay River", "flood_pixels": 5 }, "geometry": { "type": "Polygon", "coordinates": [ [ [ -115.7321612, 60.850822299999983 ], [ -115.73214950000002, 60.8508351 ], [ -115.7321467, 60.850849 ], [ -115.732153200000013, 60.8508626 ], [ -115.7321682, 60.8508746 ], [ -115.7321902, 60.8508836 ], [ -115.7322169, 60.8508887 ], [ -115.7322473, 60.8508894 ], [ -115.732276400000018, 60.850885 ], [ -115.7323008, 60.8508762 ], [ -115.732317699999982, 60.850863900000014 ], [ -115.7323252, 60.85084950000001 ], [ -115.732322300000021, 60.8508347 ], [ -115.732309500000014, 60.8508213 ], [ -115.732288100000019, 60.8508107 ], [ -115.73226240000001, 60.8508045 ], [ -115.732234, 60.8508026 ], [ -115.7322057, 60.8508051 ], [ -115.7321806, 60.8508119 ], [ -115.7321612, 60.850822299999983 ] ] ] } },
{ "type": "Feature", "properties": { "osm_id": 824375699, "building": "yes", "street": "102nd Avenue", "area": "Old Town Hay River", "flood_pixels": 13 }, "geometry": { "type": "Polygon", "coordinates": [ [ [ -115.7322097, 60.850701299999983 ], [ -115.7321936, 60.8507127 ], [ -115.7321858, 60.8507261 ], [ -115.732187300000021, 60.8507399 ], [ -115.7321978, 60.8507528 ], [ -115.732216200000011, 60.8507634 ], [ -115.73224070000002, 60.850770499999989 ], [ -115.732269200000019, 60.8507734 ], [ -115.7322982, 60.8507716 ], [ -115.7323243, 60.8507653 ], [ -115.7323447, 60.8507551 ], [ -115.7323571, 60.8507423 ], [ -115.732360200000016, 60.8507282 ], [ -115.7323535, 60.850714300000014 ], [ -115.732337900000019, 60.8507023 ], [ -115.732315, 60.8506935 ], [ -115.732288200000013, 60.850688899999987 ], [ -115.732259700000014, 60.8506887 ], [ -115.732232600000017, 60.850693 ], [ -115.7322097, 60.850701299999983 ] ] ] } },
{ "type": "Feature", "properties": { "osm_id": 824375700, "building": "yes", "street": "102nd Avenue", "area": "Old Town Hay River", "flood_pixels": 15 }, "geometry": { "type": "Polygon", "coordinates": [ [ [ -115.731211799999983, 60.8514971 ], [ -115.7311712, 60.85143080000001 ], [ -115.7313448, 60.8514056 ], [ -115.7313854, 60.851472 ], [ -115.731211799999983, 60.8514971 ] ] ] } },
{ "type": "Feature", "properties": { "osm_id": 824375701, "building": "yes", "street": "100 Avenue", "area": "Old Town Hay River", "flood_pixels": 19 }, "geometry": { "type": "Polygon", "coordinates": [ [ [ -115.733208, 60.8502439 ], [ -115.7331505, 60.8501433 ], [ -115.7334504, 60.8501026 ], [ -115.7335079, 60.8502031 ], [ -115.733208, 60.8502439 ] ] ] } },
{ "type": "Feature", "properties": { "osm_id": 824375703, "building": "yes", "street": "100 Avenue", "area": "Old Town Hay River", "flood_pixels": 5 }, "geometry": { "type": "Polygon", "coordinates": [ [ [ -115.7359618, 60.8497544 ], [ -115.7358943, 60.8496163 ], [ -115.735796099999988, 60.8496277 ], [ -115.7358637, 60.849765799999986 ], [ -115.7359618, 60.8497544 ] ] ] } },
{ "type": "Feature", "properties": { "osm_id": 824375705, "building": "yes", "street": "100 Avenue", "area": "Old Town Hay River", "flood_pixels": 4 }, "geometry": { "type": "Polygon", "coordinates": [ [ [ -115.737557, 60.849140699999985 ], [ -115.737507400000013, 60.849049200000017 ], [ -115.737634900000018, 60.8490328 ], [ -115.7376845, 60.8491243 ], [ -115.737557, 60.849140699999985 ] ] ] } },
{ "type": "Feature", "properties": { "osm_id": 824375706, "building": "yes", "street": "Hay River Highway", "area": "Old Town Hay River", "flood_pixels": 31 }, "geometry": { "type": "Polygon", "coordinates": [ [ [ -115.7396399, 60.8488754 ], [ -115.7408586, 60.8487405 ], [ -115.7407314, 60.84846790000001 ], [ -115.73951270000002, 60.8486028 ], [ -115.7396399, 60.8488754 ] ] ] } },
{ "type": "Feature", "properties": { "osm_id": 824375718, "building": "yes", "street": "106 Street", "area": "Old Town Hay River", "flood_pixels": 4 }, "geometry": { "type": "Polygon", "coordinates": [ [ [ -115.744434700000014, 60.849511800000016 ], [ -115.744988800000016, 60.849458 ], [ -115.7449145, 60.8492764 ], [ -115.7443604, 60.8493302 ], [ -115.744434700000014, 60.849511800000016 ] ] ] } },
{ "type": "Feature", "properties": { "osm_id": 824375719, "building": "yes", "street": "106 Street", "area": "Old Town Hay River", "flood_pixels": 4 }, "geometry": { "type": "Polygon", "coordinates": [ [ [ -115.7446701, 60.849228800000013 ], [ -115.7443264, 60.8492659 ], [ -115.744179, 60.8489424 ], [ -115.7445228, 60.8489053 ], [ -115.744585300000011, 60.8490427 ], [ -115.744622899999982, 60.8491252 ], [ -115.7446701, 60.849228800000013 ] ] ] } },
{ "type": "Feature", "properties": { "osm_id": 824375720, "building": "yes", "street": "106 Street", "area": "Old Town Hay River", "flood_pixels": 12 }, "geometry": { "type": "Polygon", "coordinates": [ [ [ -115.744622899999982, 60.8491252 ], [ -115.7450022, 60.8490861 ], [ -115.744969800000021, 60.8490056 ], [ -115.744585300000011, 60.8490427 ], [ -115.744622899999982, 60.8491252 ] ] ] } },
{ "type": "Feature", "properties": { "osm_id": 824375721, "building": "yes", "street": "Hay River Highway", "area": "Old Town Hay River", "flood_pixels": 11 }, "geometry": { "type": "Polygon", "coordinates": [ [ [ -115.7448606, 60.848144499999982 ], [ -115.7446014, 60.848178 ], [ -115.7445486, 60.8480808 ], [ -115.744807699999981, 60.8480474 ], [ -115.7448606, 60.848144499999982 ] ] ] } },
{ "type": "Feature", "properties": { "osm_id": 824375722, "building": "yes", "street": "Hay River Highway", "area": "Old Town Hay River", "flood_pixels": 40 }, "geometry": { "type": "Polygon", "coordinates": [ [ [ -115.742915700000012, 60.8479077 ], [ -115.7424295, 60.8480253 ], [ -115.7425929, 60.8481857 ], [ -115.7427027, 60.8481591 ], [ -115.742620700000018, 60.848078500000014 ], [ -115.742772500000015, 60.8480419 ], [ -115.7429998, 60.8482654 ], [ -115.7422213, 60.8484532 ], [ -115.7421385, 60.8483718 ], [ -115.7422363, 60.8483482 ], [ -115.742052, 60.848167099999984 ], [ -115.742216900000017, 60.8481273 ], [ -115.7422956, 60.848204599999988 ], [ -115.7423368, 60.8481946 ], [ -115.74239630000001, 60.8482529 ], [ -115.7424373, 60.84824290000001 ], [ -115.7421724, 60.8479842 ], [ -115.7430917, 60.8477608 ], [ -115.7431775, 60.8478447 ], [ -115.7430658, 60.8478718 ], [ -115.743349, 60.8481486 ], [ -115.7431413, 60.848199 ], [ -115.7430553, 60.8481148 ], [ -115.7431127, 60.84810090000002 ], [ -115.742915700000012, 60.8479077 ] ] ] } },
{ "type": "Feature", "properties": { "osm_id": 824375723, "building": "yes", "street": "Hay River Highway", "area": "Old Town Hay River", "flood_pixels": 15 }, "geometry": { "type": "Polygon", "coordinates": [ [ [ -115.7436433, 60.8476609 ], [ -115.74358359999998, 60.8475282 ], [ -115.7437553, 60.847509900000013 ], [ -115.7438149, 60.8476426 ], [ -115.7436433, 60.8476609 ] ] ] } },
{ "type": "Feature", "properties": { "osm_id": 824375724, "building": "yes", "street": "Hay River Highway", "area": "Old Town Hay River", "flood_pixels": 18 }, "geometry": { "type": "Polygon", "coordinates": [ [ [ -115.7438578, 60.8479083 ], [ -115.7440691, 60.8478411 ], [ -115.7439948, 60.8477856 ], [ -115.743783399999984, 60.8478527 ], [ -115.7438578, 60.8479083 ] ] ] } },
{ "type": "Feature", "properties": { "osm_id": 824375725, "building": "yes", "street": "106 Street", "area": "Old Town Hay River", "flood_pixels": 6 }, "geometry": { "type": "Polygon", "coordinates": [ [ [ -115.7466547, 60.849326 ], [ -115.747002600000016, 60.8492597 ], [ -115.7469346, 60.8491752 ], [ -115.7465867, 60.8492415 ], [ -115.7466547, 60.849326 ] ] ] } },
{ "type": "Feature", "properties": { "osm_id": 824375726, "building": "yes", "street": "Hay River Highway", "area": "Old Town Hay River", "flood_pixels": 4 }, "geometry": { "type": "Polygon", "coordinates": [ [ [ -115.7468873, 60.8476741 ], [ -115.7468721, 60.8475627 ], [ -115.746736500000011, 60.8475671 ], [ -115.746751700000019, 60.8476785 ], [ -115.7468873, 60.8476741 ] ] ] } },
{ "type": "Feature", "properties": { "osm_id": 824375727, "building": "yes", "street": "107 Street", "area": "Old Town Hay River", "flood_pixels": 3 }, "geometry": { "type": "Polygon", "coordinates": [ [ [ -115.7475442, 60.8474758 ], [ -115.7475062, 60.847358 ], [ -115.747718100000014, 60.8473417 ], [ -115.7477561, 60.8474595 ], [ -115.7475442, 60.8474758 ] ] ] } },
{ "type": "Feature", "properties": { "osm_id": 824375728, "building": "yes", "street": "Hay River Highway", "area": "Old Town Hay River", "flood_pixels": 5 }, "geometry": { "type": "Polygon", "coordinates": [ [ [ -115.746731600000018, 60.847560599999987 ], [ -115.746937800000012, 60.847543100000024 ], [ -115.7468863, 60.847399 ], [ -115.74668, 60.8474165 ], [ -115.746731600000018, 60.847560599999987 ] ] ] } },
{ "type": "Feature", "properties": { "osm_id": 824375729, "building": "yes", "street": "106 Street", "area": "Old Town Hay River", "flood_pixels": 20 }, "geometry": { "type": "Polygon", "coordinates": [ [ [ -115.7452072, 60.848112300000018 ], [ -115.74512630000001, 60.8479509 ], [ -115.7452793, 60.847932700000023 ], [ -115.7453602, 60.8480941 ], [ -115.7452072, 60.848112300000018 ] ] ] } },
{ "type": "Feature", "properties": { "osm_id": 824375731, "building": "yes", "street": "Hay River Highway", "area": "Old Town Hay River", "flood_pixels": 12 }, "geometry": { "type": "Polygon", "coordinates": [ [ [ -115.7469976, 60.8465237 ], [ -115.7469619, 60.8465245 ], [ -115.7469287, 60.8465311 ], [ -115.7469019, 60.8465426 ], [ -115.746884499999979, 60.8465579 ], [ -115.74687849999998, 60.84657510000001 ], [ -115.746884499999979, 60.8465923 ], [ -115.7469019, 60.8466075 ], [ -115.7469288, 60.846619 ], [ -115.7469597, 60.846625299999985 ], [ -115.7469931, 60.8466266 ], [ -115.7470256, 60.8466228 ], [ -115.7470541, 60.8466142 ], [ -115.7470757, 60.8466017 ], [ -115.747088199999979, 60.8465865 ], [ -115.747090299999982, 60.846570199999988 ], [ -115.7470811, 60.8465534 ], [ -115.747060800000014, 60.846539 ], [ -115.7470319, 60.8465287 ], [ -115.7469976, 60.8465237 ] ] ] } },
{ "type": "Feature", "properties": { "osm_id": 824375733, "building": "yes", "street": "Hay River Highway", "area": "Old Town Hay River", "flood_pixels": 5 }, "geometry": { "type": "Polygon", "coordinates": [ [ [ -115.74788820000002, 60.8463996 ], [ -115.74784360000001, 60.8464116 ], [ -115.747809100000012, 60.8464298 ], [ -115.7477882, 60.8464524 ], [ -115.747783, 60.8464771 ], [ -115.7477942, 60.8465013 ], [ -115.7478205, 60.846522499999985 ], [ -115.7478593, 60.8465386 ], [ -115.7479065, 60.846547799999989 ], [ -115.74796090000001, 60.8465491 ], [ -115.748013, 60.8465414 ], [ -115.7480567, 60.8465255 ], [ -115.7480867, 60.8465034 ], [ -115.7480996, 60.8464776 ], [ -115.7480939, 60.8464512 ], [ -115.7480702, 60.8464273 ], [ -115.7480342, 60.8464098 ], [ -115.7479887, 60.846398699999988 ], [ -115.747938300000015, 60.846395200000011 ], [ -115.74788820000002, 60.8463996 ] ] ] } },
{ "type": "Feature", "properties": { "osm_id": 824375735, "building": "yes", "street": "Hay River Highway", "area": "Old Town Hay River", "flood_pixels": 5 }, "geometry": { "type": "Polygon", "coordinates": [ [ [ -115.7488577, 60.8464776 ], [ -115.748801500000013, 60.8464835 ], [ -115.7487525, 60.8464982 ], [ -115.7487165, 60.84652 ], [ -115.748697400000012, 60.8465464 ], [ -115.7486976, 60.846574399999987 ], [ -115.748717, 60.8466008 ], [ -115.7487509, 60.8466214 ], [ -115.748796499999983, 60.8466357 ], [ -115.7488491, 60.8466423 ], [ -115.748903200000015, 60.8466405 ], [ -115.7489533, 60.8466304 ], [ -115.748994400000015, 60.846613199999979 ], [ -115.7490222, 60.846590499999969 ], [ -115.7490338, 60.8465646 ], [ -115.749028, 60.846538399999986 ], [ -115.7490055, 60.8465143 ], [ -115.748966, 60.846494 ], [ -115.7489148, 60.8464813 ], [ -115.7488577, 60.8464776 ] ] ] } },
{ "type": "Feature", "properties": { "osm_id": 824375737, "building": "yes", "street": "Hay River Highway", "area": "Old Town Hay River", "flood_pixels": 12 }, "geometry": { "type": "Polygon", "coordinates": [ [ [ -115.7488163, 60.846212800000011 ], [ -115.748867200000021, 60.8462307 ], [ -115.7489033, 60.8462557 ], [ -115.7489208, 60.8462851 ], [ -115.7489178, 60.8463157 ], [ -115.74889450000002, 60.8463441 ], [ -115.7488536, 60.8463673 ], [ -115.7487994, 60.8463828 ], [ -115.7487378, 60.8463888 ], [ -115.748675599999984, 60.846384799999989 ], [ -115.7486195, 60.8463712 ], [ -115.7485754, 60.846349399999987 ], [ -115.7485482, 60.846321899999971 ], [ -115.748540899999981, 60.8462915 ], [ -115.7485542, 60.8462616 ], [ -115.7485866, 60.8462355 ], [ -115.7486348, 60.846215800000024 ], [ -115.748693500000016, 60.8462049 ], [ -115.748756200000017, 60.8462038 ], [ -115.7488163, 60.846212800000011 ] ] ] } },
{ "type": "Feature", "properties": { "osm_id": 824375738, "building": "yes", "street": "107 Street", "area": "Old Town Hay River", "flood_pixels": 11 }, "geometry": { "type": "Polygon", "coordinates": [ [ [ -115.7474849, 60.8469977 ], [ -115.7479435, 60.846939 ], [ -115.747893300000015, 60.84684570000001 ], [ -115.747434699999985, 60.8469042 ], [ -115.7474849, 60.8469977 ] ] ] } },
{ "type": "Feature", "properties": { "osm_id": 824375739, "building": "yes", "street": "Hay River Highway", "area": "Old Town Hay River", "flood_pixels": 3 }, "geometry": { "type": "Polygon", "coordinates": [ [ [ -115.7483322, 60.8468733 ], [ -115.748031399999988, 60.846908499999984 ], [ -115.748002, 60.8468426 ], [ -115.7483, 60.8468073 ], [ -115.7483322, 60.8468733 ] ] ] } },
{ "type": "Feature", "properties": { "osm_id": 824375741, "building": "yes", "street": "Hay River Highway", "area": "Vale Island", "flood_pixels": 3 }, "geometry": { "type": "Polygon", "coordinates": [ [ [ -115.751859, 60.846500599999985 ], [ -115.7517396, 60.846208799999985 ], [ -115.7519693, 60.8461865 ], [ -115.7520887, 60.8464783 ], [ -115.751859, 60.846500599999985 ] ] ] } },
{ "type": "Feature", "properties": { "osm_id": 824375742, "building": "yes", "street": "Hay River Highway", "area": "Vale Island", "flood_pixels": 11 }, "geometry": { "type": "Polygon", "coordinates": [ [ [ -115.7522616, 60.8462351 ], [ -115.7523395, 60.846462499999987 ], [ -115.752821899999986, 60.8464233 ], [ -115.752743899999984, 60.8461959 ], [ -115.7522616, 60.8462351 ] ] ] } },
{ "type": "Feature", "properties": { "osm_id": 824375743, "building": "yes", "street": "Hay River Highway", "area": "Vale Island", "flood_pixels": 4 }, "geometry": { "type": "Polygon", "coordinates": [ [ [ -115.753140400000021, 60.8463835 ], [ -115.7530392, 60.8461542 ], [ -115.7532171, 60.8461356 ], [ -115.7533183, 60.846364899999983 ], [ -115.753140400000021, 60.8463835 ] ] ] } },
{ "type": "Feature", "properties": { "osm_id": 824375744, "building": "yes", "street": "Hay River Highway", "area": "Vale Island", "flood_pixels": 10 }, "geometry": { "type": "Polygon", "coordinates": [ [ [ -115.7533696, 60.8463618 ], [ -115.7535545, 60.8463431 ], [ -115.7534562, 60.846112 ], [ -115.7532712, 60.8461307 ], [ -115.7533696, 60.8463618 ] ] ] } },
{ "type": "Feature", "properties": { "osm_id": 824375745, "building": "yes", "street": "Hay River Highway", "area": "Vale Island", "flood_pixels": 9 }, "geometry": { "type": "Polygon", "coordinates": [ [ [ -115.7529993, 60.845869 ], [ -115.7529075, 60.8457035 ], [ -115.7531523, 60.8456712 ], [ -115.753191500000014, 60.8457418 ], [ -115.753492, 60.8457023 ], [ -115.7535447, 60.8457972 ], [ -115.7529993, 60.845869 ] ] ] } },
{ "type": "Feature", "properties": { "osm_id": 824375747, "building": "yes", "street": "unnamed road", "area": "Vale Island", "flood_pixels": 8 }, "geometry": { "type": "Polygon", "coordinates": [ [ [ -115.7502313, 60.844636600000015 ], [ -115.7503771, 60.8448179 ], [ -115.750590300000013, 60.844777299999983 ], [ -115.7504446, 60.8445959 ], [ -115.7502313, 60.844636600000015 ] ] ] } },
{ "type": "Feature", "properties": { "osm_id": 825391178, "building": "yes", "street": "Elm Crescent", "area": "New Town Hay River", "flood_pixels": 5 }, "geometry": { "type": "Polygon", "coordinates": [ [ [ -115.786565, 60.8183521 ], [ -115.7864719, 60.8183346 ], [ -115.7865038, 60.8182943 ], [ -115.786447400000014, 60.8182837 ], [ -115.7865272, 60.818182700000015 ], [ -115.786578599999984, 60.8181924 ], [ -115.786614, 60.81814760000001 ], [ -115.7867121, 60.818166 ], [ -115.786565, 60.8183521 ] ] ] } },
{ "type": "Feature", "properties": { "osm_id": 825391179, "building": "yes", "street": "Elm Crescent", "area": "New Town Hay River", "flood_pixels": 6 }, "geometry": { "type": "Polygon", "coordinates": [ [ [ -115.786275, 60.818275199999988 ], [ -115.7861885, 60.8182581 ], [ -115.786244599999989, 60.818190800000011 ], [ -115.7861989, 60.8181818 ], [ -115.7862304, 60.818143899999988 ], [ -115.7862727, 60.8181523 ], [ -115.78633, 60.818083599999987 ], [ -115.7864199, 60.81810140000001 ], [ -115.786275, 60.818275199999988 ] ] ] } },
{ "type": "Feature", "properties": { "osm_id": 825391221, "building": "yes", "street": "Balsam Drive", "area": "New Town Hay River", "flood_pixels": 3 }, "geometry": { "type": "Polygon", "coordinates": [ [ [ -115.788521800000012, 60.8192128 ], [ -115.7885801, 60.8191497 ], [ -115.7889558, 60.8192322 ], [ -115.7888976, 60.8192953 ], [ -115.788521800000012, 60.8192128 ] ] ] } },
{ "type": "Feature", "properties": { "osm_id": 825393737, "building": "yes", "street": "Pine Crescent", "area": "New Town Hay River", "flood_pixels": 3 }, "geometry": { "type": "Polygon", "coordinates": [ [ [ -115.7890572, 60.8193469 ], [ -115.78902, 60.819395200000017 ], [ -115.789209700000015, 60.81942990000001 ], [ -115.7891876, 60.819458699999977 ], [ -115.7892711, 60.819474 ], [ -115.789301, 60.8194351 ], [ -115.7893602, 60.8194459 ], [ -115.7893896, 60.8194077 ], [ -115.7890572, 60.8193469 ] ] ] } },
{ "type": "Feature", "properties": { "osm_id": 825393738, "building": "yes", "street": "Pine Crescent", "area": "New Town Hay River", "flood_pixels": 3 }, "geometry": { "type": "Polygon", "coordinates": [ [ [ -115.788901, 60.819480099999986 ], [ -115.7888739, 60.8195154 ], [ -115.7889287, 60.8195254 ], [ -115.788906400000016, 60.819554499999988 ], [ -115.789059100000017, 60.819582399999987 ], [ -115.7890824, 60.819552099999989 ], [ -115.7892129, 60.819576 ], [ -115.789239100000017, 60.819541899999983 ], [ -115.788901, 60.819480099999986 ] ] ] } },
{ "type": "Feature", "properties": { "osm_id": 825393740, "building": "yes", "street": "Pine Crescent", "area": "New Town Hay River", "flood_pixels": 8 }, "geometry": { "type": "Polygon", "coordinates": [ [ [ -115.788785899999979, 60.8196041 ], [ -115.789131, 60.81968 ], [ -115.7890749, 60.8197407 ], [ -115.7887297, 60.8196647 ], [ -115.788785899999979, 60.8196041 ] ] ] } },
{ "type": "Feature", "properties": { "osm_id": 825393741, "building": "yes", "street": "Pine Crescent", "area": "New Town Hay River", "flood_pixels": 4 }, "geometry": { "type": "Polygon", "coordinates": [ [ [ -115.789008100000018, 60.8198251 ], [ -115.788913699999981, 60.819932 ], [ -115.7887568, 60.819899099999986 ], [ -115.788851200000011, 60.8197922 ], [ -115.789008100000018, 60.8198251 ] ] ] } },
{ "type": "Feature", "properties": { "osm_id": 825393742, "building": "yes", "street": "Pine Crescent", "area": "New Town Hay River", "flood_pixels": 3 }, "geometry": { "type": "Polygon", "coordinates": [ [ [ -115.7889027, 60.819948700000019 ], [ -115.788862699999981, 60.8199934 ], [ -115.788786699999989, 60.8199773 ], [ -115.7887665, 60.8199999 ], [ -115.7886335, 60.8199717 ], [ -115.7886585, 60.81994370000001 ], [ -115.7885402, 60.8199185 ], [ -115.7885755, 60.8198791 ], [ -115.7889027, 60.819948700000019 ] ] ] } },
{ "type": "Feature", "properties": { "osm_id": 825401342, "building": "yes", "street": "Airport Rd", "area": "Hay River (other areas)", "flood_pixels": 4 }, "geometry": { "type": "Polygon", "coordinates": [ [ [ -115.7790647, 60.8386162 ], [ -115.778845, 60.838669799999984 ], [ -115.778784, 60.8385925 ], [ -115.779003700000018, 60.838544900000016 ], [ -115.7790647, 60.8386162 ] ] ] } },
{ "type": "Feature", "properties": { "osm_id": 825401343, "building": "yes", "street": "Airport Rd", "area": "Hay River (other areas)", "flood_pixels": 7 }, "geometry": { "type": "Polygon", "coordinates": [ [ [ -115.7789236, 60.8384711 ], [ -115.7787164, 60.8385208 ], [ -115.778641400000012, 60.838446399999988 ], [ -115.778848600000018, 60.838396799999984 ], [ -115.7789236, 60.8384711 ] ] ] } },
{ "type": "Feature", "properties": { "osm_id": 825401344, "building": "yes", "street": "Airport Rd", "area": "Hay River (other areas)", "flood_pixels": 7 }, "geometry": { "type": "Polygon", "coordinates": [ [ [ -115.778723, 60.8383665 ], [ -115.7785981, 60.8383989 ], [ -115.7785024, 60.838311200000014 ], [ -115.7787465, 60.838247900000013 ], [ -115.7788152, 60.8383108 ], [ -115.778714900000011, 60.838336799999986 ], [ -115.778723, 60.8383665 ] ] ] } },
{ "type": "Feature", "properties": { "osm_id": 825401345, "building": "yes", "street": "unnamed road", "area": "Hay River (other areas)", "flood_pixels": 14 }, "geometry": { "type": "Polygon", "coordinates": [ [ [ -115.778634299999979, 60.838214 ], [ -115.7784669, 60.8382592 ], [ -115.7783828, 60.8381852 ], [ -115.778550200000012, 60.83814 ], [ -115.778634299999979, 60.838214 ] ] ] } },
{ "type": "Feature", "properties": { "osm_id": 825401346, "building": "yes", "street": "unnamed road", "area": "Vale Island", "flood_pixels": 27 }, "geometry": { "type": "Polygon", "coordinates": [ [ [ -115.7693243, 60.8427554 ], [ -115.7689906, 60.8428298 ], [ -115.7687788, 60.8426044 ], [ -115.7691124, 60.84253 ], [ -115.7693243, 60.8427554 ] ] ] } },
{ "type": "Feature", "properties": { "osm_id": 825401350, "building": "yes", "street": "Whitlock Rd", "area": "Hay River (other areas)", "flood_pixels": 9 }, "geometry": { "type": "Polygon", "coordinates": [ [ [ -115.7696235, 60.8402833 ], [ -115.7692386, 60.8403653 ], [ -115.769110500000011, 60.840222499999982 ], [ -115.7695559, 60.8401276 ], [ -115.7696472, 60.8402293 ], [ -115.7695866, 60.8402422 ], [ -115.7696235, 60.8402833 ] ] ] } },
{ "type": "Feature", "properties": { "osm_id": 825401351, "building": "yes", "street": "Whitlock Rd", "area": "Hay River (other areas)", "flood_pixels": 8 }, "geometry": { "type": "Polygon", "coordinates": [ [ [ -115.7684512, 60.8407199 ], [ -115.768534, 60.8408287 ], [ -115.768373600000018, 60.840857699999987 ], [ -115.768290800000017, 60.8407489 ], [ -115.7684512, 60.8407199 ] ] ] } },
{ "type": "Feature", "properties": { "osm_id": 825401352, "building": "yes", "street": "Reserve Highway", "area": "Hay River (other areas)", "flood_pixels": 24 }, "geometry": { "type": "Polygon", "coordinates": [ [ [ -115.762831, 60.8347262 ], [ -115.762581, 60.8348601 ], [ -115.7625526, 60.8348325 ], [ -115.76250850000001, 60.834856 ], [ -115.7623379, 60.83477989999998 ], [ -115.7618508, 60.8350395 ], [ -115.761801300000016, 60.835017500000014 ], [ -115.761652400000017, 60.8350969 ], [ -115.7614459, 60.8350051 ], [ -115.7615959, 60.834925 ], [ -115.7615254, 60.8348936 ], [ -115.7620415, 60.8346177 ], [ -115.7621266, 60.8346555 ], [ -115.7622447, 60.834592300000018 ], [ -115.7623795, 60.834652200000015 ], [ -115.76250850000001, 60.834583199999983 ], [ -115.762831, 60.8347262 ] ] ] } },
{ "type": "Feature", "properties": { "osm_id": 825401353, "building": "yes", "street": "Lynx Dr", "area": "Hay River (other areas)", "flood_pixels": 4 }, "geometry": { "type": "Polygon", "coordinates": [ [ [ -115.760413, 60.8352198 ], [ -115.7607718, 60.8354102 ], [ -115.7606403, 60.8354691 ], [ -115.76044730000001, 60.8353666 ], [ -115.7603815, 60.8353961 ], [ -115.760255200000017, 60.835329 ], [ -115.760336599999988, 60.8352926 ], [ -115.7602971, 60.8352717 ], [ -115.760413, 60.8352198 ] ] ] } },
{ "type": "Feature", "properties": { "osm_id": 826303671, "building": "yes", "street": "Cranberry Crescent", "area": "New Town Hay River", "flood_pixels": 10 }, "geometry": { "type": "Polygon", "coordinates": [ [ [ -115.7854274, 60.8247082 ], [ -115.7857413, 60.824782699999986 ], [ -115.785865, 60.8246589 ], [ -115.7856759, 60.824614 ], [ -115.785623299999983, 60.8246667 ], [ -115.7854985, 60.8246371 ], [ -115.7854274, 60.8247082 ] ] ] } },
{ "type": "Feature", "properties": { "osm_id": 826303672, "building": "yes", "street": "Cranberry Crescent", "area": "New Town Hay River", "flood_pixels": 4 }, "geometry": { "type": "Polygon", "coordinates": [ [ [ -115.785603400000014, 60.8247725 ], [ -115.7855055, 60.8248987 ], [ -115.7852997, 60.8248608 ], [ -115.7853975, 60.8247345 ], [ -115.785603400000014, 60.8247725 ] ] ] } },
{ "type": "Feature", "properties": { "osm_id": 826303673, "building": "yes", "street": "Cranberry Crescent", "area": "New Town Hay River", "flood_pixels": 6 }, "geometry": { "type": "Polygon", "coordinates": [ [ [ -115.7854872, 60.825031 ], [ -115.785281500000011, 60.8249871 ], [ -115.785296599999981, 60.824970199999989 ], [ -115.785206800000012, 60.8249511 ], [ -115.7852817, 60.8248677 ], [ -115.7855772, 60.82493070000001 ], [ -115.7854872, 60.825031 ] ] ] } },
{ "type": "Feature", "properties": { "osm_id": 826303674, "building": "yes", "street": "Cranberry Crescent", "area": "New Town Hay River", "flood_pixels": 6 }, "geometry": { "type": "Polygon", "coordinates": [ [ [ -115.785493, 60.8250757 ], [ -115.785428200000013, 60.825158399999985 ], [ -115.78509750000002, 60.8250968 ], [ -115.7851622, 60.8250141 ], [ -115.785493, 60.8250757 ] ] ] } },
{ "type": "Feature", "properties": { "osm_id": 826303690, "building": "yes", "street": "Saskatoon Drive", "area": "New Town Hay River", "flood_pixels": 5 }, "geometry": { "type": "Polygon", "coordinates": [ [ [ -115.7844884, 60.824339 ], [ -115.7847005, 60.8243925 ], [ -115.784788500000019, 60.8243097 ], [ -115.7845763, 60.8242562 ], [ -115.7844884, 60.824339 ] ] ] } },
{ "type": "Feature", "properties": { "osm_id": 826303691, "building": "yes", "street": "Cranberry Crescent", "area": "New Town Hay River", "flood_pixels": 10 }, "geometry": { "type": "Polygon", "coordinates": [ [ [ -115.784438100000017, 60.824659699999984 ], [ -115.7847494, 60.8247253 ], [ -115.7848154, 60.824650800000022 ], [ -115.784742600000015, 60.8246354 ], [ -115.7847662, 60.8246088 ], [ -115.784731900000011, 60.8246016 ], [ -115.784768500000013, 60.8245603 ], [ -115.7845643, 60.824517299999989 ], [ -115.784438100000017, 60.824659699999984 ] ] ] } },
{ "type": "Feature", "properties": { "osm_id": 826303692, "building": "yes", "street": "Cranberry Crescent", "area": "New Town Hay River", "flood_pixels": 5 }, "geometry": { "type": "Polygon", "coordinates": [ [ [ -115.784687, 60.8247995 ], [ -115.7846258, 60.8248709 ], [ -115.78435540000001, 60.8248159 ], [ -115.7844605, 60.8246931 ], [ -115.7846412, 60.8247299 ], [ -115.7846184, 60.8247565 ], [ -115.7846606, 60.8247651 ], [ -115.784639500000011, 60.8247898 ], [ -115.784687, 60.8247995 ] ] ] } },
{ "type": "Feature", "properties": { "osm_id": 826303693, "building": "yes", "street": "Cranberry Crescent", "area": "New Town Hay River", "flood_pixels": 10 }, "geometry": { "type": "Polygon", "coordinates": [ [ [ -115.7843413, 60.824839 ], [ -115.7844883, 60.824867 ], [ -115.784464, 60.8248974 ], [ -115.784509200000016, 60.824906 ], [ -115.7844896, 60.824930499999972 ], [ -115.7845559, 60.8249431 ], [ -115.784499, 60.8250143 ], [ -115.784181600000011, 60.824954 ], [ -115.7842302, 60.824893199999984 ], [ -115.784289, 60.8249044 ], [ -115.7843413, 60.824839 ] ] ] } },
{ "type": "Feature", "properties": { "osm_id": 826303694, "building": "yes", "street": "Cranberry Crescent", "area": "New Town Hay River", "flood_pixels": 5 }, "geometry": { "type": "Polygon", "coordinates": [ [ [ -115.784465700000013, 60.8250435 ], [ -115.7844221, 60.8250959 ], [ -115.784454, 60.825102200000011 ], [ -115.7844009, 60.8251661 ], [ -115.7840948, 60.8251057 ], [ -115.7841212, 60.8250739 ], [ -115.7840771, 60.8250652 ], [ -115.7841188, 60.8250149 ], [ -115.7841323, 60.8250201 ], [ -115.78416270000001, 60.8249836 ], [ -115.784465700000013, 60.8250435 ] ] ] } },
{ "type": "Feature", "properties": { "osm_id": 827516841, "building": "yes", "street": "Eagle Crescent", "area": "New Town Hay River", "flood_pixels": 3 }, "geometry": { "type": "Polygon", "coordinates": [ [ [ -115.776832, 60.8220132 ], [ -115.776767, 60.822048 ], [ -115.776643800000016, 60.8219934 ], [ -115.7767088, 60.8219586 ], [ -115.776832, 60.8220132 ] ] ] } },
{ "type": "Feature", "properties": { "osm_id": 827516848, "building": "yes", "street": "Woodland Drive", "area": "New Town Hay River", "flood_pixels": 3 }, "geometry": { "type": "Polygon", "coordinates": [ [ [ -115.7766572, 60.821788799999986 ], [ -115.7765306, 60.8217325 ], [ -115.7763701, 60.821818300000018 ], [ -115.7764967, 60.8218746 ], [ -115.7766572, 60.821788799999986 ] ] ] } },
{ "type": "Feature", "properties": { "osm_id": 827516849, "building": "yes", "street": "Woodland Drive", "area": "New Town Hay River", "flood_pixels": 6 }, "geometry": { "type": "Polygon", "coordinates": [ [ [ -115.7767675, 60.82173269999997 ], [ -115.77687, 60.8216697 ], [ -115.7768963, 60.8216799 ], [ -115.776964599999985, 60.821637899999985 ], [ -115.7767961, 60.8215727 ], [ -115.776625200000012, 60.8216776 ], [ -115.7767675, 60.82173269999997 ] ] ] } },
{ "type": "Feature", "properties": { "osm_id": 827517462, "building": "yes", "street": "Hay River Highway", "area": "New Town Hay River", "flood_pixels": 16 }, "geometry": { "type": "Polygon", "coordinates": [ [ [ -115.7758525, 60.826475599999988 ], [ -115.776299499999979, 60.826530799999986 ], [ -115.776212699999988, 60.8266979 ], [ -115.7765876, 60.8267442 ], [ -115.7765403, 60.8268352 ], [ -115.7767925, 60.8268664 ], [ -115.7767622, 60.826924700000021 ], [ -115.776529100000019, 60.8268959 ], [ -115.776508899999982, 60.826934799999989 ], [ -115.77631479999998, 60.8269109 ], [ -115.776344099999989, 60.8268543 ], [ -115.7756972, 60.8267745 ], [ -115.7758525, 60.826475599999988 ] ] ] } },
{ "type": "Feature", "properties": { "osm_id": 827517463, "building": "yes", "street": "unnamed road", "area": "New Town Hay River", "flood_pixels": 17 }, "geometry": { "type": "Polygon", "coordinates": [ [ [ -115.7756089, 60.827253 ], [ -115.7753696, 60.8272282 ], [ -115.775444900000011, 60.827055799999989 ], [ -115.7756841, 60.8270806 ], [ -115.7756089, 60.827253 ] ] ] } },
{ "type": "Feature", "properties": { "osm_id": 827517464, "building": "yes", "street": "unnamed road", "area": "New Town Hay River", "flood_pixels": 5 }, "geometry": { "type": "Polygon", "coordinates": [ [ [ -115.7755875, 60.8267777 ], [ -115.7755264, 60.8268748 ], [ -115.7753752, 60.8268522 ], [ -115.775436299999981, 60.8267551 ], [ -115.7755875, 60.8267777 ] ] ] } },
{ "type": "Feature", "properties": { "osm_id": 827761210, "building": "yes", "street": "Woodland Drive", "area": "New Town Hay River", "flood_pixels": 5 }, "geometry": { "type": "Polygon", "coordinates": [ [ [ -115.7786641, 60.8202002 ], [ -115.77869920000002, 60.8201511 ], [ -115.77873, 60.8201564 ], [ -115.778781100000018, 60.8200851 ], [ -115.778581, 60.8200511 ], [ -115.7784948, 60.8201714 ], [ -115.7786641, 60.8202002 ] ] ] } },
{ "type": "Feature", "properties": { "osm_id": 827842727, "building": "yes", "street": "Woodland Drive", "area": "New Town Hay River", "flood_pixels": 5 }, "geometry": { "type": "Polygon", "coordinates": [ [ [ -115.7784336, 60.8194982 ], [ -115.7782824, 60.8194748 ], [ -115.778351200000017, 60.8193688 ], [ -115.7785024, 60.8193921 ], [ -115.7784336, 60.8194982 ] ] ] } },
{ "type": "Feature", "properties": { "osm_id": 831551651, "building": "yes", "street": "Fox Rd", "area": "Hay River (other areas)", "flood_pixels": 5 }, "geometry": { "type": "Polygon", "coordinates": [ [ [ -115.766068200000021, 60.8326319 ], [ -115.7662657, 60.83272130000001 ], [ -115.7663886, 60.8326568 ], [ -115.7661911, 60.8325674 ], [ -115.766068200000021, 60.8326319 ] ] ] } },
{ "type": "Feature", "properties": { "osm_id": 831551652, "building": "yes", "street": "Fox Rd", "area": "Hay River (other areas)", "flood_pixels": 10 }, "geometry": { "type": "Polygon", "coordinates": [ [ [ -115.7669298, 60.832995899999986 ], [ -115.766996899999981, 60.833021 ], [ -115.7670261, 60.833002499999985 ], [ -115.767089, 60.833026 ], [ -115.76720060000001, 60.8329553 ], [ -115.7670046, 60.8328819 ], [ -115.7668935, 60.8329523 ], [ -115.7669595, 60.8329771 ], [ -115.7669298, 60.832995899999986 ] ] ] } },
{ "type": "Feature", "properties": { "osm_id": 831551656, "building": "yes", "street": "unnamed road", "area": "Hay River (other areas)", "flood_pixels": 6 }, "geometry": { "type": "Polygon", "coordinates": [ [ [ -115.771331500000016, 60.8298423 ], [ -115.771617800000016, 60.8297967 ], [ -115.771522, 60.8296539 ], [ -115.7712357, 60.8296995 ], [ -115.771331500000016, 60.8298423 ] ] ] } },
{ "type": "Feature", "properties": { "osm_id": 831551665, "building": "yes", "street": "Lynx Dr", "area": "Hay River (other areas)", "flood_pixels": 8 }, "geometry": { "type": "Polygon", "coordinates": [ [ [ -115.7597085, 60.8356665 ], [ -115.7594896, 60.8355566 ], [ -115.7596266, 60.8354918 ], [ -115.759824199999983, 60.8355909 ], [ -115.759769500000019, 60.8356168 ], [ -115.759790899999985, 60.8356275 ], [ -115.7597085, 60.8356665 ] ] ] } },
{ "type": "Feature", "properties": { "osm_id": 831551666, "building": "yes", "street": "Reserve Highway", "area": "Hay River (other areas)", "flood_pixels": 8 }, "geometry": { "type": "Polygon", "coordinates": [ [ [ -115.7591912, 60.835761 ], [ -115.7590909, 60.835686 ], [ -115.7593346, 60.835608499999985 ], [ -115.7594349, 60.8356835 ], [ -115.7591912, 60.835761 ] ] ] } },
{ "type": "Feature", "properties": { "osm_id": 831551669, "building": "yes", "street": "Wolf Dr", "area": "Hay River (other areas)", "flood_pixels": 9 }, "geometry": { "type": "Polygon", "coordinates": [ [ [ -115.7579672, 60.8366147 ], [ -115.7576728, 60.836573 ], [ -115.7577205, 60.83649310000002 ], [ -115.75801490000002, 60.8365348 ], [ -115.7579672, 60.8366147 ] ] ] } },
{ "type": "Feature", "properties": { "osm_id": 831551670, "building": "yes", "street": "Wolf Dr", "area": "Hay River (other areas)", "flood_pixels": 13 }, "geometry": { "type": "Polygon", "coordinates": [ [ [ -115.7572108, 60.8371216 ], [ -115.757276300000015, 60.8370318 ], [ -115.757058, 60.8369939 ], [ -115.7569998, 60.837083800000023 ], [ -115.7572108, 60.8371216 ] ] ] } },
{ "type": "Feature", "properties": { "osm_id": 831551671, "building": "yes", "street": "Wolf Dr", "area": "Hay River (other areas)", "flood_pixels": 10 }, "geometry": { "type": "Polygon", "coordinates": [ [ [ -115.7589206, 60.8367219 ], [ -115.758794400000014, 60.8367015 ], [ -115.758777399999985, 60.8367265 ], [ -115.758677799999987, 60.8367103 ], [ -115.758744300000018, 60.8366127 ], [ -115.7589701, 60.836649199999982 ], [ -115.7589206, 60.8367219 ] ] ] } },
{ "type": "Feature", "properties": { "osm_id": 831551672, "building": "yes", "street": "Wolf Dr", "area": "Hay River (other areas)", "flood_pixels": 5 }, "geometry": { "type": "Polygon", "coordinates": [ [ [ -115.7591004, 60.836835599999986 ], [ -115.7593745, 60.8368828 ], [ -115.7594375, 60.8367942 ], [ -115.75916340000002, 60.8367481 ], [ -115.7591004, 60.836835599999986 ] ] ] } },
{ "type": "Feature", "properties": { "osm_id": 831551679, "building": "yes", "street": "Lynx Dr", "area": "Hay River (other areas)", "flood_pixels": 6 }, "geometry": { "type": "Polygon", "coordinates": [ [ [ -115.7603643, 60.8359683 ], [ -115.7601727, 60.8358899 ], [ -115.7602642, 60.8358368 ], [ -115.7604558, 60.8359151 ], [ -115.7603643, 60.8359683 ] ] ] } },
{ "type": "Feature", "properties": { "osm_id": 831551680, "building": "yes", "street": "Wolf Dr", "area": "Hay River (other areas)", "flood_pixels": 3 }, "geometry": { "type": "Polygon", "coordinates": [ [ [ -115.756480600000017, 60.8368248 ], [ -115.756429, 60.8368159 ], [ -115.7564194, 60.836829299999984 ], [ -115.756312600000015, 60.836811 ], [ -115.7563261, 60.836792299999985 ], [ -115.756273, 60.8367832 ], [ -115.7563202, 60.8367179 ], [ -115.756531600000017, 60.8367542 ], [ -115.756480600000017, 60.8368248 ] ] ] } },
{ "type": "Feature", "properties": { "osm_id": 831551681, "building": "yes", "street": "Reserve Highway", "area": "Hay River (other areas)", "flood_pixels": 9 }, "geometry": { "type": "Polygon", "coordinates": [ [ [ -115.7544569, 60.8369118 ], [ -115.7544602, 60.8369478 ], [ -115.7544865, 60.8369814 ], [ -115.754533200000012, 60.8370093 ], [ -115.7545954, 60.837028599999982 ], [ -115.754667, 60.8370374 ], [ -115.7547406, 60.837034899999978 ], [ -115.754813499999983, 60.8370197 ], [ -115.75487170000001, 60.8369935 ], [ -115.7549084, 60.8369593 ], [ -115.7549194, 60.836921 ], [ -115.7549033, 60.8368832 ], [ -115.754862, 60.836850199999986 ], [ -115.754800299999985, 60.836826 ], [ -115.7547255, 60.8368132 ], [ -115.7546463, 60.8368135 ], [ -115.7545766, 60.8368254 ], [ -115.7545182, 60.8368474 ], [ -115.7544769, 60.836877200000011 ], [ -115.7544569, 60.8369118 ] ] ] } },
{ "type": "Feature", "properties": { "osm_id": 831551682, "building": "yes", "street": "Reserve Highway", "area": "Hay River (other areas)", "flood_pixels": 4 }, "geometry": { "type": "Polygon", "coordinates": [ [ [ -115.7550749, 60.8366631 ], [ -115.7548646, 60.836640200000012 ], [ -115.754881200000014, 60.8366041 ], [ -115.754828799999984, 60.8365984 ], [ -115.7548486, 60.8365552 ], [ -115.7550565, 60.8365779 ], [ -115.755033900000015, 60.836627300000025 ], [ -115.7550886, 60.8366332 ], [ -115.7550749, 60.8366631 ] ] ] } },
{ "type": "Feature", "properties": { "osm_id": 831551687, "building": "yes", "street": "Wolf Dr", "area": "Hay River (other areas)", "flood_pixels": 8 }, "geometry": { "type": "Polygon", "coordinates": [ [ [ -115.7581709, 60.837247 ], [ -115.7579911, 60.837214699999983 ], [ -115.758066899999989, 60.837114399999983 ], [ -115.7582466, 60.8371466 ], [ -115.7581709, 60.837247 ] ] ] } },
{ "type": "Feature", "properties": { "osm_id": 831551688, "building": "yes", "street": "Wolf Dr", "area": "Hay River (other areas)", "flood_pixels": 6 }, "geometry": { "type": "Polygon", "coordinates": [ [ [ -115.7590717, 60.8374289 ], [ -115.7588455, 60.8373703 ], [ -115.7589322, 60.8372908 ], [ -115.7591584, 60.8373495 ], [ -115.7590717, 60.8374289 ] ] ] } },
{ "type": "Feature", "properties": { "osm_id": 831551689, "building": "yes", "street": "Wolf Dr", "area": "Hay River (other areas)", "flood_pixels": 10 }, "geometry": { "type": "Polygon", "coordinates": [ [ [ -115.759607800000012, 60.837595899999982 ], [ -115.7597397, 60.8376077 ], [ -115.7597764, 60.8375112 ], [ -115.759644400000013, 60.8374994 ], [ -115.759607800000012, 60.837595899999982 ] ] ] } },
{ "type": "Feature", "properties": { "osm_id": 831551690, "building": "yes", "street": "Wolf Dr", "area": "Hay River (other areas)", "flood_pixels": 9 }, "geometry": { "type": "Polygon", "coordinates": [ [ [ -115.760507200000021, 60.837605599999989 ], [ -115.760513300000014, 60.8374709 ], [ -115.760655200000016, 60.8374724 ], [ -115.760649200000017, 60.837607200000022 ], [ -115.760507200000021, 60.837605599999989 ] ] ] } },
{ "type": "Feature", "properties": { "osm_id": 831551691, "building": "yes", "street": "Wolf Dr", "area": "Hay River (other areas)", "flood_pixels": 10 }, "geometry": { "type": "Polygon", "coordinates": [ [ [ -115.7610834, 60.8376887 ], [ -115.7611554, 60.8376905 ], [ -115.761157, 60.837675399999988 ], [ -115.7612308, 60.837677199999987 ], [ -115.7612339, 60.837647199999985 ], [ -115.7613589, 60.8376503 ], [ -115.761369500000015, 60.8375491 ], [ -115.7610987, 60.8375424 ], [ -115.7610834, 60.8376887 ] ] ] } },
{ "type": "Feature", "properties": { "osm_id": 831551717, "building": "yes", "street": "Fox Rd", "area": "Hay River (other areas)", "flood_pixels": 4 }, "geometry": { "type": "Polygon", "coordinates": [ [ [ -115.7678547, 60.8333948 ], [ -115.7677234, 60.8333149 ], [ -115.7679141, 60.833240399999987 ], [ -115.7680236, 60.833307 ], [ -115.76796920000001, 60.833328300000019 ], [ -115.7680085, 60.8333522 ], [ -115.767941900000011, 60.8333782 ], [ -115.7679244, 60.8333675 ], [ -115.7678547, 60.8333948 ] ] ] } },
{ "type": "Feature", "properties": { "osm_id": 831551738, "building": "yes", "street": "Reserve Highway", "area": "Old Town Hay River", "flood_pixels": 8 }, "geometry": { "type": "Polygon", "coordinates": [ [ [ -115.726693600000019, 60.859504099999988 ], [ -115.726542199999983, 60.8593607 ], [ -115.7267075, 60.859319299999989 ], [ -115.7268591, 60.8594627 ], [ -115.726693600000019, 60.859504099999988 ] ] ] } },
{ "type": "Feature", "properties": { "osm_id": 831551742, "building": "yes", "street": "Hay River Highway", "area": "Hay River (other areas)", "flood_pixels": 9 }, "geometry": { "type": "Polygon", "coordinates": [ [ [ -115.7775005, 60.8306436 ], [ -115.7773505, 60.830656399999988 ], [ -115.777307, 60.8305359 ], [ -115.7775176, 60.8305178 ], [ -115.7775433, 60.8305891 ], [ -115.7774827, 60.8305943 ], [ -115.7775005, 60.8306436 ] ] ] } },
{ "type": "Feature", "properties": { "osm_id": 831551743, "building": "yes", "street": "Hay River Highway", "area": "Hay River (other areas)", "flood_pixels": 8 }, "geometry": { "type": "Polygon", "coordinates": [ [ [ -115.7771225, 60.830189299999986 ], [ -115.777009, 60.830000499999983 ], [ -115.777187700000013, 60.829975 ], [ -115.777301200000011, 60.8301638 ], [ -115.7771225, 60.830189299999986 ] ] ] } },
{ "type": "Feature", "properties": { "osm_id": 831551744, "building": "yes", "street": "Hay River Highway", "area": "Hay River (other areas)", "flood_pixels": 15 }, "geometry": { "type": "Polygon", "coordinates": [ [ [ -115.7771798, 60.8298646 ], [ -115.77714730000001, 60.8298018 ], [ -115.777100100000013, 60.8298077 ], [ -115.777036899999985, 60.829686 ], [ -115.7772344, 60.8296617 ], [ -115.7773302, 60.829846 ], [ -115.7771798, 60.8298646 ] ] ] } },
{ "type": "Feature", "properties": { "osm_id": 831551745, "building": "yes", "street": "Hay River Highway", "area": "Hay River (other areas)", "flood_pixels": 16 }, "geometry": { "type": "Polygon", "coordinates": [ [ [ -115.7766602, 60.8295456 ], [ -115.776609500000021, 60.829432699999984 ], [ -115.776822699999983, 60.82941 ], [ -115.776861, 60.8294953 ], [ -115.776823899999982, 60.8294993 ], [ -115.7768362, 60.829526799999989 ], [ -115.7766602, 60.8295456 ] ] ] } },
{ "type": "Feature", "properties": { "osm_id": 831551746, "building": "yes", "street": "Hay River Highway", "area": "Hay River (other areas)", "flood_pixels": 12 }, "geometry": { "type": "Polygon", "coordinates": [ [ [ -115.7765188, 60.829192499999984 ], [ -115.7764441, 60.8290235 ], [ -115.7766007, 60.8290071 ], [ -115.7766753, 60.829176 ], [ -115.7765188, 60.829192499999984 ] ] ] } },
{ "type": "Feature", "properties": { "osm_id": 831551747, "building": "yes", "street": "Hay River Highway", "area": "Hay River (other areas)", "flood_pixels": 14 }, "geometry": { "type": "Polygon", "coordinates": [ [ [ -115.7770268, 60.829108 ], [ -115.7770199, 60.829023699999986 ], [ -115.7772268, 60.8290197 ], [ -115.777233700000011, 60.829104 ], [ -115.7770268, 60.829108 ] ] ] } },
{ "type": "Feature", "properties": { "osm_id": 831551748, "building": "yes", "street": "Hay River Highway", "area": "Hay River (other areas)", "flood_pixels": 14 }, "geometry": { "type": "Polygon", "coordinates": [ [ [ -115.7771285, 60.828538099999989 ], [ -115.7767747, 60.8285514 ], [ -115.7767555, 60.8284645 ], [ -115.777114800000021, 60.8284498 ], [ -115.7771285, 60.828538099999989 ] ] ] } },
{ "type": "Feature", "properties": { "osm_id": 831551749, "building": "yes", "street": "Hay River Highway", "area": "Hay River (other areas)", "flood_pixels": 6 }, "geometry": { "type": "Polygon", "coordinates": [ [ [ -115.776431, 60.8287693 ], [ -115.7761841, 60.8287777 ], [ -115.776178499999986, 60.828738900000012 ], [ -115.7762469, 60.8287366 ], [ -115.7762377, 60.8286721 ], [ -115.7765168, 60.8286626 ], [ -115.7765261, 60.8287273 ], [ -115.7764255, 60.8287307 ], [ -115.776431, 60.8287693 ] ] ] } },
{ "type": "Feature", "properties": { "osm_id": 831551750, "building": "yes", "street": "Hay River Highway", "area": "Hay River (other areas)", "flood_pixels": 15 }, "geometry": { "type": "Polygon", "coordinates": [ [ [ -115.776452400000011, 60.828557599999989 ], [ -115.776191, 60.8285605 ], [ -115.7761889, 60.8285175 ], [ -115.776121800000013, 60.8285182 ], [ -115.776118400000016, 60.8284479 ], [ -115.776447, 60.828444199999986 ], [ -115.776452400000011, 60.828557599999989 ] ] ] } },
{ "type": "Feature", "properties": { "osm_id": 876189564, "building": "yes", "street": "unnamed road", "area": "New Town Hay River", "flood_pixels": 17 }, "geometry": { "type": "Polygon", "coordinates": [ [ [ -115.7753265, 60.826830799999989 ], [ -115.775381600000017, 60.8267615 ], [ -115.774976599999988, 60.826685 ], [ -115.7749215, 60.8267543 ], [ -115.7753265, 60.826830799999989 ] ] ] } },
{ "type": "Feature", "properties": { "osm_id": 876214456, "building": "yes", "street": "Hay River Highway", "area": "New Town Hay River", "flood_pixels": 10 }, "geometry": { "type": "Polygon", "coordinates": [ [ [ -115.788275199999987, 60.8121213 ], [ -115.788222099999984, 60.812190100000016 ], [ -115.7880319, 60.8121552 ], [ -115.788085, 60.8120864 ], [ -115.788275199999987, 60.8121213 ] ] ] } },
{ "type": "Feature", "properties": { "osm_id": 876214464, "building": "yes", "street": "Dean Drive", "area": "New Town Hay River", "flood_pixels": 15 }, "geometry": { "type": "Polygon", "coordinates": [ [ [ -115.7971557, 60.8169779 ], [ -115.797092500000019, 60.8170473 ], [ -115.796796400000019, 60.8169833 ], [ -115.796859500000011, 60.81691390000001 ], [ -115.7971557, 60.8169779 ] ] ] } },
{ "type": "Feature", "properties": { "osm_id": 876365694, "building": "yes", "street": "Hay River Highway", "area": "Hay River (other areas)", "flood_pixels": 11 }, "geometry": { "type": "Polygon", "coordinates": [ [ [ -115.7715287, 60.838691 ], [ -115.771287700000016, 60.838748099999989 ], [ -115.771232, 60.8386924 ], [ -115.771473, 60.8386352 ], [ -115.7715287, 60.838691 ] ] ] } },
{ "type": "Feature", "properties": { "osm_id": 876365695, "building": "yes", "street": "Hay River Highway", "area": "Hay River (other areas)", "flood_pixels": 4 }, "geometry": { "type": "Polygon", "coordinates": [ [ [ -115.7718434, 60.8386018 ], [ -115.771668, 60.8386419 ], [ -115.7715987, 60.8385698 ], [ -115.771774100000016, 60.8385298 ], [ -115.7718434, 60.8386018 ] ] ] } },
{ "type": "Feature", "properties": { "osm_id": 876365696, "building": "yes", "street": "Hay River Highway", "area": "Hay River (other areas)", "flood_pixels": 21 }, "geometry": { "type": "Polygon", "coordinates": [ [ [ -115.772190899999984, 60.8385142 ], [ -115.772111399999986, 60.8384302 ], [ -115.7717956, 60.8385013 ], [ -115.7718751, 60.8385852 ], [ -115.772190899999984, 60.8385142 ] ] ] } },
{ "type": "Feature", "properties": { "osm_id": 876365700, "building": "yes", "street": "unnamed road", "area": "Hay River (other areas)", "flood_pixels": 11 }, "geometry": { "type": "Polygon", "coordinates": [ [ [ -115.756746799999988, 60.8410946 ], [ -115.7566983, 60.8412514 ], [ -115.75676390000001, 60.8412562 ], [ -115.756756, 60.8412817 ], [ -115.756897400000014, 60.8412921 ], [ -115.756905700000019, 60.841265 ], [ -115.757027600000015, 60.8412739 ], [ -115.7570755, 60.8411187 ], [ -115.756746799999988, 60.8410946 ] ] ] } },
{ "type": "Feature", "properties": { "osm_id": 876365701, "building": "yes", "street": "unnamed road", "area": "Hay River (other areas)", "flood_pixels": 6 }, "geometry": { "type": "Polygon", "coordinates": [ [ [ -115.75671490000002, 60.841024 ], [ -115.7566782, 60.841128 ], [ -115.756447600000016, 60.8411087 ], [ -115.7564844, 60.8410047 ], [ -115.75671490000002, 60.841024 ] ] ] } },
{ "type": "Feature", "properties": { "osm_id": 876365702, "building": "yes", "street": "unnamed road", "area": "Hay River (other areas)", "flood_pixels": 13 }, "geometry": { "type": "Polygon", "coordinates": [ [ [ -115.7565474, 60.840987 ], [ -115.7566044, 60.8408361 ], [ -115.756325800000013, 60.8408111 ], [ -115.756268800000015, 60.840962 ], [ -115.7565474, 60.840987 ] ] ] } },
{ "type": "Feature", "properties": { "osm_id": 876365706, "building": "yes", "street": "unnamed road", "area": "Vale Island", "flood_pixels": 14 }, "geometry": { "type": "Polygon", "coordinates": [ [ [ -115.7601553, 60.8431951 ], [ -115.7599332, 60.8433278 ], [ -115.7598207, 60.8432831 ], [ -115.7600428, 60.8431504 ], [ -115.7601553, 60.8431951 ] ] ] } },
{ "type": "Feature", "properties": { "osm_id": 876365712, "building": "yes", "street": "unnamed road", "area": "Vale Island", "flood_pixels": 3 }, "geometry": { "type": "Polygon", "coordinates": [ [ [ -115.7512493, 60.8447326 ], [ -115.751087, 60.8447612 ], [ -115.7509699, 60.844603099999986 ], [ -115.7511322, 60.8445745 ], [ -115.7512493, 60.8447326 ] ] ] } },
{ "type": "Feature", "properties": { "osm_id": 876365726, "building": "yes", "street": "unnamed road", "area": "Old Town Hay River", "flood_pixels": 16 }, "geometry": { "type": "Polygon", "coordinates": [ [ [ -115.740499899999989, 60.8602677 ], [ -115.740446799999987, 60.8601718 ], [ -115.740236100000018, 60.8601995 ], [ -115.740289200000021, 60.8602954 ], [ -115.740499899999989, 60.8602677 ] ] ] } },
{ "type": "Feature", "properties": { "osm_id": 876365750, "building": "yes", "street": "Loop A", "area": "Old Town Hay River", "flood_pixels": 3 }, "geometry": { "type": "Polygon", "coordinates": [ [ [ -115.7440506, 60.863379199999976 ], [ -115.7439559, 60.8634567 ], [ -115.743751, 60.8633973 ], [ -115.7438457, 60.8633198 ], [ -115.7440506, 60.863379199999976 ] ] ] } },
{ "type": "Feature", "properties": { "osm_id": 876365753, "building": "yes", "street": "Lakeshore Drive", "area": "Old Town Hay River", "flood_pixels": 16 }, "geometry": { "type": "Polygon", "coordinates": [ [ [ -115.7427542, 60.8646539 ], [ -115.7426725, 60.8647136 ], [ -115.7424571, 60.8646437 ], [ -115.74253880000002, 60.864584 ], [ -115.7427542, 60.8646539 ] ] ] } },
{ "type": "Feature", "properties": { "osm_id": 1359398187, "building": "yes", "street": "unnamed road", "area": "Hay River (other areas)", "flood_pixels": 6 }, "geometry": { "type": "Polygon", "coordinates": [ [ [ -115.7824685, 60.839491699999989 ], [ -115.7825481, 60.8395738 ], [ -115.7824248, 60.8396022 ], [ -115.7823451, 60.83952009999998 ], [ -115.7824685, 60.839491699999989 ] ] ] } },
{ "type": "Feature", "properties": { "osm_id": 1359398188, "building": "yes", "street": "unnamed road", "area": "Hay River (other areas)", "flood_pixels": 9 }, "geometry": { "type": "Polygon", "coordinates": [ [ [ -115.782798500000013, 60.839554 ], [ -115.7828676, 60.8396323 ], [ -115.782647, 60.8396786 ], [ -115.782577900000021, 60.8396003 ], [ -115.782798500000013, 60.839554 ] ] ] } }
]
}
