{
"type": "FeatureCollection",
"name": "20220512_142109_16M4_buildings",
"crs": { "type": "name", "properties": { "name": "urn:ogc:def:crs:OGC:1.3:CRS84" } },
"features": [
{ "type": "Feature", "properties": { "osm_id": 119938009, "building": "hospital", "street": "Gaetz Drive", "area": "New Town Hay River", "flood_pixels": 32 }, "geometry": { "type": "Polygon", "coordinates": [ [ [ -115.779281600000019, 60.8158213 ], [ -115.7792507, 60.8159847 ], [ -115.7790028, 60.8159712 ], [ -115.7789201, 60.8163162 ], [ -115.7790139, 60.8163228 ], [ -115.7789227, 60.81660260000001 ], [ -115.77885569999998, 60.81660260000001 ], [ -115.7788335, 60.8166969 ], [ -115.778917400000012, 60.8167099 ], [ -115.7789227, 60.8167452 ], [ -115.7790944, 60.816751699999983 ], [ -115.7790944, 60.8167818 ], [ -115.779310199999983, 60.8167888 ], [ -115.779333, 60.816509699999983 ], [ -115.7794433, 60.816517300000022 ], [ -115.7794565, 60.816460700000015 ], [ -115.7796523, 60.816462 ], [ -115.7796469, 60.8164084 ], [ -115.7794702, 60.8164044 ], [ -115.77948330000001, 60.81630710000001 ], [ -115.7795716, 60.8163094 ], [ -115.7795819, 60.8162622 ], [ -115.7800924, 60.8162949 ], [ -115.7801315, 60.816112 ], [ -115.7799927, 60.816104099999983 ], [ -115.7795525, 60.8160789 ], [ -115.779565100000013, 60.8160121 ], [ -115.779602699999984, 60.816014699999982 ], [ -115.779647600000018, 60.8158352 ], [ -115.779453299999986, 60.8158278 ], [ -115.779281600000019, 60.8158213 ] ] ] } },
{ "type": "Feature", "properties": { "osm_id": 119938669, "building": "yes", "street": "unnamed road", "area": "Vale Island", "flood_pixels": 13 }, "geometry": { "type": "Polygon", "coordinates": [ [ [ -115.7521902, 60.8445857 ], [ -115.75225420000001, 60.844648099999986 ], [ -115.7524108, 60.8446134 ], [ -115.75225420000001, 60.8444088 ], [ -115.751393, 60.8445683 ], [ -115.75150690000001, 60.844720899999984 ], [ -115.7521902, 60.8445857 ] ] ] } },
{ "type": "Feature", "properties": { "osm_id": 119938858, "building": "yes", "street": "Riverview Drive", "area": "New Town Hay River", "flood_pixels": 8 }, "geometry": { "type": "Polygon", "coordinates": [ [ [ -115.7851612, 60.812109 ], [ -115.7849463, 60.8122428 ], [ -115.7847525, 60.812177499999983 ], [ -115.7840216, 60.812609 ], [ -115.784579, 60.8128376 ], [ -115.7855391, 60.8122606 ], [ -115.7851612, 60.812109 ] ] ] } },
{ "type": "Feature", "properties": { "osm_id": 228144025, "building": "yes", "street": "Airport Rd", "area": "Hay River (other areas)", "flood_pixels": 12 }, "geometry": { "type": "Polygon", "coordinates": [ [ [ -115.781504500000011, 60.83861180000001 ], [ -115.7812513, 60.838670199999989 ], [ -115.7811647, 60.8386902 ], [ -115.781441, 60.8389737 ], [ -115.7816838, 60.8389176 ], [ -115.781574400000011, 60.8388051 ], [ -115.7816707, 60.8387829 ], [ -115.781504500000011, 60.83861180000001 ] ] ] } },
{ "type": "Feature", "properties": { "osm_id": 228144031, "building": "yes", "street": "unnamed road", "area": "Hay River (other areas)", "flood_pixels": 8 }, "geometry": { "type": "Polygon", "coordinates": [ [ [ -115.778792599999989, 60.8393097 ], [ -115.7783732, 60.8394161 ], [ -115.7782324, 60.8392845 ], [ -115.7782867, 60.8392707 ], [ -115.7781681, 60.839159799999983 ], [ -115.7782361, 60.8391425 ], [ -115.7783568, 60.8392554 ], [ -115.7786539, 60.83918 ], [ -115.778792599999989, 60.8393097 ] ] ] } },
{ "type": "Feature", "properties": { "osm_id": 228144032, "building": "yes", "street": "unnamed road", "area": "Hay River (other areas)", "flood_pixels": 24 }, "geometry": { "type": "Polygon", "coordinates": [ [ [ -115.7779552, 60.838440499999983 ], [ -115.7775881, 60.8385211 ], [ -115.7777895, 60.83873890000001 ], [ -115.77787210000001, 60.8387208 ], [ -115.7780094, 60.8388693 ], [ -115.778217199999986, 60.8388236 ], [ -115.7780883, 60.8386843 ], [ -115.778165, 60.8386675 ], [ -115.7779552, 60.838440499999983 ] ] ] } },
{ "type": "Feature", "properties": { "osm_id": 298986966, "building": "yes", "street": "unnamed road", "area": "Vale Island", "flood_pixels": 21 }, "geometry": { "type": "Polygon", "coordinates": [ [ [ -115.7532665, 60.8445704 ], [ -115.7531313, 60.8444248 ], [ -115.7537932, 60.8442583 ], [ -115.7539284, 60.8444109 ], [ -115.7532665, 60.8445704 ] ] ] } },
{ "type": "Feature", "properties": { "osm_id": 298986967, "building": "yes", "street": "Hay River Highway", "area": "Vale Island", "flood_pixels": 7 }, "geometry": { "type": "Polygon", "coordinates": [ [ [ -115.7552545, 60.8444873 ], [ -115.7549342, 60.8444214 ], [ -115.7551762, 60.844126699999983 ], [ -115.755517800000021, 60.8441926 ], [ -115.7552545, 60.8444873 ] ] ] } },
{ "type": "Feature", "properties": { "osm_id": 532421464, "building": "yes", "street": "Service Road", "area": "New Town Hay River", "flood_pixels": 9 }, "geometry": { "type": "Polygon", "coordinates": [ [ [ -115.7845151, 60.8168354 ], [ -115.7839519, 60.816730799999988 ], [ -115.7840754, 60.8165727 ], [ -115.7846387, 60.8166773 ], [ -115.7845151, 60.8168354 ] ] ] } },
{ "type": "Feature", "properties": { "osm_id": 561805766, "building": "yes", "street": "Woodland Drive", "area": "New Town Hay River", "flood_pixels": 3 }, "geometry": { "type": "Polygon", "coordinates": [ [ [ -115.7900137, 60.809842900000014 ], [ -115.789466299999987, 60.8097395 ], [ -115.7896543, 60.809502799999969 ], [ -115.790201600000017, 60.8096061 ], [ -115.7900137, 60.809842900000014 ] ] ] } },
{ "type": "Feature", "properties": { "osm_id": 561805767, "building": "yes", "street": "Woodland Drive", "area": "New Town Hay River", "flood_pixels": 3 }, "geometry": { "type": "Polygon", "coordinates": [ [ [ -115.789734, 60.809343199999986 ], [ -115.789379, 60.8092761 ], [ -115.789573, 60.8090318 ], [ -115.789928, 60.8090989 ], [ -115.789734, 60.809343199999986 ] ] ] } },
{ "type": "Feature", "properties": { "osm_id": 561805768, "building": "yes", "street": "Woodland Drive", "area": "New Town Hay River", "flood_pixels": 10 }, "geometry": { "type": "Polygon", "coordinates": [ [ [ -115.789820600000013, 60.8093667 ], [ -115.790011199999981, 60.809126600000013 ], [ -115.790437499999982, 60.8092071 ], [ -115.7902468, 60.8094472 ], [ -115.789820600000013, 60.8093667 ] ] ] } },
{ "type": "Feature", "properties": { "osm_id": 561805769, "building": "yes", "street": "Woodland Drive", "area": "New Town Hay River", "flood_pixels": 9 }, "geometry": { "type": "Polygon", "coordinates": [ [ [ -115.79092, 60.8090305 ], [ -115.790256500000012, 60.8089051 ], [ -115.790474900000021, 60.8086301 ], [ -115.79113839999998, 60.8087555 ], [ -115.79092, 60.8090305 ] ] ] } },
{ "type": "Feature", "properties": { "osm_id": 561805770, "building": "yes", "street": "Woodland Drive", "area": "New Town Hay River", "flood_pixels": 20 }, "geometry": { "type": "Polygon", "coordinates": [ [ [ -115.790311, 60.8084327 ], [ -115.790799, 60.8078178 ], [ -115.7918123, 60.808009099999985 ], [ -115.7912539, 60.808712699999987 ], [ -115.7905443, 60.8085787 ], [ -115.79061470000002, 60.8084901 ], [ -115.790311, 60.8084327 ] ] ] } },
{ "type": "Feature", "properties": { "osm_id": 744110031, "building": "yes", "street": "Miron Drive", "area": "Hay River (other areas)", "flood_pixels": 4 }, "geometry": { "type": "Polygon", "coordinates": [ [ [ -115.827886799999987, 60.7820361 ], [ -115.827646700000017, 60.7819565 ], [ -115.8278542, 60.7818075 ], [ -115.8277924, 60.781787 ], [ -115.827859800000013, 60.7817386 ], [ -115.827799, 60.7817184 ], [ -115.8278982, 60.7816472 ], [ -115.8282854, 60.7817757 ], [ -115.8281678, 60.7818602 ], [ -115.8281431, 60.781852 ], [ -115.827886799999987, 60.7820361 ] ] ] } },
{ "type": "Feature", "properties": { "osm_id": 817120301, "building": "yes", "street": "Service Road", "area": "New Town Hay River", "flood_pixels": 5 }, "geometry": { "type": "Polygon", "coordinates": [ [ [ -115.7864611, 60.8147671 ], [ -115.7857752, 60.8146366 ], [ -115.785892300000015, 60.8145088 ], [ -115.7865726, 60.81465020000001 ], [ -115.7864611, 60.8147671 ] ] ] } },
{ "type": "Feature", "properties": { "osm_id": 817120364, "building": "yes", "street": "Hay River Highway", "area": "New Town Hay River", "flood_pixels": 3 }, "geometry": { "type": "Polygon", "coordinates": [ [ [ -115.788383200000013, 60.8120391 ], [ -115.7880462, 60.8119482 ], [ -115.7881184, 60.811876299999987 ], [ -115.788356100000016, 60.8119335 ], [ -115.788398199999989, 60.8118895 ], [ -115.78853359999998, 60.8119247 ], [ -115.788383200000013, 60.8120391 ] ] ] } },
{ "type": "Feature", "properties": { "osm_id": 817120382, "building": "yes", "street": "Riverview Drive", "area": "New Town Hay River", "flood_pixels": 3 }, "geometry": { "type": "Polygon", "coordinates": [ [ [ -115.7804459, 60.8122801 ], [ -115.7803538, 60.8121741 ], [ -115.78020309999998, 60.8122131 ], [ -115.7803125, 60.8123204 ], [ -115.7804459, 60.8122801 ] ] ] } },
{ "type": "Feature", "properties": { "osm_id": 817120385, "building": "yes", "street": "Caribou Crescent", "area": "New Town Hay River", "flood_pixels": 6 }, "geometry": { "type": "Polygon", "coordinates": [ [ [ -115.7795752, 60.812632399999984 ], [ -115.7793961, 60.8125139 ], [ -115.7792538, 60.8125651 ], [ -115.7794328, 60.8126836 ], [ -115.7795752, 60.812632399999984 ] ] ] } },
{ "type": "Feature", "properties": { "osm_id": 817120386, "building": "yes", "street": "Riverview Drive", "area": "New Town Hay River", "flood_pixels": 9 }, "geometry": { "type": "Polygon", "coordinates": [ [ [ -115.7796684, 60.8125467 ], [ -115.7795377, 60.812468 ], [ -115.779667, 60.81242060000001 ], [ -115.779799, 60.8124966 ], [ -115.7796684, 60.8125467 ] ] ] } },
{ "type": "Feature", "properties": { "osm_id": 817120392, "building": "yes", "street": "Commercial Road", "area": "New Town Hay River", "flood_pixels": 13 }, "geometry": { "type": "Polygon", "coordinates": [ [ [ -115.7891493, 60.8111049 ], [ -115.789061, 60.8110882 ], [ -115.789093500000021, 60.8110475 ], [ -115.788843600000021, 60.811 ], [ -115.788878200000013, 60.810956699999984 ], [ -115.7892244, 60.81102239999997 ], [ -115.789159900000016, 60.8111032 ], [ -115.7891493, 60.8111049 ] ] ] } },
{ "type": "Feature", "properties": { "osm_id": 817120399, "building": "yes", "street": "Industrial Drive", "area": "New Town Hay River", "flood_pixels": 5 }, "geometry": { "type": "Polygon", "coordinates": [ [ [ -115.793061100000017, 60.8095419 ], [ -115.792645399999984, 60.8094443 ], [ -115.7927752, 60.8092877 ], [ -115.793197400000011, 60.8093842 ], [ -115.793061100000017, 60.8095419 ] ] ] } },
{ "type": "Feature", "properties": { "osm_id": 817120410, "building": "yes", "street": "Industrial Drive", "area": "New Town Hay River", "flood_pixels": 8 }, "geometry": { "type": "Polygon", "coordinates": [ [ [ -115.7943805, 60.8091836 ], [ -115.794125399999984, 60.8091375 ], [ -115.7941936, 60.8090549 ], [ -115.794450899999987, 60.8091021 ], [ -115.7943805, 60.8091836 ] ] ] } },
{ "type": "Feature", "properties": { "osm_id": 817120413, "building": "yes", "street": "Industrial Drive", "area": "New Town Hay River", "flood_pixels": 10 }, "geometry": { "type": "Polygon", "coordinates": [ [ [ -115.79349209999998, 60.8087149 ], [ -115.793624, 60.8085487 ], [ -115.7931754, 60.8084661 ], [ -115.793030299999984, 60.808621599999974 ], [ -115.79349209999998, 60.8087149 ] ] ] } },
{ "type": "Feature", "properties": { "osm_id": 817120414, "building": "yes", "street": "Industrial Drive", "area": "New Town Hay River", "flood_pixels": 3 }, "geometry": { "type": "Polygon", "coordinates": [ [ [ -115.79354069999998, 60.8090178 ], [ -115.7932987, 60.8089663 ], [ -115.7933577, 60.8089003 ], [ -115.793599700000016, 60.8089518 ], [ -115.79354069999998, 60.8090178 ] ] ] } },
{ "type": "Feature", "properties": { "osm_id": 817120415, "building": "yes", "street": "Industrial Drive", "area": "New Town Hay River", "flood_pixels": 11 }, "geometry": { "type": "Polygon", "coordinates": [ [ [ -115.793289800000011, 60.8089509 ], [ -115.7930721, 60.8089059 ], [ -115.7931292, 60.808849 ], [ -115.7933535, 60.808887599999984 ], [ -115.793289800000011, 60.8089509 ] ] ] } },
{ "type": "Feature", "properties": { "osm_id": 817120420, "building": "yes", "street": "Studney Drive", "area": "New Town Hay River", "flood_pixels": 12 }, "geometry": { "type": "Polygon", "coordinates": [ [ [ -115.79938270000001, 60.808429900000014 ], [ -115.7988766, 60.808288899999987 ], [ -115.798948899999985, 60.8082166 ], [ -115.7989995, 60.8082324 ], [ -115.7990031, 60.8082095 ], [ -115.799173, 60.8082448 ], [ -115.799162199999984, 60.808265899999988 ], [ -115.7994514, 60.8083523 ], [ -115.79938270000001, 60.808429900000014 ] ] ] } },
{ "type": "Feature", "properties": { "osm_id": 817120421, "building": "yes", "street": "Studney Drive", "area": "New Town Hay River", "flood_pixels": 14 }, "geometry": { "type": "Polygon", "coordinates": [ [ [ -115.799516400000016, 60.8084705 ], [ -115.79985259999998, 60.8085392 ], [ -115.79992129999998, 60.8084475 ], [ -115.799570700000018, 60.8083841 ], [ -115.799516400000016, 60.8084705 ] ] ] } },
{ "type": "Feature", "properties": { "osm_id": 817406634, "building": "yes", "street": "Studney Drive", "area": "New Town Hay River", "flood_pixels": 11 }, "geometry": { "type": "Polygon", "coordinates": [ [ [ -115.791279399999979, 60.815073199999986 ], [ -115.790973800000017, 60.815010700000023 ], [ -115.7911971, 60.8147511 ], [ -115.7915026, 60.8148136 ], [ -115.791279399999979, 60.815073199999986 ] ] ] } },
{ "type": "Feature", "properties": { "osm_id": 817406636, "building": "yes", "street": "Studney Drive", "area": "New Town Hay River", "flood_pixels": 7 }, "geometry": { "type": "Polygon", "coordinates": [ [ [ -115.7914161, 60.8153893 ], [ -115.7912837, 60.8153624 ], [ -115.7917082, 60.8148671 ], [ -115.791840399999984, 60.814894 ], [ -115.7914161, 60.8153893 ] ] ] } },
{ "type": "Feature", "properties": { "osm_id": 817406637, "building": "yes", "street": "Studney Drive", "area": "New Town Hay River", "flood_pixels": 12 }, "geometry": { "type": "Polygon", "coordinates": [ [ [ -115.7923574, 60.8149251 ], [ -115.792034, 60.8148684 ], [ -115.7921171, 60.8147556 ], [ -115.79244060000002, 60.8148123 ], [ -115.7923574, 60.8149251 ] ] ] } },
{ "type": "Feature", "properties": { "osm_id": 817406639, "building": "yes", "street": "Studney Drive", "area": "New Town Hay River", "flood_pixels": 3 }, "geometry": { "type": "Polygon", "coordinates": [ [ [ -115.792978099999985, 60.8154125 ], [ -115.79281450000002, 60.8153775 ], [ -115.7930511, 60.8151143 ], [ -115.7932569, 60.8151583 ], [ -115.793158300000016, 60.815268 ], [ -115.7931161, 60.815259 ], [ -115.792978099999985, 60.8154125 ] ] ] } },
{ "type": "Feature", "properties": { "osm_id": 817406640, "building": "yes", "street": "Studney Drive", "area": "New Town Hay River", "flood_pixels": 3 }, "geometry": { "type": "Polygon", "coordinates": [ [ [ -115.7926362, 60.8142984 ], [ -115.7928887, 60.8140037 ], [ -115.793104900000017, 60.814047800000012 ], [ -115.7928523, 60.8143424 ], [ -115.7926362, 60.8142984 ] ] ] } },
{ "type": "Feature", "properties": { "osm_id": 817406641, "building": "yes", "street": "Poplar Road", "area": "New Town Hay River", "flood_pixels": 7 }, "geometry": { "type": "Polygon", "coordinates": [ [ [ -115.7943433, 60.8139128 ], [ -115.7944976, 60.8137481 ], [ -115.7948152, 60.813818899999987 ], [ -115.794660900000011, 60.8139836 ], [ -115.7943433, 60.8139128 ] ] ] } },
{ "type": "Feature", "properties": { "osm_id": 817406674, "building": "yes", "street": "Spruce Road", "area": "New Town Hay River", "flood_pixels": 9 }, "geometry": { "type": "Polygon", "coordinates": [ [ [ -115.802013200000019, 60.8070162 ], [ -115.8021893, 60.807043599999986 ], [ -115.802273, 60.806915599999982 ], [ -115.8020969, 60.8068882 ], [ -115.802013200000019, 60.8070162 ] ] ] } },
{ "type": "Feature", "properties": { "osm_id": 817406679, "building": "yes", "street": "Studney Drive", "area": "New Town Hay River", "flood_pixels": 6 }, "geometry": { "type": "Polygon", "coordinates": [ [ [ -115.8010836, 60.806322499999986 ], [ -115.8013365, 60.8063716 ], [ -115.8013978, 60.8062966 ], [ -115.8011449, 60.8062475 ], [ -115.8010836, 60.806322499999986 ] ] ] } },
{ "type": "Feature", "properties": { "osm_id": 817406686, "building": "yes", "street": "Studney Drive", "area": "New Town Hay River", "flood_pixels": 5 }, "geometry": { "type": "Polygon", "coordinates": [ [ [ -115.8002662, 60.8050063 ], [ -115.8006892, 60.805095799999982 ], [ -115.800780499999988, 60.804993 ], [ -115.8003575, 60.80490360000001 ], [ -115.8002662, 60.8050063 ] ] ] } },
{ "type": "Feature", "properties": { "osm_id": 817406688, "building": "yes", "street": "Studney Drive", "area": "New Town Hay River", "flood_pixels": 6 }, "geometry": { "type": "Polygon", "coordinates": [ [ [ -115.7996317, 60.80789260000001 ], [ -115.79992129999998, 60.8079584 ], [ -115.799976, 60.8079273 ], [ -115.7996659, 60.807856799999989 ], [ -115.7996317, 60.80789260000001 ] ] ] } },
{ "type": "Feature", "properties": { "osm_id": 817406689, "building": "yes", "street": "Studney Drive", "area": "New Town Hay River", "flood_pixels": 7 }, "geometry": { "type": "Polygon", "coordinates": [ [ [ -115.799472499999979, 60.8078042 ], [ -115.799456799999987, 60.8078022 ], [ -115.799440600000011, 60.8078027 ], [ -115.7994255, 60.807805699999982 ], [ -115.7994131, 60.8078108 ], [ -115.799404599999988, 60.8078175 ], [ -115.7994008, 60.807825199999989 ], [ -115.799402199999989, 60.807833099999989 ], [ -115.799408500000013, 60.807840400000011 ], [ -115.799419200000017, 60.8078464 ], [ -115.7994347, 60.807850699999989 ], [ -115.799452200000019, 60.8078521 ], [ -115.799469699999989, 60.8078506 ], [ -115.799485, 60.8078462 ], [ -115.79949640000001, 60.8078396 ], [ -115.7995025, 60.8078314 ], [ -115.7995025, 60.807822799999983 ], [ -115.79949640000001, 60.8078146 ], [ -115.7994862, 60.8078085 ], [ -115.799472499999979, 60.8078042 ] ] ] } },
{ "type": "Feature", "properties": { "osm_id": 817406690, "building": "yes", "street": "Studney Drive", "area": "New Town Hay River", "flood_pixels": 6 }, "geometry": { "type": "Polygon", "coordinates": [ [ [ -115.8023559, 60.8057236 ], [ -115.802537, 60.8054985 ], [ -115.8019852, 60.805392899999987 ], [ -115.801848299999989, 60.805563 ], [ -115.8022661, 60.805643 ], [ -115.8022219, 60.805698 ], [ -115.8023559, 60.8057236 ] ] ] } },
{ "type": "Feature", "properties": { "osm_id": 817406691, "building": "yes", "street": "Studney Drive", "area": "Hay River (other areas)", "flood_pixels": 17 }, "geometry": { "type": "Polygon", "coordinates": [ [ [ -115.8020215, 60.805096 ], [ -115.802212299999979, 60.8048886 ], [ -115.8019195, 60.8048245 ], [ -115.8017286, 60.8050319 ], [ -115.8020215, 60.805096 ] ] ] } },
{ "type": "Feature", "properties": { "osm_id": 817406701, "building": "yes", "street": "Willow Road", "area": "Hay River (other areas)", "flood_pixels": 7 }, "geometry": { "type": "Polygon", "coordinates": [ [ [ -115.802818299999984, 60.80386570000001 ], [ -115.8026498, 60.8038336 ], [ -115.8027085, 60.8037604 ], [ -115.802877, 60.8037926 ], [ -115.802818299999984, 60.80386570000001 ] ] ] } },
{ "type": "Feature", "properties": { "osm_id": 817406703, "building": "yes", "street": "Studney Drive", "area": "Hay River (other areas)", "flood_pixels": 8 }, "geometry": { "type": "Polygon", "coordinates": [ [ [ -115.8030051, 60.804236 ], [ -115.8030656, 60.8041638 ], [ -115.8029192, 60.8041346 ], [ -115.802858700000016, 60.804206899999983 ], [ -115.8030051, 60.804236 ] ] ] } },
{ "type": "Feature", "properties": { "osm_id": 817406704, "building": "yes", "street": "Studney Drive", "area": "Hay River (other areas)", "flood_pixels": 6 }, "geometry": { "type": "Polygon", "coordinates": [ [ [ -115.802439699999979, 60.8048415 ], [ -115.8022964, 60.804812199999986 ], [ -115.8023099, 60.8047965 ], [ -115.802012100000013, 60.8047357 ], [ -115.8020993, 60.804634 ], [ -115.8024009, 60.8046956 ], [ -115.8024425, 60.8046472 ], [ -115.802582, 60.8046757 ], [ -115.802439699999979, 60.8048415 ] ] ] } },
{ "type": "Feature", "properties": { "osm_id": 817406705, "building": "yes", "street": "Studney Drive", "area": "Hay River (other areas)", "flood_pixels": 13 }, "geometry": { "type": "Polygon", "coordinates": [ [ [ -115.8023584, 60.8046715 ], [ -115.8021135, 60.804621699999984 ], [ -115.8021574, 60.8045704 ], [ -115.8024022, 60.804620299999989 ], [ -115.8023584, 60.8046715 ] ] ] } },
{ "type": "Feature", "properties": { "osm_id": 817406706, "building": "yes", "street": "Dean Drive", "area": "Hay River (other areas)", "flood_pixels": 12 }, "geometry": { "type": "Polygon", "coordinates": [ [ [ -115.803773800000016, 60.8049074 ], [ -115.8042132, 60.804996 ], [ -115.8043262, 60.8048774 ], [ -115.8038793, 60.804791199999983 ], [ -115.803773800000016, 60.8049074 ] ] ] } },
{ "type": "Feature", "properties": { "osm_id": 817406707, "building": "yes", "street": "Studney Drive", "area": "Hay River (other areas)", "flood_pixels": 15 }, "geometry": { "type": "Polygon", "coordinates": [ [ [ -115.8030026, 60.8049628 ], [ -115.802552, 60.8048675 ], [ -115.8026069, 60.8048058 ], [ -115.803057399999986, 60.8049013 ], [ -115.8030026, 60.8049628 ] ] ] } },
{ "type": "Feature", "properties": { "osm_id": 817406708, "building": "yes", "street": "Willow Road", "area": "Hay River (other areas)", "flood_pixels": 22 }, "geometry": { "type": "Polygon", "coordinates": [ [ [ -115.8045042, 60.8044988 ], [ -115.8042468, 60.8044519 ], [ -115.8042222, 60.8044839 ], [ -115.8039477, 60.8044339 ], [ -115.804053199999984, 60.80429620000001 ], [ -115.80447580000002, 60.8043733 ], [ -115.804499, 60.804343099999976 ], [ -115.8046083, 60.804363 ], [ -115.8045042, 60.8044988 ] ] ] } },
{ "type": "Feature", "properties": { "osm_id": 817406709, "building": "yes", "street": "Dean Drive", "area": "Hay River (other areas)", "flood_pixels": 18 }, "geometry": { "type": "Polygon", "coordinates": [ [ [ -115.8053416, 60.8047306 ], [ -115.8050024, 60.804662 ], [ -115.8050986, 60.804549 ], [ -115.8054378, 60.804617700000016 ], [ -115.8053416, 60.8047306 ] ] ] } },
{ "type": "Feature", "properties": { "osm_id": 817406710, "building": "yes", "street": "Willow Road", "area": "Hay River (other areas)", "flood_pixels": 11 }, "geometry": { "type": "Polygon", "coordinates": [ [ [ -115.805135, 60.8043691 ], [ -115.804936499999982, 60.804326 ], [ -115.8050175, 60.8042372 ], [ -115.805216, 60.8042803 ], [ -115.805135, 60.8043691 ] ] ] } },
{ "type": "Feature", "properties": { "osm_id": 817408933, "building": "house", "street": "Wright Crescent", "area": "Hay River (other areas)", "flood_pixels": 3 }, "geometry": { "type": "Polygon", "coordinates": [ [ [ -115.8048246, 60.799458299999984 ], [ -115.8046239, 60.799460199999984 ], [ -115.8046185, 60.799321299999988 ], [ -115.80485969999998, 60.799319 ], [ -115.804862900000018, 60.7993996 ], [ -115.8048226, 60.7994075 ], [ -115.8048246, 60.799458299999984 ] ] ] } },
{ "type": "Feature", "properties": { "osm_id": 817408937, "building": "house", "street": "Wright Crescent", "area": "Hay River (other areas)", "flood_pixels": 3 }, "geometry": { "type": "Polygon", "coordinates": [ [ [ -115.8055852, 60.799154 ], [ -115.805477600000017, 60.7990906 ], [ -115.8056264, 60.7990305 ], [ -115.805734, 60.799094 ], [ -115.8055852, 60.799154 ] ] ] } },
{ "type": "Feature", "properties": { "osm_id": 817417570, "building": "house", "street": "Stewart Drive", "area": "Hay River (other areas)", "flood_pixels": 6 }, "geometry": { "type": "Polygon", "coordinates": [ [ [ -115.804231900000019, 60.79773440000001 ], [ -115.8041143, 60.797641700000021 ], [ -115.8042431, 60.797602799999986 ], [ -115.8043606, 60.7976955 ], [ -115.804231900000019, 60.79773440000001 ] ] ] } },
{ "type": "Feature", "properties": { "osm_id": 817417599, "building": "house", "street": "Miron Drive", "area": "Hay River (other areas)", "flood_pixels": 3 }, "geometry": { "type": "Polygon", "coordinates": [ [ [ -115.812305699999982, 60.7950641 ], [ -115.812445499999981, 60.795037699999988 ], [ -115.8124084, 60.7949908 ], [ -115.8126667, 60.7949421 ], [ -115.812595799999983, 60.794852699999979 ], [ -115.8122413, 60.7949195 ], [ -115.8122872, 60.7949775 ], [ -115.8122435, 60.7949857 ], [ -115.812305699999982, 60.7950641 ] ] ] } },
{ "type": "Feature", "properties": { "osm_id": 817417607, "building": "house", "street": "Miron Drive", "area": "Hay River (other areas)", "flood_pixels": 3 }, "geometry": { "type": "Polygon", "coordinates": [ [ [ -115.809729300000015, 60.7957468 ], [ -115.8097331, 60.7956196 ], [ -115.809565800000016, 60.7956184 ], [ -115.809562, 60.795745599999989 ], [ -115.809729300000015, 60.7957468 ] ] ] } },
{ "type": "Feature", "properties": { "osm_id": 817417609, "building": "house", "street": "Miron Drive", "area": "Hay River (other areas)", "flood_pixels": 4 }, "geometry": { "type": "Polygon", "coordinates": [ [ [ -115.8095358, 60.7953271 ], [ -115.8095225, 60.7952629 ], [ -115.8095952, 60.7952593 ], [ -115.80957290000002, 60.7951516 ], [ -115.809319400000021, 60.7951642 ], [ -115.809355100000019, 60.795336 ], [ -115.8095358, 60.7953271 ] ] ] } },
{ "type": "Feature", "properties": { "osm_id": 817417610, "building": "house", "street": "Miron Drive", "area": "Hay River (other areas)", "flood_pixels": 8 }, "geometry": { "type": "Polygon", "coordinates": [ [ [ -115.8089306, 60.7953504 ], [ -115.8091212, 60.7953393 ], [ -115.8091104, 60.7952953 ], [ -115.8092107, 60.7952895 ], [ -115.809182099999987, 60.795173199999986 ], [ -115.808891099999983, 60.7951902 ], [ -115.8089306, 60.7953504 ] ] ] } },
{ "type": "Feature", "properties": { "osm_id": 817417611, "building": "house", "street": "Miron Drive", "area": "Hay River (other areas)", "flood_pixels": 5 }, "geometry": { "type": "Polygon", "coordinates": [ [ [ -115.8088872, 60.7953567 ], [ -115.808740799999981, 60.7953596 ], [ -115.8087388, 60.7953363 ], [ -115.8086043, 60.7953389 ], [ -115.8085929, 60.7952019 ], [ -115.8088089, 60.7951976 ], [ -115.808814500000011, 60.795265200000024 ], [ -115.8088795, 60.795264 ], [ -115.8088872, 60.7953567 ] ] ] } },
{ "type": "Feature", "properties": { "osm_id": 817417637, "building": "house", "street": "John Mapes Crescent", "area": "Hay River (other areas)", "flood_pixels": 7 }, "geometry": { "type": "Polygon", "coordinates": [ [ [ -115.812808700000019, 60.7958843 ], [ -115.8126022, 60.795863 ], [ -115.8126061, 60.7958539 ], [ -115.8124886, 60.795841799999984 ], [ -115.8125268, 60.7957535 ], [ -115.8126801, 60.7957692 ], [ -115.812688, 60.7957508 ], [ -115.812909600000012, 60.7957736 ], [ -115.812882200000018, 60.7958371 ], [ -115.8128314, 60.7958319 ], [ -115.812808700000019, 60.7958843 ] ] ] } },
{ "type": "Feature", "properties": { "osm_id": 817417638, "building": "house", "street": "Miron Drive", "area": "Hay River (other areas)", "flood_pixels": 20 }, "geometry": { "type": "Polygon", "coordinates": [ [ [ -115.8130806, 60.7956888 ], [ -115.813009100000016, 60.7955978 ], [ -115.812971, 60.7956049 ], [ -115.81290030000001, 60.795515 ], [ -115.8128596, 60.7955226 ], [ -115.8127795, 60.7954209 ], [ -115.81282640000002, 60.7954121 ], [ -115.812754400000017, 60.7953206 ], [ -115.8129337, 60.795287 ], [ -115.8130078, 60.7953812 ], [ -115.812985500000011, 60.795385399999986 ], [ -115.813054100000016, 60.79547250000001 ], [ -115.813081299999979, 60.7954674 ], [ -115.8131572, 60.7955639 ], [ -115.8131875, 60.7955583 ], [ -115.8132632, 60.7956546 ], [ -115.8130806, 60.7956888 ] ] ] } },
{ "type": "Feature", "properties": { "osm_id": 817417639, "building": "house", "street": "Miron Drive", "area": "Hay River (other areas)", "flood_pixels": 11 }, "geometry": { "type": "Polygon", "coordinates": [ [ [ -115.813502600000021, 60.795508 ], [ -115.8134277, 60.7954097 ], [ -115.8134528, 60.7954052 ], [ -115.813382, 60.7953122 ], [ -115.813359500000018, 60.7953162 ], [ -115.8132815, 60.795213699999984 ], [ -115.8134704, 60.7951795 ], [ -115.8135438, 60.795276 ], [ -115.813572300000018, 60.7952708 ], [ -115.8136466, 60.7953683 ], [ -115.813618599999984, 60.7953734 ], [ -115.813694700000013, 60.7954732 ], [ -115.813502600000021, 60.795508 ] ] ] } },
{ "type": "Feature", "properties": { "osm_id": 817417663, "building": "house", "street": "Miron Drive", "area": "Hay River (other areas)", "flood_pixels": 4 }, "geometry": { "type": "Polygon", "coordinates": [ [ [ -115.8043724, 60.7965265 ], [ -115.8046042, 60.7964374 ], [ -115.804634299999989, 60.7964561 ], [ -115.804736, 60.796417 ], [ -115.8046126, 60.796340599999979 ], [ -115.804279099999988, 60.7964687 ], [ -115.8043724, 60.7965265 ] ] ] } },
{ "type": "Feature", "properties": { "osm_id": 817417667, "building": "house", "street": "Covert Place", "area": "Hay River (other areas)", "flood_pixels": 4 }, "geometry": { "type": "Polygon", "coordinates": [ [ [ -115.8044162, 60.797161899999985 ], [ -115.804602700000018, 60.7971559 ], [ -115.8045864, 60.797036299999988 ], [ -115.804399900000021, 60.7970423 ], [ -115.8044162, 60.797161899999985 ] ] ] } },
{ "type": "Feature", "properties": { "osm_id": 817417669, "building": "house", "street": "Miron Drive", "area": "Hay River (other areas)", "flood_pixels": 3 }, "geometry": { "type": "Polygon", "coordinates": [ [ [ -115.8035332, 60.796871899999985 ], [ -115.803387699999988, 60.7967964 ], [ -115.803603700000011, 60.7966972 ], [ -115.8036749, 60.7967341 ], [ -115.8037682, 60.7966913 ], [ -115.803886600000013, 60.7967527 ], [ -115.8037644, 60.7968087 ], [ -115.803720499999983, 60.796786 ], [ -115.8035332, 60.796871899999985 ] ] ] } },
{ "type": "Feature", "properties": { "osm_id": 817417671, "building": "house", "street": "Miron Drive", "area": "Hay River (other areas)", "flood_pixels": 3 }, "geometry": { "type": "Polygon", "coordinates": [ [ [ -115.8032703, 60.797016299999981 ], [ -115.8030413, 60.79710229999997 ], [ -115.802949, 60.7970438 ], [ -115.8030129, 60.7970198 ], [ -115.802967700000011, 60.7969912 ], [ -115.8031329, 60.796929199999987 ], [ -115.8032703, 60.797016299999981 ] ] ] } },
{ "type": "Feature", "properties": { "osm_id": 817417673, "building": "house", "street": "Miron Drive", "area": "Hay River (other areas)", "flood_pixels": 14 }, "geometry": { "type": "Polygon", "coordinates": [ [ [ -115.803832, 60.797415299999983 ], [ -115.8037376, 60.79733310000001 ], [ -115.8038691, 60.7972972 ], [ -115.803963400000015, 60.797379399999983 ], [ -115.803832, 60.797415299999983 ] ] ] } },
{ "type": "Feature", "properties": { "osm_id": 817417674, "building": "house", "street": "Miron Drive", "area": "Hay River (other areas)", "flood_pixels": 8 }, "geometry": { "type": "Polygon", "coordinates": [ [ [ -115.8071054, 60.7955131 ], [ -115.80705930000002, 60.7953814 ], [ -115.8068862, 60.795395799999987 ], [ -115.8069322, 60.7955275 ], [ -115.8071054, 60.7955131 ] ] ] } },
{ "type": "Feature", "properties": { "osm_id": 817417675, "building": "house", "street": "Miron Drive", "area": "Hay River (other areas)", "flood_pixels": 4 }, "geometry": { "type": "Polygon", "coordinates": [ [ [ -115.806710400000014, 60.7955451 ], [ -115.8066728, 60.795457299999988 ], [ -115.8063256, 60.7954927 ], [ -115.8063632, 60.7955805 ], [ -115.806710400000014, 60.7955451 ] ] ] } },
{ "type": "Feature", "properties": { "osm_id": 817417684, "building": "house", "street": "Miron Drive", "area": "Hay River (other areas)", "flood_pixels": 7 }, "geometry": { "type": "Polygon", "coordinates": [ [ [ -115.803475, 60.7963799 ], [ -115.8033814, 60.796419 ], [ -115.803328600000015, 60.7963889 ], [ -115.803208899999987, 60.7964389 ], [ -115.8030531, 60.7963501 ], [ -115.8032663, 60.796261 ], [ -115.803475, 60.7963799 ] ] ] } },
{ "type": "Feature", "properties": { "osm_id": 817417685, "building": "house", "street": "Miron Drive", "area": "Hay River (other areas)", "flood_pixels": 10 }, "geometry": { "type": "Polygon", "coordinates": [ [ [ -115.802986200000021, 60.796606199999985 ], [ -115.8031183, 60.796554 ], [ -115.8030439, 60.7965091 ], [ -115.8031031, 60.7964858 ], [ -115.8029474, 60.79639190000001 ], [ -115.8027561, 60.7964674 ], [ -115.802986200000021, 60.796606199999985 ] ] ] } },
{ "type": "Feature", "properties": { "osm_id": 817417686, "building": "house", "street": "Miron Drive", "area": "Hay River (other areas)", "flood_pixels": 11 }, "geometry": { "type": "Polygon", "coordinates": [ [ [ -115.8026681, 60.7967517 ], [ -115.802909199999988, 60.7966498 ], [ -115.802795799999984, 60.796586 ], [ -115.8025547, 60.796687900000016 ], [ -115.8026681, 60.7967517 ] ] ] } },
{ "type": "Feature", "properties": { "osm_id": 817417687, "building": "house", "street": "Miron Drive", "area": "Hay River (other areas)", "flood_pixels": 15 }, "geometry": { "type": "Polygon", "coordinates": [ [ [ -115.802522, 60.796775299999986 ], [ -115.8023184, 60.7968679 ], [ -115.802212, 60.7968122 ], [ -115.802415699999983, 60.7967196 ], [ -115.802522, 60.796775299999986 ] ] ] } },
{ "type": "Feature", "properties": { "osm_id": 817417704, "building": "house", "street": "Morin Place", "area": "Hay River (other areas)", "flood_pixels": 5 }, "geometry": { "type": "Polygon", "coordinates": [ [ [ -115.8008443, 60.7987823 ], [ -115.8009795, 60.7987185 ], [ -115.8008271, 60.7986416 ], [ -115.800691900000018, 60.798705399999982 ], [ -115.8008443, 60.7987823 ] ] ] } },
{ "type": "Feature", "properties": { "osm_id": 817417705, "building": "house", "street": "Stewart Drive", "area": "Hay River (other areas)", "flood_pixels": 3 }, "geometry": { "type": "Polygon", "coordinates": [ [ [ -115.8005929, 60.7991054 ], [ -115.8007443, 60.7990257 ], [ -115.8006075, 60.7989638 ], [ -115.800456, 60.7990436 ], [ -115.8005929, 60.7991054 ] ] ] } },
{ "type": "Feature", "properties": { "osm_id": 817417706, "building": "house", "street": "Stewart Drive", "area": "Hay River (other areas)", "flood_pixels": 7 }, "geometry": { "type": "Polygon", "coordinates": [ [ [ -115.8004139, 60.7992017 ], [ -115.800258700000015, 60.7991305 ], [ -115.800419299999987, 60.799047200000018 ], [ -115.8005745, 60.799118400000012 ], [ -115.8004139, 60.7992017 ] ] ] } },
{ "type": "Feature", "properties": { "osm_id": 817417707, "building": "house", "street": "Stewart Drive", "area": "Hay River (other areas)", "flood_pixels": 3 }, "geometry": { "type": "Polygon", "coordinates": [ [ [ -115.8002286, 60.799358 ], [ -115.8003654, 60.7992703 ], [ -115.800218200000018, 60.7992156 ], [ -115.8000813, 60.7993033 ], [ -115.8002286, 60.799358 ] ] ] } },
{ "type": "Feature", "properties": { "osm_id": 817417708, "building": "house", "street": "Stewart Drive", "area": "Hay River (other areas)", "flood_pixels": 4 }, "geometry": { "type": "Polygon", "coordinates": [ [ [ -115.7999559, 60.7995132 ], [ -115.8000424, 60.799456 ], [ -115.7999786, 60.799433 ], [ -115.800048100000012, 60.799387 ], [ -115.79985520000001, 60.7993176 ], [ -115.799742, 60.7993925 ], [ -115.7998557, 60.799433399999984 ], [ -115.7998129, 60.7994617 ], [ -115.7999559, 60.7995132 ] ] ] } },
{ "type": "Feature", "properties": { "osm_id": 817417720, "building": "house", "street": "McBryan Drive", "area": "Hay River (other areas)", "flood_pixels": 14 }, "geometry": { "type": "Polygon", "coordinates": [ [ [ -115.7969228, 60.8007229 ], [ -115.7967853, 60.800586 ], [ -115.7966055, 60.8006289 ], [ -115.7966738, 60.800697 ], [ -115.7966137, 60.800711299999989 ], [ -115.7966829, 60.8007802 ], [ -115.7969228, 60.8007229 ] ] ] } },
{ "type": "Feature", "properties": { "osm_id": 817417722, "building": "house", "street": "McBryan Drive", "area": "Hay River (other areas)", "flood_pixels": 18 }, "geometry": { "type": "Polygon", "coordinates": [ [ [ -115.79598559999998, 60.8008184 ], [ -115.7961222, 60.8007857 ], [ -115.796081, 60.8007448 ], [ -115.7961935, 60.8007178 ], [ -115.7961033, 60.8006284 ], [ -115.795951, 60.8006649 ], [ -115.7959706, 60.8006844 ], [ -115.7958738, 60.8007076 ], [ -115.79598559999998, 60.8008184 ] ] ] } },
{ "type": "Feature", "properties": { "osm_id": 817417723, "building": "house", "street": "McBryan Drive", "area": "Hay River (other areas)", "flood_pixels": 3 }, "geometry": { "type": "Polygon", "coordinates": [ [ [ -115.7971053, 60.801101700000011 ], [ -115.7970312, 60.8010288 ], [ -115.79734160000001, 60.800953699999987 ], [ -115.797415700000016, 60.8010266 ], [ -115.7971053, 60.801101700000011 ] ] ] } },
{ "type": "Feature", "properties": { "osm_id": 817417741, "building": "house", "street": "McBryan Drive", "area": "Hay River (other areas)", "flood_pixels": 15 }, "geometry": { "type": "Polygon", "coordinates": [ [ [ -115.7961452, 60.8014643 ], [ -115.7962811, 60.801348 ], [ -115.796145, 60.8013101 ], [ -115.796009, 60.8014265 ], [ -115.7961452, 60.8014643 ] ] ] } },
{ "type": "Feature", "properties": { "osm_id": 817417742, "building": "house", "street": "McBryan Drive", "area": "Hay River (other areas)", "flood_pixels": 5 }, "geometry": { "type": "Polygon", "coordinates": [ [ [ -115.795065900000012, 60.801543799999983 ], [ -115.7947676, 60.8014727 ], [ -115.7948971, 60.8013434 ], [ -115.7953487, 60.8014509 ], [ -115.7952711, 60.8015284 ], [ -115.795117800000014, 60.8014919 ], [ -115.795065900000012, 60.801543799999983 ] ] ] } },
{ "type": "Feature", "properties": { "osm_id": 817417743, "building": "house", "street": "McBryan Drive", "area": "Hay River (other areas)", "flood_pixels": 6 }, "geometry": { "type": "Polygon", "coordinates": [ [ [ -115.795062300000012, 60.801304799999983 ], [ -115.79532810000002, 60.801375599999986 ], [ -115.795408800000018, 60.8013034 ], [ -115.795143, 60.8012326 ], [ -115.795062300000012, 60.801304799999983 ] ] ] } },
{ "type": "Feature", "properties": { "osm_id": 817417744, "building": "house", "street": "McBryan Drive", "area": "Hay River (other areas)", "flood_pixels": 10 }, "geometry": { "type": "Polygon", "coordinates": [ [ [ -115.79545, 60.8012426 ], [ -115.7952923, 60.8011965 ], [ -115.7954201, 60.8010924 ], [ -115.7955778, 60.8011385 ], [ -115.79545, 60.8012426 ] ] ] } },
{ "type": "Feature", "properties": { "osm_id": 817417745, "building": "house", "street": "McBryan Drive", "area": "Hay River (other areas)", "flood_pixels": 22 }, "geometry": { "type": "Polygon", "coordinates": [ [ [ -115.795438599999983, 60.801057900000011 ], [ -115.795277700000014, 60.8010048 ], [ -115.7953772, 60.8009331 ], [ -115.7954056, 60.8009425 ], [ -115.7954885, 60.80088270000001 ], [ -115.795734300000021, 60.8009639 ], [ -115.7956248, 60.8010428 ], [ -115.7955114, 60.80100539999998 ], [ -115.795438599999983, 60.801057900000011 ] ] ] } },
{ "type": "Feature", "properties": { "osm_id": 817417747, "building": "house", "street": "McBryan Drive", "area": "Hay River (other areas)", "flood_pixels": 16 }, "geometry": { "type": "Polygon", "coordinates": [ [ [ -115.794984900000017, 60.8016848 ], [ -115.7947133, 60.8016189 ], [ -115.794829799999988, 60.801504600000015 ], [ -115.794983, 60.8015418 ], [ -115.7949327, 60.8015912 ], [ -115.7950511, 60.8016199 ], [ -115.794984900000017, 60.8016848 ] ] ] } },
{ "type": "Feature", "properties": { "osm_id": 817417748, "building": "house", "street": "McBryan Drive", "area": "Hay River (other areas)", "flood_pixels": 15 }, "geometry": { "type": "Polygon", "coordinates": [ [ [ -115.7945896, 60.801936 ], [ -115.7946564, 60.801863499999989 ], [ -115.7946173, 60.8018445 ], [ -115.7946552, 60.801803300000017 ], [ -115.7944811, 60.8017652 ], [ -115.79436840000001, 60.8018876 ], [ -115.7945896, 60.801936 ] ] ] } },
{ "type": "Feature", "properties": { "osm_id": 817417749, "building": "house", "street": "McBryan Drive", "area": "Hay River (other areas)", "flood_pixels": 5 }, "geometry": { "type": "Polygon", "coordinates": [ [ [ -115.7945273, 60.8021701 ], [ -115.7943907, 60.8021389 ], [ -115.7943251, 60.8022071 ], [ -115.7941369, 60.8021641 ], [ -115.7942585, 60.8020375 ], [ -115.7945833, 60.802111699999983 ], [ -115.7945273, 60.8021701 ] ] ] } },
{ "type": "Feature", "properties": { "osm_id": 817417772, "building": "house", "street": "McBryan Drive", "area": "New Town Hay River", "flood_pixels": 3 }, "geometry": { "type": "Polygon", "coordinates": [ [ [ -115.7938763, 60.8024253 ], [ -115.7941274, 60.802491099999983 ], [ -115.7942038, 60.8024218 ], [ -115.794073700000013, 60.8023877 ], [ -115.794103, 60.8023612 ], [ -115.7939819, 60.802329499999985 ], [ -115.7938763, 60.8024253 ] ] ] } },
{ "type": "Feature", "properties": { "osm_id": 817417773, "building": "house", "street": "McBryan Drive", "area": "Hay River (other areas)", "flood_pixels": 5 }, "geometry": { "type": "Polygon", "coordinates": [ [ [ -115.794100499999985, 60.80231710000001 ], [ -115.7942801, 60.802363100000015 ], [ -115.79439570000001, 60.8022557 ], [ -115.794150500000015, 60.8021929 ], [ -115.7941093, 60.8022312 ], [ -115.7941749, 60.802248 ], [ -115.794100499999985, 60.80231710000001 ] ] ] } },
{ "type": "Feature", "properties": { "osm_id": 817417801, "building": "house", "street": "McBryan Drive", "area": "New Town Hay River", "flood_pixels": 4 }, "geometry": { "type": "Polygon", "coordinates": [ [ [ -115.7913193, 60.8040873 ], [ -115.791158700000011, 60.8040156 ], [ -115.791416499999983, 60.803878199999986 ], [ -115.7915771, 60.8039499 ], [ -115.7913193, 60.8040873 ] ] ] } },
{ "type": "Feature", "properties": { "osm_id": 817417802, "building": "house", "street": "McBryan Drive", "area": "New Town Hay River", "flood_pixels": 3 }, "geometry": { "type": "Polygon", "coordinates": [ [ [ -115.7910477, 60.8042307 ], [ -115.7909057, 60.8041704 ], [ -115.79113839999998, 60.8040399 ], [ -115.791280500000013, 60.8041002 ], [ -115.7910477, 60.8042307 ] ] ] } },
{ "type": "Feature", "properties": { "osm_id": 817419803, "building": "house", "street": "McBryan Drive", "area": "New Town Hay River", "flood_pixels": 5 }, "geometry": { "type": "Polygon", "coordinates": [ [ [ -115.790889299999989, 60.804425 ], [ -115.790661200000017, 60.8043222 ], [ -115.7905702, 60.8043703 ], [ -115.7906259, 60.804395300000017 ], [ -115.7904316, 60.804498 ], [ -115.790604, 60.8045757 ], [ -115.790889299999989, 60.804425 ] ] ] } },
{ "type": "Feature", "properties": { "osm_id": 817419804, "building": "house", "street": "McBryan Drive", "area": "New Town Hay River", "flood_pixels": 3 }, "geometry": { "type": "Polygon", "coordinates": [ [ [ -115.790351300000012, 60.8047276 ], [ -115.79011060000002, 60.804611700000024 ], [ -115.7903149, 60.804510699999987 ], [ -115.7904295, 60.804565899999972 ], [ -115.790336600000018, 60.8046118 ], [ -115.7904627, 60.804672499999988 ], [ -115.790351300000012, 60.8047276 ] ] ] } },
{ "type": "Feature", "properties": { "osm_id": 817419805, "building": "house", "street": "McBryan Drive", "area": "New Town Hay River", "flood_pixels": 4 }, "geometry": { "type": "Polygon", "coordinates": [ [ [ -115.7901158, 60.8048506 ], [ -115.7899856, 60.80479110000001 ], [ -115.7900202, 60.8047731 ], [ -115.789916399999981, 60.8047257 ], [ -115.7900874, 60.8046365 ], [ -115.790218, 60.804696199999988 ], [ -115.7901666, 60.804723 ], [ -115.7902701, 60.804770199999986 ], [ -115.7901158, 60.8048506 ] ] ] } },
{ "type": "Feature", "properties": { "osm_id": 817419806, "building": "house", "street": "McBryan Drive", "area": "New Town Hay River", "flood_pixels": 5 }, "geometry": { "type": "Polygon", "coordinates": [ [ [ -115.7899302, 60.804967799999986 ], [ -115.7898084, 60.8049277 ], [ -115.7898486, 60.8048986 ], [ -115.789709300000013, 60.804852699999984 ], [ -115.7898255, 60.8047688 ], [ -115.7900671, 60.8048485 ], [ -115.7899738, 60.8049159 ], [ -115.7899932, 60.8049222 ], [ -115.7899302, 60.804967799999986 ] ] ] } },
{ "type": "Feature", "properties": { "osm_id": 817419807, "building": "house", "street": "McBryan Drive", "area": "New Town Hay River", "flood_pixels": 4 }, "geometry": { "type": "Polygon", "coordinates": [ [ [ -115.7897597, 60.80510120000001 ], [ -115.789570600000019, 60.8050703 ], [ -115.7896575, 60.8049437 ], [ -115.7899167, 60.804986 ], [ -115.78985950000002, 60.8050694 ], [ -115.789789399999989, 60.805058 ], [ -115.7897597, 60.80510120000001 ] ] ] } },
{ "type": "Feature", "properties": { "osm_id": 817419808, "building": "house", "street": "McBryan Drive", "area": "New Town Hay River", "flood_pixels": 4 }, "geometry": { "type": "Polygon", "coordinates": [ [ [ -115.789425400000013, 60.8053257 ], [ -115.7895951, 60.805108500000017 ], [ -115.7897633, 60.8051398 ], [ -115.7895936, 60.805357 ], [ -115.789425400000013, 60.8053257 ] ] ] } },
{ "type": "Feature", "properties": { "osm_id": 817419824, "building": "yes", "street": "Studney Drive", "area": "New Town Hay River", "flood_pixels": 3 }, "geometry": { "type": "Polygon", "coordinates": [ [ [ -115.7957471, 60.8130018 ], [ -115.7953688, 60.8129005 ], [ -115.79547, 60.8127965 ], [ -115.7958217, 60.8128979 ], [ -115.7957471, 60.8130018 ] ] ] } },
{ "type": "Feature", "properties": { "osm_id": 817419826, "building": "yes", "street": "Studney Drive", "area": "New Town Hay River", "flood_pixels": 7 }, "geometry": { "type": "Polygon", "coordinates": [ [ [ -115.7897144, 60.81711580000001 ], [ -115.7904806, 60.8172746 ], [ -115.790758100000019, 60.8169893 ], [ -115.7900764, 60.8168451 ], [ -115.7900161, 60.8168922 ], [ -115.789925599999989, 60.8168775 ], [ -115.7897144, 60.81711580000001 ] ] ] } },
{ "type": "Feature", "properties": { "osm_id": 823666252, "building": "yes", "street": "106th Avenue", "area": "Old Town Hay River", "flood_pixels": 11 }, "geometry": { "type": "Polygon", "coordinates": [ [ [ -115.7395596, 60.8623071 ], [ -115.7394776, 60.8622172 ], [ -115.739721399999979, 60.862164500000013 ], [ -115.7398033, 60.862254399999976 ], [ -115.7395596, 60.8623071 ] ] ] } },
{ "type": "Feature", "properties": { "osm_id": 823666256, "building": "yes", "street": "Lakeshore Drive", "area": "Old Town Hay River", "flood_pixels": 16 }, "geometry": { "type": "Polygon", "coordinates": [ [ [ -115.747701, 60.8665002 ], [ -115.7474889, 60.8664413 ], [ -115.7475967, 60.8663493 ], [ -115.747808799999987, 60.8664083 ], [ -115.747701, 60.8665002 ] ] ] } },
{ "type": "Feature", "properties": { "osm_id": 823666257, "building": "yes", "street": "Lakeshore Drive", "area": "Old Town Hay River", "flood_pixels": 8 }, "geometry": { "type": "Polygon", "coordinates": [ [ [ -115.7472096, 60.8662506 ], [ -115.747305, 60.8661673 ], [ -115.7470919, 60.8661095 ], [ -115.7469965, 60.8661927 ], [ -115.7472096, 60.8662506 ] ] ] } },
{ "type": "Feature", "properties": { "osm_id": 823666258, "building": "yes", "street": "Lakeshore Drive", "area": "Old Town Hay River", "flood_pixels": 20 }, "geometry": { "type": "Polygon", "coordinates": [ [ [ -115.7455281, 60.8660238 ], [ -115.7453031, 60.865947199999979 ], [ -115.745473, 60.865829 ], [ -115.745698, 60.8659056 ], [ -115.7455281, 60.8660238 ] ] ] } },
{ "type": "Feature", "properties": { "osm_id": 823666259, "building": "yes", "street": "Lakeshore Drive", "area": "Old Town Hay River", "flood_pixels": 8 }, "geometry": { "type": "Polygon", "coordinates": [ [ [ -115.7444627, 60.865407699999984 ], [ -115.7442497, 60.865326 ], [ -115.7443403, 60.865271899999989 ], [ -115.744555600000012, 60.8653492 ], [ -115.7444627, 60.865407699999984 ] ] ] } },
{ "type": "Feature", "properties": { "osm_id": 823666266, "building": "yes", "street": "104th Street", "area": "Old Town Hay River", "flood_pixels": 4 }, "geometry": { "type": "Polygon", "coordinates": [ [ [ -115.7429754, 60.8557354 ], [ -115.7429452, 60.8556471 ], [ -115.7430959, 60.8556348 ], [ -115.7431261, 60.855723099999985 ], [ -115.7429754, 60.8557354 ] ] ] } },
{ "type": "Feature", "properties": { "osm_id": 824375615, "building": "yes", "street": "101st Street", "area": "Old Town Hay River", "flood_pixels": 4 }, "geometry": { "type": "Polygon", "coordinates": [ [ [ -115.735676700000013, 60.8523044 ], [ -115.7356418, 60.8521881 ], [ -115.7358135, 60.8521724 ], [ -115.7358511, 60.8522887 ], [ -115.735676700000013, 60.8523044 ] ] ] } },
{ "type": "Feature", "properties": { "osm_id": 824375620, "building": "yes", "street": "102nd Street", "area": "Old Town Hay River", "flood_pixels": 3 }, "geometry": { "type": "Polygon", "coordinates": [ [ [ -115.737031200000018, 60.8518732 ], [ -115.736991, 60.8517713 ], [ -115.736797899999985, 60.8517962 ], [ -115.736838099999986, 60.8518928 ], [ -115.737031200000018, 60.8518732 ] ] ] } },
{ "type": "Feature", "properties": { "osm_id": 824375673, "building": "yes", "street": "105th Street", "area": "Old Town Hay River", "flood_pixels": 4 }, "geometry": { "type": "Polygon", "coordinates": [ [ [ -115.744288899999987, 60.852965499999989 ], [ -115.744245300000017, 60.852970199999987 ], [ -115.7442609, 60.853004699999985 ], [ -115.744092399999985, 60.853022699999968 ], [ -115.744083300000014, 60.8530027 ], [ -115.7439996, 60.853011599999988 ], [ -115.7439582, 60.8529197 ], [ -115.744254, 60.8528881 ], [ -115.744288899999987, 60.852965499999989 ] ] ] } },
{ "type": "Feature", "properties": { "osm_id": 824375675, "building": "yes", "street": "103rd Avenue", "area": "Old Town Hay River", "flood_pixels": 12 }, "geometry": { "type": "Polygon", "coordinates": [ [ [ -115.744192, 60.8535051 ], [ -115.7441914, 60.853423299999989 ], [ -115.7444364, 60.853423 ], [ -115.7444369, 60.8535047 ], [ -115.744192, 60.8535051 ] ] ] } },
{ "type": "Feature", "properties": { "osm_id": 824375684, "building": "yes", "street": "105th Street", "area": "Old Town Hay River", "flood_pixels": 3 }, "geometry": { "type": "Polygon", "coordinates": [ [ [ -115.745044, 60.8523408 ], [ -115.7450169, 60.8522839 ], [ -115.7449529, 60.8522912 ], [ -115.744921600000012, 60.8522255 ], [ -115.744992400000015, 60.8522175 ], [ -115.7449643, 60.8521584 ], [ -115.7451313, 60.8521395 ], [ -115.7452177, 60.8523212 ], [ -115.745044, 60.8523408 ] ] ] } },
{ "type": "Feature", "properties": { "osm_id": 824375688, "building": "yes", "street": "105th Street", "area": "Old Town Hay River", "flood_pixels": 4 }, "geometry": { "type": "Polygon", "coordinates": [ [ [ -115.7450663, 60.8526503 ], [ -115.7450334, 60.852567 ], [ -115.7452155, 60.8525499 ], [ -115.7452485, 60.8526332 ], [ -115.7450663, 60.8526503 ] ] ] } },
{ "type": "Feature", "properties": { "osm_id": 824375691, "building": "yes", "street": "105th Street", "area": "Old Town Hay River", "flood_pixels": 15 }, "geometry": { "type": "Polygon", "coordinates": [ [ [ -115.7440373, 60.8531612 ], [ -115.744427, 60.8531109 ], [ -115.7443959, 60.853053599999988 ], [ -115.744006200000015, 60.853104 ], [ -115.7440373, 60.8531612 ] ] ] } },
{ "type": "Feature", "properties": { "osm_id": 824375696, "building": "yes", "street": "100 Avenue", "area": "Old Town Hay River", "flood_pixels": 7 }, "geometry": { "type": "Polygon", "coordinates": [ [ [ -115.736540799999986, 60.8501641 ], [ -115.736764900000011, 60.850132399999971 ], [ -115.7366565, 60.8499503 ], [ -115.736432400000012, 60.849981899999989 ], [ -115.736540799999986, 60.8501641 ] ] ] } },
{ "type": "Feature", "properties": { "osm_id": 824375698, "building": "yes", "street": "102nd Avenue", "area": "Old Town Hay River", "flood_pixels": 3 }, "geometry": { "type": "Polygon", "coordinates": [ [ [ -115.7321612, 60.850822299999983 ], [ -115.73214950000002, 60.8508351 ], [ -115.7321467, 60.850849 ], [ -115.732153200000013, 60.8508626 ], [ -115.7321682, 60.8508746 ], [ -115.7321902, 60.8508836 ], [ -115.7322169, 60.8508887 ], [ -115.7322473, 60.8508894 ], [ -115.732276400000018, 60.850885 ], [ -115.7323008, 60.8508762 ], [ -115.732317699999982, 60.850863900000014 ], [ -115.7323252, 60.85084950000001 ], [ -115.732322300000021, 60.8508347 ], [ -115.732309500000014, 60.8508213 ], [ -115.732288100000019, 60.8508107 ], [ -115.73226240000001, 60.8508045 ], [ -115.732234, 60.8508026 ], [ -115.7322057, 60.8508051 ], [ -115.7321806, 60.8508119 ], [ -115.7321612, 60.850822299999983 ] ] ] } },
{ "type": "Feature", "properties": { "osm_id": 824375701, "building": "yes", "street": "100 Avenue", "area": "Old Town Hay River", "flood_pixels": 18 }, "geometry": { "type": "Polygon", "coordinates": [ [ [ -115.733208, 60.8502439 ], [ -115.7331505, 60.8501433 ], [ -115.7334504, 60.8501026 ], [ -115.7335079, 60.8502031 ], [ -115.733208, 60.8502439 ] ] ] } },
{ "type": "Feature", "properties": { "osm_id": 824375702, "building": "yes", "street": "100 Avenue", "area": "Old Town Hay River", "flood_pixels": 4 }, "geometry": { "type": "Polygon", "coordinates": [ [ [ -115.735863800000018, 60.8498389 ], [ -115.7356359, 60.849858 ], [ -115.7356131, 60.8497936 ], [ -115.735841, 60.8497745 ], [ -115.735863800000018, 60.8498389 ] ] ] } },
{ "type": "Feature", "properties": { "osm_id": 824375703, "building": "yes", "street": "100 Avenue", "area": "Old Town Hay River", "flood_pixels": 9 }, "geometry": { "type": "Polygon", "coordinates": [ [ [ -115.7359618, 60.8497544 ], [ -115.7358943, 60.8496163 ], [ -115.735796099999988, 60.8496277 ], [ -115.7358637, 60.849765799999986 ], [ -115.7359618, 60.8497544 ] ] ] } },
{ "type": "Feature", "properties": { "osm_id": 824375706, "building": "yes", "street": "Hay River Highway", "area": "Old Town Hay River", "flood_pixels": 20 }, "geometry": { "type": "Polygon", "coordinates": [ [ [ -115.7396399, 60.8488754 ], [ -115.7408586, 60.8487405 ], [ -115.7407314, 60.84846790000001 ], [ -115.73951270000002, 60.8486028 ], [ -115.7396399, 60.8488754 ] ] ] } },
{ "type": "Feature", "properties": { "osm_id": 824375709, "building": "yes", "street": "102nd Avenue", "area": "Old Town Hay River", "flood_pixels": 3 }, "geometry": { "type": "Polygon", "coordinates": [ [ [ -115.744106800000012, 60.8496654 ], [ -115.744045200000016, 60.849499599999973 ], [ -115.7442641, 60.8494803 ], [ -115.744325700000019, 60.8496461 ], [ -115.744106800000012, 60.8496654 ] ] ] } },
{ "type": "Feature", "properties": { "osm_id": 824375718, "building": "yes", "street": "106 Street", "area": "Old Town Hay River", "flood_pixels": 11 }, "geometry": { "type": "Polygon", "coordinates": [ [ [ -115.744434700000014, 60.849511800000016 ], [ -115.744988800000016, 60.849458 ], [ -115.7449145, 60.8492764 ], [ -115.7443604, 60.8493302 ], [ -115.744434700000014, 60.849511800000016 ] ] ] } },
{ "type": "Feature", "properties": { "osm_id": 824375719, "building": "yes", "street": "106 Street", "area": "Old Town Hay River", "flood_pixels": 3 }, "geometry": { "type": "Polygon", "coordinates": [ [ [ -115.7446701, 60.849228800000013 ], [ -115.7443264, 60.8492659 ], [ -115.744179, 60.8489424 ], [ -115.7445228, 60.8489053 ], [ -115.744585300000011, 60.8490427 ], [ -115.744622899999982, 60.8491252 ], [ -115.7446701, 60.849228800000013 ] ] ] } },
{ "type": "Feature", "properties": { "osm_id": 824375721, "building": "yes", "street": "Hay River Highway", "area": "Old Town Hay River", "flood_pixels": 4 }, "geometry": { "type": "Polygon", "coordinates": [ [ [ -115.7448606, 60.848144499999982 ], [ -115.7446014, 60.848178 ], [ -115.7445486, 60.8480808 ], [ -115.744807699999981, 60.8480474 ], [ -115.7448606, 60.848144499999982 ] ] ] } },
{ "type": "Feature", "properties": { "osm_id": 824375722, "building": "yes", "street": "Hay River Highway", "area": "Old Town Hay River", "flood_pixels": 33 }, "geometry": { "type": "Polygon", "coordinates": [ [ [ -115.742915700000012, 60.8479077 ], [ -115.7424295, 60.8480253 ], [ -115.7425929, 60.8481857 ], [ -115.7427027, 60.8481591 ], [ -115.742620700000018, 60.848078500000014 ], [ -115.742772500000015, 60.8480419 ], [ -115.7429998, 60.8482654 ], [ -115.7422213, 60.8484532 ], [ -115.7421385, 60.8483718 ], [ -115.7422363, 60.8483482 ], [ -115.742052, 60.848167099999984 ], [ -115.742216900000017, 60.8481273 ], [ -115.7422956, 60.848204599999988 ], [ -115.7423368, 60.8481946 ], [ -115.74239630000001, 60.8482529 ], [ -115.7424373, 60.84824290000001 ], [ -115.7421724, 60.8479842 ], [ -115.7430917, 60.8477608 ], [ -115.7431775, 60.8478447 ], [ -115.7430658, 60.8478718 ], [ -115.743349, 60.8481486 ], [ -115.7431413, 60.848199 ], [ -115.7430553, 60.8481148 ], [ -115.7431127, 60.84810090000002 ], [ -115.742915700000012, 60.8479077 ] ] ] } },
{ "type": "Feature", "properties": { "osm_id": 824375723, "building": "yes", "street": "Hay River Highway", "area": "Old Town Hay River", "flood_pixels": 14 }, "geometry": { "type": "Polygon", "coordinates": [ [ [ -115.7436433, 60.8476609 ], [ -115.74358359999998, 60.8475282 ], [ -115.7437553, 60.847509900000013 ], [ -115.7438149, 60.8476426 ], [ -115.7436433, 60.8476609 ] ] ] } },
{ "type": "Feature", "properties": { "osm_id": 824375724, "building": "yes", "street": "Hay River Highway", "area": "Old Town Hay River", "flood_pixels": 7 }, "geometry": { "type": "Polygon", "coordinates": [ [ [ -115.7438578, 60.8479083 ], [ -115.7440691, 60.8478411 ], [ -115.7439948, 60.8477856 ], [ -115.743783399999984, 60.8478527 ], [ -115.7438578, 60.8479083 ] ] ] } },
{ "type": "Feature", "properties": { "osm_id": 824375725, "building": "yes", "street": "106 Street", "area": "Old Town Hay River", "flood_pixels": 18 }, "geometry": { "type": "Polygon", "coordinates": [ [ [ -115.7466547, 60.849326 ], [ -115.747002600000016, 60.8492597 ], [ -115.7469346, 60.8491752 ], [ -115.7465867, 60.8492415 ], [ -115.7466547, 60.849326 ] ] ] } },
{ "type": "Feature", "properties": { "osm_id": 824375728, "building": "yes", "street": "Hay River Highway", "area": "Old Town Hay River", "flood_pixels": 8 }, "geometry": { "type": "Polygon", "coordinates": [ [ [ -115.746731600000018, 60.847560599999987 ], [ -115.746937800000012, 60.847543100000024 ], [ -115.7468863, 60.847399 ], [ -115.74668, 60.8474165 ], [ -115.746731600000018, 60.847560599999987 ] ] ] } },
{ "type": "Feature", "properties": { "osm_id": 824375731, "building": "yes", "street": "Hay River Highway", "area": "Old Town Hay River", "flood_pixels": 7 }, "geometry": { "type": "Polygon", "coordinates": [ [ [ -115.7469976, 60.8465237 ], [ -115.7469619, 60.8465245 ], [ -115.7469287, 60.8465311 ], [ -115.7469019, 60.8465426 ], [ -115.746884499999979, 60.8465579 ], [ -115.74687849999998, 60.84657510000001 ], [ -115.746884499999979, 60.8465923 ], [ -115.7469019, 60.8466075 ], [ -115.7469288, 60.846619 ], [ -115.7469597, 60.846625299999985 ], [ -115.7469931, 60.8466266 ], [ -115.7470256, 60.8466228 ], [ -115.7470541, 60.8466142 ], [ -115.7470757, 60.8466017 ], [ -115.747088199999979, 60.8465865 ], [ -115.747090299999982, 60.846570199999988 ], [ -115.7470811, 60.8465534 ], [ -115.747060800000014, 60.846539 ], [ -115.7470319, 60.8465287 ], [ -115.7469976, 60.8465237 ] ] ] } },
{ "type": "Feature", "properties": { "osm_id": 824375733, "building": "yes", "street": "Hay River Highway", "area": "Old Town Hay River", "flood_pixels": 5 }, "geometry": { "type": "Polygon", "coordinates": [ [ [ -115.74788820000002, 60.8463996 ], [ -115.74784360000001, 60.8464116 ], [ -115.747809100000012, 60.8464298 ], [ -115.7477882, 60.8464524 ], [ -115.747783, 60.8464771 ], [ -115.7477942, 60.8465013 ], [ -115.7478205, 60.846522499999985 ], [ -115.7478593, 60.8465386 ], [ -115.7479065, 60.846547799999989 ], [ -115.74796090000001, 60.8465491 ], [ -115.748013, 60.8465414 ], [ -115.7480567, 60.8465255 ], [ -115.7480867, 60.8465034 ], [ -115.7480996, 60.8464776 ], [ -115.7480939, 60.8464512 ], [ -115.7480702, 60.8464273 ], [ -115.7480342, 60.8464098 ], [ -115.7479887, 60.846398699999988 ], [ -115.747938300000015, 60.846395200000011 ], [ -115.74788820000002, 60.8463996 ] ] ] } },
{ "type": "Feature", "properties": { "osm_id": 824375737, "building": "yes", "street": "Hay River Highway", "area": "Old Town Hay River", "flood_pixels": 4 }, "geometry": { "type": "Polygon", "coordinates": [ [ [ -115.7488163, 60.846212800000011 ], [ -115.748867200000021, 60.8462307 ], [ -115.7489033, 60.8462557 ], [ -115.7489208, 60.8462851 ], [ -115.7489178, 60.8463157 ], [ -115.74889450000002, 60.8463441 ], [ -115.7488536, 60.8463673 ], [ -115.7487994, 60.8463828 ], [ -115.7487378, 60.8463888 ], [ -115.748675599999984, 60.846384799999989 ], [ -115.7486195, 60.8463712 ], [ -115.7485754, 60.846349399999987 ], [ -115.7485482, 60.846321899999971 ], [ -115.748540899999981, 60.8462915 ], [ -115.7485542, 60.8462616 ], [ -115.7485866, 60.8462355 ], [ -115.7486348, 60.846215800000024 ], [ -115.748693500000016, 60.8462049 ], [ -115.748756200000017, 60.8462038 ], [ -115.7488163, 60.846212800000011 ] ] ] } },
{ "type": "Feature", "properties": { "osm_id": 824375738, "building": "yes", "street": "107 Street", "area": "Old Town Hay River", "flood_pixels": 12 }, "geometry": { "type": "Polygon", "coordinates": [ [ [ -115.7474849, 60.8469977 ], [ -115.7479435, 60.846939 ], [ -115.747893300000015, 60.84684570000001 ], [ -115.747434699999985, 60.8469042 ], [ -115.7474849, 60.8469977 ] ] ] } },
{ "type": "Feature", "properties": { "osm_id": 824375739, "building": "yes", "street": "Hay River Highway", "area": "Old Town Hay River", "flood_pixels": 10 }, "geometry": { "type": "Polygon", "coordinates": [ [ [ -115.7483322, 60.8468733 ], [ -115.748031399999988, 60.846908499999984 ], [ -115.748002, 60.8468426 ], [ -115.7483, 60.8468073 ], [ -115.7483322, 60.8468733 ] ] ] } },
{ "type": "Feature", "properties": { "osm_id": 824375740, "building": "yes", "street": "Hay River Highway", "area": "Old Town Hay River", "flood_pixels": 8 }, "geometry": { "type": "Polygon", "coordinates": [ [ [ -115.74838819999998, 60.8468301 ], [ -115.7484051, 60.846869299999987 ], [ -115.748622, 60.846847 ], [ -115.7486051, 60.846807799999986 ], [ -115.74838819999998, 60.8468301 ] ] ] } },
{ "type": "Feature", "properties": { "osm_id": 824375741, "building": "yes", "street": "Hay River Highway", "area": "Vale Island", "flood_pixels": 8 }, "geometry": { "type": "Polygon", "coordinates": [ [ [ -115.751859, 60.846500599999985 ], [ -115.7517396, 60.846208799999985 ], [ -115.7519693, 60.8461865 ], [ -115.7520887, 60.8464783 ], [ -115.751859, 60.846500599999985 ] ] ] } },
{ "type": "Feature", "properties": { "osm_id": 824375748, "building": "yes", "street": "Hay River Highway", "area": "Vale Island", "flood_pixels": 14 }, "geometry": { "type": "Polygon", "coordinates": [ [ [ -115.7570953, 60.843406899999984 ], [ -115.75673519999998, 60.8433272 ], [ -115.75687360000002, 60.8431787 ], [ -115.7568996, 60.8431509 ], [ -115.757259800000014, 60.8432307 ], [ -115.7570953, 60.843406899999984 ] ] ] } },
{ "type": "Feature", "properties": { "osm_id": 825391169, "building": "yes", "street": "Poplar Road", "area": "New Town Hay River", "flood_pixels": 7 }, "geometry": { "type": "Polygon", "coordinates": [ [ [ -115.796241499999979, 60.8140457 ], [ -115.7961858, 60.8141172 ], [ -115.7960489, 60.8140918 ], [ -115.7961046, 60.81402030000001 ], [ -115.796241499999979, 60.8140457 ] ] ] } },
{ "type": "Feature", "properties": { "osm_id": 825401343, "building": "yes", "street": "Airport Rd", "area": "Hay River (other areas)", "flood_pixels": 5 }, "geometry": { "type": "Polygon", "coordinates": [ [ [ -115.7789236, 60.8384711 ], [ -115.7787164, 60.8385208 ], [ -115.778641400000012, 60.838446399999988 ], [ -115.778848600000018, 60.838396799999984 ], [ -115.7789236, 60.8384711 ] ] ] } },
{ "type": "Feature", "properties": { "osm_id": 825401344, "building": "yes", "street": "Airport Rd", "area": "Hay River (other areas)", "flood_pixels": 6 }, "geometry": { "type": "Polygon", "coordinates": [ [ [ -115.778723, 60.8383665 ], [ -115.7785981, 60.8383989 ], [ -115.7785024, 60.838311200000014 ], [ -115.7787465, 60.838247900000013 ], [ -115.7788152, 60.8383108 ], [ -115.778714900000011, 60.838336799999986 ], [ -115.778723, 60.8383665 ] ] ] } },
{ "type": "Feature", "properties": { "osm_id": 825401345, "building": "yes", "street": "unnamed road", "area": "Hay River (other areas)", "flood_pixels": 16 }, "geometry": { "type": "Polygon", "coordinates": [ [ [ -115.778634299999979, 60.838214 ], [ -115.7784669, 60.8382592 ], [ -115.7783828, 60.8381852 ], [ -115.778550200000012, 60.83814 ], [ -115.778634299999979, 60.838214 ] ] ] } },
{ "type": "Feature", "properties": { "osm_id": 825401346, "building": "yes", "street": "unnamed road", "area": "Vale Island", "flood_pixels": 9 }, "geometry": { "type": "Polygon", "coordinates": [ [ [ -115.7693243, 60.8427554 ], [ -115.7689906, 60.8428298 ], [ -115.7687788, 60.8426044 ], [ -115.7691124, 60.84253 ], [ -115.7693243, 60.8427554 ] ] ] } },
{ "type": "Feature", "properties": { "osm_id": 825401347, "building": "yes", "street": "Buffalo Dr", "area": "Vale Island", "flood_pixels": 13 }, "geometry": { "type": "Polygon", "coordinates": [ [ [ -115.7674254, 60.8434718 ], [ -115.767344, 60.8435028 ], [ -115.7672622, 60.843534099999985 ], [ -115.767082099999982, 60.8434222 ], [ -115.767245299999985, 60.843359799999988 ], [ -115.7674254, 60.8434718 ] ] ] } },
{ "type": "Feature", "properties": { "osm_id": 825401350, "building": "yes", "street": "Whitlock Rd", "area": "Hay River (other areas)", "flood_pixels": 11 }, "geometry": { "type": "Polygon", "coordinates": [ [ [ -115.7696235, 60.8402833 ], [ -115.7692386, 60.8403653 ], [ -115.769110500000011, 60.840222499999982 ], [ -115.7695559, 60.8401276 ], [ -115.7696472, 60.8402293 ], [ -115.7695866, 60.8402422 ], [ -115.7696235, 60.8402833 ] ] ] } },
{ "type": "Feature", "properties": { "osm_id": 825401351, "building": "yes", "street": "Whitlock Rd", "area": "Hay River (other areas)", "flood_pixels": 4 }, "geometry": { "type": "Polygon", "coordinates": [ [ [ -115.7684512, 60.8407199 ], [ -115.768534, 60.8408287 ], [ -115.768373600000018, 60.840857699999987 ], [ -115.768290800000017, 60.8407489 ], [ -115.7684512, 60.8407199 ] ] ] } },
{ "type": "Feature", "properties": { "osm_id": 827516843, "building": "yes", "street": "Riverview Drive", "area": "New Town Hay River", "flood_pixels": 5 }, "geometry": { "type": "Polygon", "coordinates": [ [ [ -115.7764933, 60.8223628 ], [ -115.776402500000017, 60.822412799999988 ], [ -115.776318, 60.8223764 ], [ -115.776297, 60.8223879 ], [ -115.7761115, 60.8223079 ], [ -115.776317400000011, 60.8221945 ], [ -115.776449, 60.822251299999984 ], [ -115.776355, 60.8223031 ], [ -115.7764933, 60.8223628 ] ] ] } },
{ "type": "Feature", "properties": { "osm_id": 827516844, "building": "yes", "street": "Woodland Drive", "area": "New Town Hay River", "flood_pixels": 5 }, "geometry": { "type": "Polygon", "coordinates": [ [ [ -115.7760725, 60.822105400000012 ], [ -115.7758949, 60.8222038 ], [ -115.7758003, 60.8221632 ], [ -115.7759779, 60.8220648 ], [ -115.7760725, 60.822105400000012 ] ] ] } },
{ "type": "Feature", "properties": { "osm_id": 827516845, "building": "yes", "street": "Woodland Drive", "area": "New Town Hay River", "flood_pixels": 5 }, "geometry": { "type": "Polygon", "coordinates": [ [ [ -115.7763308, 60.8221425 ], [ -115.7762527, 60.8221834 ], [ -115.776132, 60.8221286 ], [ -115.7762101, 60.8220877 ], [ -115.7763308, 60.8221425 ] ] ] } },
{ "type": "Feature", "properties": { "osm_id": 827516847, "building": "yes", "street": "Woodland Drive", "area": "New Town Hay River", "flood_pixels": 3 }, "geometry": { "type": "Polygon", "coordinates": [ [ [ -115.77622839999998, 60.822025300000021 ], [ -115.776100700000015, 60.8219735 ], [ -115.776285300000012, 60.8218654 ], [ -115.776413, 60.821917199999987 ], [ -115.77622839999998, 60.822025300000021 ] ] ] } },
{ "type": "Feature", "properties": { "osm_id": 827842699, "building": "yes", "street": "Woodland Drive", "area": "New Town Hay River", "flood_pixels": 4 }, "geometry": { "type": "Polygon", "coordinates": [ [ [ -115.7754654, 60.8218313 ], [ -115.7753837, 60.821875299999988 ], [ -115.7753161, 60.8218454 ], [ -115.775265499999989, 60.8218726 ], [ -115.7751528, 60.8218227 ], [ -115.775218400000014, 60.8217874 ], [ -115.7751435, 60.821754299999988 ], [ -115.775210200000018, 60.8217184 ], [ -115.7754654, 60.8218313 ] ] ] } },
{ "type": "Feature", "properties": { "osm_id": 827842703, "building": "yes", "street": "Cameron Crescent", "area": "New Town Hay River", "flood_pixels": 4 }, "geometry": { "type": "Polygon", "coordinates": [ [ [ -115.7751015, 60.8211943 ], [ -115.77524360000001, 60.821077 ], [ -115.7750708, 60.8210272 ], [ -115.7749287, 60.8211446 ], [ -115.7751015, 60.8211943 ] ] ] } },
{ "type": "Feature", "properties": { "osm_id": 827842705, "building": "yes", "street": "Cameron Crescent", "area": "New Town Hay River", "flood_pixels": 4 }, "geometry": { "type": "Polygon", "coordinates": [ [ [ -115.775228, 60.8208505 ], [ -115.775287100000014, 60.8208126 ], [ -115.7753764, 60.8208457 ], [ -115.7753173, 60.8208836 ], [ -115.775228, 60.8208505 ] ] ] } },
{ "type": "Feature", "properties": { "osm_id": 827842750, "building": "yes", "street": "Gaetz Drive", "area": "New Town Hay River", "flood_pixels": 10 }, "geometry": { "type": "Polygon", "coordinates": [ [ [ -115.778590099999988, 60.8172876 ], [ -115.7786442, 60.8171925 ], [ -115.7784385, 60.8171646 ], [ -115.7784557, 60.8171343 ], [ -115.7783635, 60.817121899999989 ], [ -115.7783446, 60.817155 ], [ -115.7783315, 60.8171532 ], [ -115.778279, 60.8172455 ], [ -115.778590099999988, 60.8172876 ] ] ] } },
{ "type": "Feature", "properties": { "osm_id": 831551670, "building": "yes", "street": "Wolf Dr", "area": "Hay River (other areas)", "flood_pixels": 4 }, "geometry": { "type": "Polygon", "coordinates": [ [ [ -115.7572108, 60.8371216 ], [ -115.757276300000015, 60.8370318 ], [ -115.757058, 60.8369939 ], [ -115.7569998, 60.837083800000023 ], [ -115.7572108, 60.8371216 ] ] ] } },
{ "type": "Feature", "properties": { "osm_id": 831551681, "building": "yes", "street": "Reserve Highway", "area": "Hay River (other areas)", "flood_pixels": 5 }, "geometry": { "type": "Polygon", "coordinates": [ [ [ -115.7544569, 60.8369118 ], [ -115.7544602, 60.8369478 ], [ -115.7544865, 60.8369814 ], [ -115.754533200000012, 60.8370093 ], [ -115.7545954, 60.837028599999982 ], [ -115.754667, 60.8370374 ], [ -115.7547406, 60.837034899999978 ], [ -115.754813499999983, 60.8370197 ], [ -115.75487170000001, 60.8369935 ], [ -115.7549084, 60.8369593 ], [ -115.7549194, 60.836921 ], [ -115.7549033, 60.8368832 ], [ -115.754862, 60.836850199999986 ], [ -115.754800299999985, 60.836826 ], [ -115.7547255, 60.8368132 ], [ -115.7546463, 60.8368135 ], [ -115.7545766, 60.8368254 ], [ -115.7545182, 60.8368474 ], [ -115.7544769, 60.836877200000011 ], [ -115.7544569, 60.8369118 ] ] ] } },
{ "type": "Feature", "properties": { "osm_id": 831551742, "building": "yes", "street": "Hay River Highway", "area": "Hay River (other areas)", "flood_pixels": 6 }, "geometry": { "type": "Polygon", "coordinates": [ [ [ -115.7775005, 60.8306436 ], [ -115.7773505, 60.830656399999988 ], [ -115.777307, 60.8305359 ], [ -115.7775176, 60.8305178 ], [ -115.7775433, 60.8305891 ], [ -115.7774827, 60.8305943 ], [ -115.7775005, 60.8306436 ] ] ] } },
{ "type": "Feature", "properties": { "osm_id": 831551759, "building": "yes", "street": "Caribou Crescent", "area": "New Town Hay River", "flood_pixels": 7 }, "geometry": { "type": "Polygon", "coordinates": [ [ [ -115.777136199999987, 60.813589299999983 ], [ -115.777282, 60.8136586 ], [ -115.777155600000015, 60.81372180000001 ], [ -115.776977799999983, 60.813637300000018 ], [ -115.7770346, 60.8136089 ], [ -115.77707820000002, 60.8136184 ], [ -115.777136199999987, 60.813589299999983 ] ] ] } },
{ "type": "Feature", "properties": { "osm_id": 831551760, "building": "yes", "street": "Caribou Crescent", "area": "New Town Hay River", "flood_pixels": 6 }, "geometry": { "type": "Polygon", "coordinates": [ [ [ -115.779001400000013, 60.812801899999982 ], [ -115.7789345, 60.8128281 ], [ -115.7790822, 60.812917799999987 ], [ -115.779145, 60.8128932 ], [ -115.7791122, 60.812873299999985 ], [ -115.7791786, 60.8128473 ], [ -115.7791098, 60.81280550000001 ], [ -115.7790475, 60.8128299 ], [ -115.779001400000013, 60.812801899999982 ] ] ] } },
{ "type": "Feature", "properties": { "osm_id": 831551765, "building": "yes", "street": "Riverview Drive", "area": "New Town Hay River", "flood_pixels": 6 }, "geometry": { "type": "Polygon", "coordinates": [ [ [ -115.77865340000001, 60.8128648 ], [ -115.778897300000011, 60.8129929 ], [ -115.7789687, 60.8129606 ], [ -115.7787248, 60.8128325 ], [ -115.77865340000001, 60.8128648 ] ] ] } },
{ "type": "Feature", "properties": { "osm_id": 831551778, "building": "yes", "street": "Riverview Drive", "area": "New Town Hay River", "flood_pixels": 4 }, "geometry": { "type": "Polygon", "coordinates": [ [ [ -115.775375900000014, 60.8153163 ], [ -115.7752389, 60.8152964 ], [ -115.7752236, 60.815321500000017 ], [ -115.775033600000015, 60.815294 ], [ -115.7750935, 60.815196 ], [ -115.7752672, 60.8152212 ], [ -115.7752579, 60.8152364 ], [ -115.7754111, 60.8152587 ], [ -115.775375900000014, 60.8153163 ] ] ] } },
{ "type": "Feature", "properties": { "osm_id": 831551781, "building": "yes", "street": "Riverview Drive", "area": "New Town Hay River", "flood_pixels": 11 }, "geometry": { "type": "Polygon", "coordinates": [ [ [ -115.7749825, 60.815711 ], [ -115.7749932, 60.8155986 ], [ -115.7751527, 60.8156022 ], [ -115.775142, 60.8157146 ], [ -115.7749825, 60.815711 ] ] ] } },
{ "type": "Feature", "properties": { "osm_id": 831551783, "building": "yes", "street": "Riverview Drive", "area": "New Town Hay River", "flood_pixels": 9 }, "geometry": { "type": "Polygon", "coordinates": [ [ [ -115.7748591, 60.8160864 ], [ -115.7748786, 60.815993699999986 ], [ -115.7750389, 60.8160017 ], [ -115.775019500000013, 60.8160944 ], [ -115.7748591, 60.8160864 ] ] ] } },
{ "type": "Feature", "properties": { "osm_id": 831551784, "building": "yes", "street": "Riverview Drive", "area": "New Town Hay River", "flood_pixels": 7 }, "geometry": { "type": "Polygon", "coordinates": [ [ [ -115.7750874, 60.8161656 ], [ -115.775257400000015, 60.8161788 ], [ -115.775286, 60.8160918 ], [ -115.775116, 60.81607850000001 ], [ -115.7750874, 60.8161656 ] ] ] } },
{ "type": "Feature", "properties": { "osm_id": 831551785, "building": "yes", "street": "Gaetz Drive", "area": "New Town Hay River", "flood_pixels": 7 }, "geometry": { "type": "Polygon", "coordinates": [ [ [ -115.774667599999987, 60.8164736 ], [ -115.7749155, 60.816501 ], [ -115.7749772, 60.816368099999984 ], [ -115.774729300000018, 60.816340699999984 ], [ -115.774667599999987, 60.8164736 ] ] ] } },
{ "type": "Feature", "properties": { "osm_id": 831551789, "building": "yes", "street": "Gaetz Drive", "area": "New Town Hay River", "flood_pixels": 6 }, "geometry": { "type": "Polygon", "coordinates": [ [ [ -115.7746198, 60.8167165 ], [ -115.77460880000001, 60.816840199999987 ], [ -115.774771699999988, 60.8168436 ], [ -115.774782700000017, 60.8167199 ], [ -115.7746198, 60.8167165 ] ] ] } },
{ "type": "Feature", "properties": { "osm_id": 831551791, "building": "yes", "street": "Riverview Drive", "area": "New Town Hay River", "flood_pixels": 10 }, "geometry": { "type": "Polygon", "coordinates": [ [ [ -115.7747508, 60.8170567 ], [ -115.7747666, 60.816902499999983 ], [ -115.7745818, 60.816898 ], [ -115.774571800000018, 60.8169954 ], [ -115.7746281, 60.8169967 ], [ -115.7746223, 60.817053599999987 ], [ -115.7747508, 60.8170567 ] ] ] } },
{ "type": "Feature", "properties": { "osm_id": 831551793, "building": "yes", "street": "Gaetz Drive", "area": "New Town Hay River", "flood_pixels": 5 }, "geometry": { "type": "Polygon", "coordinates": [ [ [ -115.7751896, 60.8164612 ], [ -115.7750059, 60.8164433 ], [ -115.7750378, 60.816365400000016 ], [ -115.7752215, 60.8163833 ], [ -115.7751896, 60.8164612 ] ] ] } },
{ "type": "Feature", "properties": { "osm_id": 831551794, "building": "yes", "street": "Gaetz Drive", "area": "New Town Hay River", "flood_pixels": 13 }, "geometry": { "type": "Polygon", "coordinates": [ [ [ -115.7752017, 60.8165038 ], [ -115.775407, 60.816519899999989 ], [ -115.7754295, 60.8164519 ], [ -115.7753532, 60.8164459 ], [ -115.7753765, 60.8163755 ], [ -115.7752474, 60.8163653 ], [ -115.7752017, 60.8165038 ] ] ] } },
{ "type": "Feature", "properties": { "osm_id": 834306995, "building": "yes", "street": "Riverview Drive", "area": "New Town Hay River", "flood_pixels": 7 }, "geometry": { "type": "Polygon", "coordinates": [ [ [ -115.7739083, 60.8202083 ], [ -115.7738991, 60.8201195 ], [ -115.7742608, 60.8201107 ], [ -115.7742699, 60.8201995 ], [ -115.7739083, 60.8202083 ] ] ] } },
{ "type": "Feature", "properties": { "osm_id": 876108328, "building": "yes", "street": "unnamed road", "area": "Hay River (other areas)", "flood_pixels": 5 }, "geometry": { "type": "Polygon", "coordinates": [ [ [ -115.8261201, 60.781754699999972 ], [ -115.8259548, 60.7818935 ], [ -115.826256700000016, 60.7819792 ], [ -115.8263317, 60.7819162 ], [ -115.8262254, 60.781886 ], [ -115.8262803, 60.7818399 ], [ -115.8262086, 60.7818196 ], [ -115.8262441, 60.7817898 ], [ -115.8261201, 60.781754699999972 ] ] ] } },
{ "type": "Feature", "properties": { "osm_id": 876108329, "building": "yes", "street": "unnamed road", "area": "Hay River (other areas)", "flood_pixels": 4 }, "geometry": { "type": "Polygon", "coordinates": [ [ [ -115.826081500000015, 60.7819549 ], [ -115.825985299999985, 60.7820292 ], [ -115.825817, 60.781977299999987 ], [ -115.825913200000016, 60.781903 ], [ -115.826081500000015, 60.7819549 ] ] ] } },
{ "type": "Feature", "properties": { "osm_id": 876108330, "building": "yes", "street": "unnamed road", "area": "Hay River (other areas)", "flood_pixels": 9 }, "geometry": { "type": "Polygon", "coordinates": [ [ [ -115.826179, 60.782142399999984 ], [ -115.8260395, 60.782229 ], [ -115.8258911, 60.782172099999983 ], [ -115.82603060000001, 60.7820854 ], [ -115.826179, 60.782142399999984 ] ] ] } },
{ "type": "Feature", "properties": { "osm_id": 876108345, "building": "yes", "street": "unnamed road", "area": "Hay River (other areas)", "flood_pixels": 10 }, "geometry": { "type": "Polygon", "coordinates": [ [ [ -115.82122480000001, 60.7887692 ], [ -115.8211686, 60.7888801 ], [ -115.8210003, 60.7888598 ], [ -115.821056499999983, 60.7887489 ], [ -115.82122480000001, 60.7887692 ] ] ] } },
{ "type": "Feature", "properties": { "osm_id": 876108346, "building": "yes", "street": "Miron Drive", "area": "Hay River (other areas)", "flood_pixels": 5 }, "geometry": { "type": "Polygon", "coordinates": [ [ [ -115.8213296, 60.7900037 ], [ -115.8211555, 60.7902506 ], [ -115.820917, 60.7902105 ], [ -115.821091, 60.7899637 ], [ -115.8213296, 60.7900037 ] ] ] } },
{ "type": "Feature", "properties": { "osm_id": 876108347, "building": "yes", "street": "Miron Drive", "area": "Hay River (other areas)", "flood_pixels": 14 }, "geometry": { "type": "Polygon", "coordinates": [ [ [ -115.821267600000013, 60.789532 ], [ -115.82125, 60.7896376 ], [ -115.821217, 60.7896363 ], [ -115.821195900000021, 60.789763 ], [ -115.8210065, 60.7897556 ], [ -115.8210281, 60.7896255 ], [ -115.8209967, 60.7896243 ], [ -115.8210137, 60.789522 ], [ -115.821267600000013, 60.789532 ] ] ] } },
{ "type": "Feature", "properties": { "osm_id": 876108348, "building": "yes", "street": "Miron Drive", "area": "Hay River (other areas)", "flood_pixels": 10 }, "geometry": { "type": "Polygon", "coordinates": [ [ [ -115.8220916, 60.7890491 ], [ -115.822088800000017, 60.7891113 ], [ -115.8219748, 60.789110099999988 ], [ -115.821977599999983, 60.7890479 ], [ -115.8220916, 60.7890491 ] ] ] } },
{ "type": "Feature", "properties": { "osm_id": 876108349, "building": "yes", "street": "Miron Drive", "area": "Hay River (other areas)", "flood_pixels": 11 }, "geometry": { "type": "Polygon", "coordinates": [ [ [ -115.822384600000021, 60.788669499999976 ], [ -115.8223082, 60.7888057 ], [ -115.8221513, 60.7887847 ], [ -115.822227700000013, 60.7886486 ], [ -115.822384600000021, 60.788669499999976 ] ] ] } },
{ "type": "Feature", "properties": { "osm_id": 876108350, "building": "yes", "street": "Miron Drive", "area": "Hay River (other areas)", "flood_pixels": 13 }, "geometry": { "type": "Polygon", "coordinates": [ [ [ -115.8216043, 60.788567499999985 ], [ -115.8215284, 60.788699199999989 ], [ -115.8213021, 60.7886682 ], [ -115.821378, 60.7885364 ], [ -115.8216043, 60.788567499999985 ] ] ] } },
{ "type": "Feature", "properties": { "osm_id": 876108351, "building": "yes", "street": "unnamed road", "area": "Hay River (other areas)", "flood_pixels": 6 }, "geometry": { "type": "Polygon", "coordinates": [ [ [ -115.8212973, 60.7882161 ], [ -115.8212215, 60.788351 ], [ -115.821057900000014, 60.788329100000013 ], [ -115.8211337, 60.7881942 ], [ -115.8212973, 60.7882161 ] ] ] } },
{ "type": "Feature", "properties": { "osm_id": 876108352, "building": "yes", "street": "unnamed road", "area": "Hay River (other areas)", "flood_pixels": 18 }, "geometry": { "type": "Polygon", "coordinates": [ [ [ -115.821539800000011, 60.788382 ], [ -115.8214843, 60.7884574 ], [ -115.8212915, 60.7884236 ], [ -115.821347, 60.7883482 ], [ -115.821539800000011, 60.788382 ] ] ] } },
{ "type": "Feature", "properties": { "osm_id": 876108363, "building": "yes", "street": "unnamed road", "area": "Hay River (other areas)", "flood_pixels": 3 }, "geometry": { "type": "Polygon", "coordinates": [ [ [ -115.8220101, 60.7867034 ], [ -115.8218024, 60.786679 ], [ -115.8216956, 60.78689510000001 ], [ -115.8219033, 60.7869195 ], [ -115.8220101, 60.7867034 ] ] ] } },
{ "type": "Feature", "properties": { "osm_id": 876108364, "building": "yes", "street": "unnamed road", "area": "Hay River (other areas)", "flood_pixels": 9 }, "geometry": { "type": "Polygon", "coordinates": [ [ [ -115.8222959, 60.786440499999983 ], [ -115.822232200000016, 60.7865254 ], [ -115.821991800000021, 60.7864825 ], [ -115.8220555, 60.786397599999987 ], [ -115.8222959, 60.786440499999983 ] ] ] } },
{ "type": "Feature", "properties": { "osm_id": 876214463, "building": "yes", "street": "Ash Road", "area": "New Town Hay River", "flood_pixels": 7 }, "geometry": { "type": "Polygon", "coordinates": [ [ [ -115.792250100000018, 60.8165894 ], [ -115.792393200000021, 60.8164193 ], [ -115.792210800000021, 60.8163828 ], [ -115.7921796, 60.8164199 ], [ -115.7920826, 60.816400499999986 ], [ -115.7920478, 60.816442 ], [ -115.792139799999987, 60.816460399999983 ], [ -115.7920628, 60.816551899999986 ], [ -115.792250100000018, 60.8165894 ] ] ] } },
{ "type": "Feature", "properties": { "osm_id": 876214469, "building": "yes", "street": "Dean Drive", "area": "New Town Hay River", "flood_pixels": 18 }, "geometry": { "type": "Polygon", "coordinates": [ [ [ -115.7982142, 60.814546 ], [ -115.7980689, 60.8145272 ], [ -115.798004300000017, 60.8146453 ], [ -115.798149599999988, 60.8146642 ], [ -115.7982142, 60.814546 ] ] ] } },
{ "type": "Feature", "properties": { "osm_id": 876214470, "building": "yes", "street": "Dean Drive", "area": "New Town Hay River", "flood_pixels": 5 }, "geometry": { "type": "Polygon", "coordinates": [ [ [ -115.798438800000014, 60.81508 ], [ -115.7983864, 60.8151406 ], [ -115.7979916, 60.8150595 ], [ -115.798044, 60.814999 ], [ -115.798438800000014, 60.81508 ] ] ] } },
{ "type": "Feature", "properties": { "osm_id": 876365694, "building": "yes", "street": "Hay River Highway", "area": "Hay River (other areas)", "flood_pixels": 7 }, "geometry": { "type": "Polygon", "coordinates": [ [ [ -115.7715287, 60.838691 ], [ -115.771287700000016, 60.838748099999989 ], [ -115.771232, 60.8386924 ], [ -115.771473, 60.8386352 ], [ -115.7715287, 60.838691 ] ] ] } },
{ "type": "Feature", "properties": { "osm_id": 876365695, "building": "yes", "street": "Hay River Highway", "area": "Hay River (other areas)", "flood_pixels": 4 }, "geometry": { "type": "Polygon", "coordinates": [ [ [ -115.7718434, 60.8386018 ], [ -115.771668, 60.8386419 ], [ -115.7715987, 60.8385698 ], [ -115.771774100000016, 60.8385298 ], [ -115.7718434, 60.8386018 ] ] ] } },
{ "type": "Feature", "properties": { "osm_id": 876365696, "building": "yes", "street": "Hay River Highway", "area": "Hay River (other areas)", "flood_pixels": 16 }, "geometry": { "type": "Polygon", "coordinates": [ [ [ -115.772190899999984, 60.8385142 ], [ -115.772111399999986, 60.8384302 ], [ -115.7717956, 60.8385013 ], [ -115.7718751, 60.8385852 ], [ -115.772190899999984, 60.8385142 ] ] ] } },
{ "type": "Feature", "properties": { "osm_id": 876365700, "building": "yes", "street": "unnamed road", "area": "Hay River (other areas)", "flood_pixels": 5 }, "geometry": { "type": "Polygon", "coordinates": [ [ [ -115.756746799999988, 60.8410946 ], [ -115.7566983, 60.8412514 ], [ -115.75676390000001, 60.8412562 ], [ -115.756756, 60.8412817 ], [ -115.756897400000014, 60.8412921 ], [ -115.756905700000019, 60.841265 ], [ -115.757027600000015, 60.8412739 ], [ -115.7570755, 60.8411187 ], [ -115.756746799999988, 60.8410946 ] ] ] } },
{ "type": "Feature", "properties": { "osm_id": 876365701, "building": "yes", "street": "unnamed road", "area": "Hay River (other areas)", "flood_pixels": 7 }, "geometry": { "type": "Polygon", "coordinates": [ [ [ -115.75671490000002, 60.841024 ], [ -115.7566782, 60.841128 ], [ -115.756447600000016, 60.8411087 ], [ -115.7564844, 60.8410047 ], [ -115.75671490000002, 60.841024 ] ] ] } },
{ "type": "Feature", "properties": { "osm_id": 876365702, "building": "yes", "street": "unnamed road", "area": "Hay River (other areas)", "flood_pixels": 10 }, "geometry": { "type": "Polygon", "coordinates": [ [ [ -115.7565474, 60.840987 ], [ -115.7566044, 60.8408361 ], [ -115.756325800000013, 60.8408111 ], [ -115.756268800000015, 60.840962 ], [ -115.7565474, 60.840987 ] ] ] } },
{ "type": "Feature", "properties": { "osm_id": 876365720, "building": "yes", "street": "104th Street", "area": "Old Town Hay River", "flood_pixels": 8 }, "geometry": { "type": "Polygon", "coordinates": [ [ [ -115.743050600000018, 60.85540120000001 ], [ -115.7431008, 60.8555181 ], [ -115.7429304, 60.8555354 ], [ -115.742880200000016, 60.8554186 ], [ -115.743050600000018, 60.85540120000001 ] ] ] } },
{ "type": "Feature", "properties": { "osm_id": 876365751, "building": "yes", "street": "Lakeshore Drive", "area": "Old Town Hay River", "flood_pixels": 3 }, "geometry": { "type": "Polygon", "coordinates": [ [ [ -115.7438975, 60.8652482 ], [ -115.7437991, 60.8653133 ], [ -115.743517200000014, 60.86521230000001 ], [ -115.743615600000012, 60.86514720000001 ], [ -115.7438975, 60.8652482 ] ] ] } },
{ "type": "Feature", "properties": { "osm_id": 876365752, "building": "yes", "street": "Lakeshore Drive", "area": "Old Town Hay River", "flood_pixels": 10 }, "geometry": { "type": "Polygon", "coordinates": [ [ [ -115.7437426, 60.865016799999985 ], [ -115.7436533, 60.8650743 ], [ -115.7435286, 60.8650284 ], [ -115.7436179, 60.8649709 ], [ -115.7437426, 60.865016799999985 ] ] ] } },
{ "type": "Feature", "properties": { "osm_id": 876365753, "building": "yes", "street": "Lakeshore Drive", "area": "Old Town Hay River", "flood_pixels": 18 }, "geometry": { "type": "Polygon", "coordinates": [ [ [ -115.7427542, 60.8646539 ], [ -115.7426725, 60.8647136 ], [ -115.7424571, 60.8646437 ], [ -115.74253880000002, 60.864584 ], [ -115.7427542, 60.8646539 ] ] ] } },
{ "type": "Feature", "properties": { "osm_id": 876365771, "building": "yes", "street": "Hay River Highway", "area": "Vale Island", "flood_pixels": 3 }, "geometry": { "type": "Polygon", "coordinates": [ [ [ -115.767161200000018, 60.864793 ], [ -115.7671879, 60.8648526 ], [ -115.766867599999983, 60.8648866 ], [ -115.766841, 60.864827 ], [ -115.767161200000018, 60.864793 ] ] ] } },
{ "type": "Feature", "properties": { "osm_id": 876365772, "building": "yes", "street": "Hay River Highway", "area": "Vale Island", "flood_pixels": 13 }, "geometry": { "type": "Polygon", "coordinates": [ [ [ -115.7670479, 60.8646298 ], [ -115.7670625, 60.8646958 ], [ -115.766762299999982, 60.8647116 ], [ -115.7667477, 60.8646455 ], [ -115.7670479, 60.8646298 ] ] ] } },
{ "type": "Feature", "properties": { "osm_id": 876365773, "building": "yes", "street": "Hay River Highway", "area": "Vale Island", "flood_pixels": 3 }, "geometry": { "type": "Polygon", "coordinates": [ [ [ -115.7675097, 60.86498 ], [ -115.7675209, 60.8651262 ], [ -115.767317, 60.865129899999985 ], [ -115.767305900000011, 60.8649837 ], [ -115.7675097, 60.86498 ] ] ] } },
{ "type": "Feature", "properties": { "osm_id": 1171705760, "building": "yes", "street": "Studney Drive", "area": "Hay River (other areas)", "flood_pixels": 13 }, "geometry": { "type": "Polygon", "coordinates": [ [ [ -115.8023545, 60.805256199999988 ], [ -115.80278370000002, 60.8053439 ], [ -115.802709, 60.805430899999983 ], [ -115.80227979999998, 60.8053432 ], [ -115.8023545, 60.805256199999988 ] ] ] } },
{ "type": "Feature", "properties": { "osm_id": 1171705761, "building": "yes", "street": "Studney Drive", "area": "Hay River (other areas)", "flood_pixels": 26 }, "geometry": { "type": "Polygon", "coordinates": [ [ [ -115.8035481, 60.8045314 ], [ -115.8034582, 60.8046292 ], [ -115.802836, 60.8044931 ], [ -115.8029258, 60.8043953 ], [ -115.8035481, 60.8045314 ] ] ] } },
{ "type": "Feature", "properties": { "osm_id": 1359398187, "building": "yes", "street": "unnamed road", "area": "Hay River (other areas)", "flood_pixels": 6 }, "geometry": { "type": "Polygon", "coordinates": [ [ [ -115.7824685, 60.839491699999989 ], [ -115.7825481, 60.8395738 ], [ -115.7824248, 60.8396022 ], [ -115.7823451, 60.83952009999998 ], [ -115.7824685, 60.839491699999989 ] ] ] } },
{ "type": "Feature", "properties": { "osm_id": 1359398188, "building": "yes", "street": "unnamed road", "area": "Hay River (other areas)", "flood_pixels": 8 }, "geometry": { "type": "Polygon", "coordinates": [ [ [ -115.782798500000013, 60.839554 ], [ -115.7828676, 60.8396323 ], [ -115.782647, 60.8396786 ], [ -115.782577900000021, 60.8396003 ], [ -115.782798500000013, 60.839554 ] ] ] } },
{ "type": "Feature", "properties": { "osm_id": 1426742410, "building": "yes", "street": "unnamed road", "area": "Hay River (other areas)", "flood_pixels": 23 }, "geometry": { "type": "Polygon", "coordinates": [ [ [ -115.839520599999986, 60.7714187 ], [ -115.8396243, 60.7711345 ], [ -115.83993150000002, 60.7711613 ], [ -115.8398276, 60.7714454 ], [ -115.839520599999986, 60.7714187 ] ] ] } }
]
}
