{
"type": "FeatureCollection",
"name": "20220513_135646_16M17_roads",
"crs": { "type": "name", "properties": { "name": "urn:ogc:def:crs:OGC:1.3:CRS84" } },
"features": [
{ "type": "Feature", "properties": { "osm_id": 28802131, "name": "Reserve Highway", "highway": "tertiary", "flooded_m": 77.693899727729288 }, "geometry": { "type": "MultiLineString", "coordinates": [ [ [ -115.7229366580479, 60.856507236875828 ], [ -115.722821623806624, 60.856416351602043 ] ], [ [ -115.722568601145625, 60.856216443457505 ], [ -115.722361493357027, 60.856052809530127 ] ], [ [ -115.722131432041408, 60.855871037908081 ], [ -115.722033245111604, 60.85579345959362 ] ], [ [ -115.720626658906085, 60.854141284322154 ], [ -115.720536899999985, 60.8539818 ], [ -115.72053182756953, 60.853970178421541 ] ], [ [ -115.720456345343209, 60.853797238105749 ], [ -115.720413763589278, 60.853699676531143 ] ], [ [ -115.722069348595397, 60.849405367811961 ], [ -115.722105287830658, 60.849380782997422 ] ] ] } },
{ "type": "Feature", "properties": { "osm_id": 119964039, "name": null, "highway": "unclassified", "flooded_m": 32.11608190478762 }, "geometry": { "type": "LineString", "coordinates": [ [ -115.718509268770163, 60.855297809506482 ], [ -115.718493399999986, 60.8553063 ], [ -115.7183649, 60.8553577 ], [ -115.7181933, 60.8554079 ], [ -115.71813010000001, 60.8554196 ], [ -115.7180521, 60.855427199999987 ], [ -115.717998068163936, 60.855428633394624 ] ] } },
{ "type": "Feature", "properties": { "osm_id": 119964093, "name": null, "highway": "unclassified", "flooded_m": 18.082877629911696 }, "geometry": { "type": "LineString", "coordinates": [ [ -115.71911902585812, 60.855016979009378 ], [ -115.719419623126129, 60.854947311309623 ] ] } },
{ "type": "Feature", "properties": { "osm_id": 119964102, "name": null, "highway": "unclassified", "flooded_m": 31.941163742275027 }, "geometry": { "type": "LineString", "coordinates": [ [ -115.7188825, 60.8535689 ], [ -115.719005, 60.853572 ], [ -115.7190453, 60.8535671 ], [ -115.7191077, 60.8535481 ], [ -115.7192495, 60.8534743 ], [ -115.719338989514839, 60.853420065594051 ] ] } }
]
}
