{
"type": "FeatureCollection",
"name": "20220511_010511_16M2_roads",
"crs": { "type": "name", "properties": { "name": "urn:ogc:def:crs:OGC:1.3:CRS84" } },
"features": [
{ "type": "Feature", "properties": { "osm_id": 28801944, "name": "Fort Smith Highway", "highway": "primary", "flooded_m": 132.62922267621357 }, "geometry": { "type": "MultiLineString", "coordinates": [ [ [ -115.8210417, 60.7524985 ], [ -115.820461076272281, 60.752372626838515 ] ], [ [ -115.8203129943645, 60.752340523668003 ], [ -115.820279040091606, 60.752333162575972 ] ], [ [ -115.819799257950805, 60.752246213252619 ], [ -115.819281499999988, 60.7521586 ], [ -115.818818850147508, 60.752123984699793 ] ], [ [ -115.818452785802251, 60.752099422164036 ], [ -115.818086401696846, 60.752083567153001 ] ], [ [ -115.817720017964476, 60.75206771114248 ], [ -115.8176412, 60.7520643 ], [ -115.817536565867641, 60.752066857909142 ] ], [ [ -115.815323862748969, 60.752362513492066 ], [ -115.815139332854557, 60.752390841855892 ] ] ] } },
{ "type": "Feature", "properties": { "osm_id": 28801964, "name": "Fort Smith Highway", "highway": "primary", "flooded_m": 35.884912119763328 }, "geometry": { "type": "MultiLineString", "coordinates": [ [ [ -115.8238148, 60.7531672 ], [ -115.823553536795501, 60.753104203120827 ] ], [ [ -115.821370971927834, 60.752577904447321 ], [ -115.8210417, 60.7524985 ] ] ] } },
{ "type": "Feature", "properties": { "osm_id": 28801966, "name": "Fort Smith Highway", "highway": "primary", "flooded_m": 304.56877859447098 }, "geometry": { "type": "MultiLineString", "coordinates": [ [ [ -115.837955889295401, 60.759139098032421 ], [ -115.837544975494168, 60.758955955041621 ] ], [ [ -115.837471637834611, 60.758923268325844 ], [ -115.837236799999985, 60.758818599999984 ], [ -115.837110441972612, 60.758761725391167 ] ], [ [ -115.828263186759528, 60.754778720546724 ], [ -115.827292, 60.7543414 ], [ -115.827180164443732, 60.754286466611674 ] ], [ [ -115.826582792579714, 60.754011764976717 ], [ -115.8255787, 60.7536421 ], [ -115.825009900000012, 60.7534777 ], [ -115.825007811434148, 60.753477157382314 ] ], [ [ -115.824826047371658, 60.753429934165837 ], [ -115.8238148, 60.7531672 ] ] ] } },
{ "type": "Feature", "properties": { "osm_id": 119937375, "name": "Reserve Highway", "highway": "tertiary", "flooded_m": 30.280950474591204 }, "geometry": { "type": "LineString", "coordinates": [ [ -115.817318777864017, 60.752583540425228 ], [ -115.817253204216499, 60.75231358521939 ] ] } },
{ "type": "Feature", "properties": { "osm_id": 119937564, "name": null, "highway": "residential", "flooded_m": 7.6013231731658593 }, "geometry": { "type": "LineString", "coordinates": [ [ -115.82533572679715, 60.783003683416908 ], [ -115.825213700586687, 60.782970549047235 ] ] } },
{ "type": "Feature", "properties": { "osm_id": 119937566, "name": null, "highway": "track", "flooded_m": 194.86011671923615 }, "geometry": { "type": "MultiLineString", "coordinates": [ [ [ -115.830625482536988, 60.754585812433277 ], [ -115.830472618676339, 60.754574089239505 ] ], [ [ -115.829011948730994, 60.754373546759993 ], [ -115.8289269, 60.7543618 ], [ -115.82882947739219, 60.754345429752611 ] ], [ [ -115.828647098567444, 60.754314783792609 ], [ -115.828342500000019, 60.754263599999987 ], [ -115.8279978, 60.754205600000013 ], [ -115.827373670463416, 60.754012198303535 ] ], [ [ -115.826647736856117, 60.753791948718856 ], [ -115.8255879, 60.7535097 ], [ -115.825284300000021, 60.75346 ], [ -115.825140100000013, 60.753468099999985 ], [ -115.825009900000012, 60.7534777 ] ] ] } },
{ "type": "Feature", "properties": { "osm_id": 119937572, "name": null, "highway": "residential", "flooded_m": 10.003526316468987 }, "geometry": { "type": "LineString", "coordinates": [ [ -115.820496992747906, 60.751394212468526 ], [ -115.8205063, 60.7513946 ], [ -115.82068033176985, 60.751398041331122 ] ] } },
{ "type": "Feature", "properties": { "osm_id": 119937586, "name": "Miron Drive", "highway": "residential", "flooded_m": 233.25676834417226 }, "geometry": { "type": "MultiLineString", "coordinates": [ [ [ -115.840587944335383, 60.774274866451975 ], [ -115.8402036, 60.7745399 ], [ -115.84011359868019, 60.774601958931036 ] ], [ [ -115.840023040053879, 60.774664401838599 ], [ -115.839984988720033, 60.774690639291066 ] ], [ [ -115.839856378047941, 60.774779319524775 ], [ -115.839834735720459, 60.774794242383223 ] ], [ [ -115.839726567879467, 60.774867989270284 ], [ -115.839590022088018, 60.774956600666187 ] ], [ [ -115.839458556595019, 60.775041914605048 ], [ -115.839453475541546, 60.775045211920023 ] ], [ [ -115.839316928240066, 60.775133823031766 ], [ -115.839270530591492, 60.775163932213943 ] ], [ [ -115.839180380183592, 60.775222434001407 ], [ -115.839082503156376, 60.775285949553435 ] ], [ [ -115.839043831372081, 60.775311044828968 ], [ -115.838894474289631, 60.775407966623469 ] ], [ [ -115.837814858091974, 60.776108535882464 ], [ -115.837766271024364, 60.776140063385505 ] ], [ [ -115.837678301730008, 60.776197145288968 ], [ -115.837578232135868, 60.776262078569424 ] ], [ [ -115.837541744612963, 60.776285754553399 ], [ -115.837390191815643, 60.77638409348387 ] ], [ [ -115.837268628113605, 60.776462972655914 ], [ -115.837132068731279, 60.776551581493976 ] ], [ [ -115.836858947701316, 60.776728798743775 ], [ -115.836826062264365, 60.776750136610445 ] ], [ [ -115.836638016216995, 60.776872150447012 ], [ -115.836449260492969, 60.776994623552575 ] ], [ [ -115.836312696579938, 60.777083231537958 ], [ -115.8353846, 60.77768540000001 ] ] ] } },
{ "type": "Feature", "properties": { "osm_id": 119937601, "name": null, "highway": "residential", "flooded_m": 14.749404929766483 }, "geometry": { "type": "LineString", "coordinates": [ [ -115.8353846, 60.77768540000001 ], [ -115.8355956, 60.7777684 ] ] } },
{ "type": "Feature", "properties": { "osm_id": 119937606, "name": "Miron Drive", "highway": "residential", "flooded_m": 354.30405493895063 }, "geometry": { "type": "MultiLineString", "coordinates": [ [ [ -115.8353846, 60.77768540000001 ], [ -115.832816018907693, 60.779387460937798 ] ], [ [ -115.832548499619108, 60.779564718333937 ], [ -115.832499148342038, 60.779597418053058 ] ], [ [ -115.832310971763036, 60.779722101404957 ], [ -115.8318508, 60.780027 ], [ -115.831743035855879, 60.780096462114756 ] ], [ [ -115.831558447012426, 60.780215442634457 ], [ -115.831055783758927, 60.780539438735083 ] ], [ [ -115.830618144606404, 60.780821516066538 ], [ -115.830430079856995, 60.780942729944549 ] ] ] } },
{ "type": "Feature", "properties": { "osm_id": 119937613, "name": null, "highway": "residential", "flooded_m": 275.06015720688362 }, "geometry": { "type": "MultiLineString", "coordinates": [ [ [ -115.812980607709392, 60.751224162789505 ], [ -115.812240696072763, 60.751102001856239 ] ], [ [ -115.811273939768682, 60.751003647142639 ], [ -115.8108632, 60.7509831 ], [ -115.8104756, 60.750995599999989 ], [ -115.810290600000016, 60.7510141 ], [ -115.8093605, 60.7511989 ], [ -115.8090166, 60.7512323 ], [ -115.808943878610364, 60.7512293716591 ] ], [ [ -115.807844424231774, 60.751191103444732 ], [ -115.8064139, 60.7511595 ], [ -115.8060718, 60.7511909 ], [ -115.806009186920434, 60.751203178688954 ] ] ] } },
{ "type": "Feature", "properties": { "osm_id": 119937624, "name": null, "highway": "residential", "flooded_m": 10.377952805942899 }, "geometry": { "type": "LineString", "coordinates": [ [ -115.837236799999985, 60.758818599999984 ], [ -115.837105932783999, 60.758886283459731 ] ] } },
{ "type": "Feature", "properties": { "osm_id": 119937636, "name": null, "highway": "residential", "flooded_m": 20.014190111674818 }, "geometry": { "type": "LineString", "coordinates": [ [ -115.857259228343239, 60.754684864977875 ], [ -115.857626351948653, 60.754681225105813 ] ] } },
{ "type": "Feature", "properties": { "osm_id": 119937645, "name": null, "highway": "residential", "flooded_m": 7.7406682144666883 }, "geometry": { "type": "LineString", "coordinates": [ [ -115.8268609, 60.782074 ], [ -115.826967385820581, 60.782120031155934 ] ] } },
{ "type": "Feature", "properties": { "osm_id": 119937647, "name": null, "highway": "track", "flooded_m": 87.59714499943577 }, "geometry": { "type": "LineString", "coordinates": [ [ -115.839483408087801, 60.751071038985877 ], [ -115.839058, 60.751315599999984 ], [ -115.8386949, 60.7515474 ], [ -115.838526299999984, 60.7516665 ], [ -115.838497571792189, 60.751691052280258 ] ] } },
{ "type": "Feature", "properties": { "osm_id": 119937661, "name": null, "highway": "track", "flooded_m": 20.005008369983578 }, "geometry": { "type": "LineString", "coordinates": [ [ -115.842027576090274, 60.754722929099763 ], [ -115.841660549734755, 60.754723780287755 ] ] } },
{ "type": "Feature", "properties": { "osm_id": 119937668, "name": null, "highway": "residential", "flooded_m": 1.8577242431225844 }, "geometry": { "type": "LineString", "coordinates": [ [ -115.8176412, 60.7520643 ], [ -115.817640706612082, 60.752047623502428 ] ] } },
{ "type": "Feature", "properties": { "osm_id": 119937672, "name": "Miron Drive", "highway": "residential", "flooded_m": 198.61388089384937 }, "geometry": { "type": "MultiLineString", "coordinates": [ [ [ -115.8434191, 60.772646099999989 ], [ -115.8432932, 60.772573199999989 ], [ -115.8430967, 60.7726264 ], [ -115.842695400000011, 60.7729189 ], [ -115.842279733806478, 60.773185026514284 ] ], [ [ -115.842091790555031, 60.773305353595482 ], [ -115.84172778670245, 60.77353839678355 ] ], [ [ -115.841715899819334, 60.773546006950667 ], [ -115.841174232402125, 60.773892785864462 ] ], [ [ -115.841152053133598, 60.773906984965215 ], [ -115.841035841914618, 60.773981382769946 ] ], [ [ -115.840964101416375, 60.77402731043189 ], [ -115.84089745066214, 60.77406997952955 ] ], [ [ -115.840776148288157, 60.774147635629433 ], [ -115.840759058644664, 60.774158576143272 ] ] ] } },
{ "type": "Feature", "properties": { "osm_id": 119937688, "name": null, "highway": "tertiary", "flooded_m": 9.0331784163127491 }, "geometry": { "type": "LineString", "coordinates": [ [ -115.879201872399875, 60.84101516914798 ], [ -115.879282800000013, 60.841086 ] ] } },
{ "type": "Feature", "properties": { "osm_id": 119937700, "name": null, "highway": "residential", "flooded_m": 75.174284980143369 }, "geometry": { "type": "MultiLineString", "coordinates": [ [ [ -115.839176722607945, 60.773426567602144 ], [ -115.8391614, 60.77348820000001 ], [ -115.839172858705538, 60.773516325936448 ] ], [ [ -115.839311274276199, 60.773607314637502 ], [ -115.839444, 60.7736623 ], [ -115.839791156274089, 60.773791046797847 ] ], [ [ -115.840231770977311, 60.773969114796351 ], [ -115.840671211767642, 60.774157817458189 ] ] ] } },
{ "type": "Feature", "properties": { "osm_id": 119937703, "name": null, "highway": "track", "flooded_m": 233.31811236806561 }, "geometry": { "type": "MultiLineString", "coordinates": [ [ [ -115.827292, 60.7543414 ], [ -115.827177055190973, 60.75437164237335 ] ], [ [ -115.827160548516716, 60.754375985323136 ], [ -115.826991779136364, 60.754420388810338 ] ], [ [ -115.82644189186523, 60.754403891701628 ], [ -115.8263886, 60.7543998 ], [ -115.826289842270853, 60.754368371500206 ] ], [ [ -115.826260039465211, 60.754358887077281 ], [ -115.8257127, 60.754184700000017 ], [ -115.825535505897093, 60.754100328962892 ] ], [ [ -115.825134310526963, 60.753909297143508 ], [ -115.824994443352168, 60.753842697652203 ] ], [ [ -115.824633739810068, 60.753670942240824 ], [ -115.8246053, 60.7536574 ], [ -115.8242195, 60.7535234 ], [ -115.823969100000014, 60.753485900000022 ], [ -115.8236635, 60.7534577 ], [ -115.8233362, 60.7535418 ], [ -115.8228083, 60.7537395 ], [ -115.822795976936533, 60.753748411885454 ] ], [ [ -115.822726851183589, 60.753798402652556 ], [ -115.822418999107526, 60.754021034583516 ] ] ] } },
{ "type": "Feature", "properties": { "osm_id": 266086791, "name": "Hay River Highway", "highway": "primary", "flooded_m": 430.79670919537222 }, "geometry": { "type": "MultiLineString", "coordinates": [ [ [ -115.885665139227939, 60.726859701321324 ], [ -115.885670525729353, 60.727218912464984 ] ], [ [ -115.885675912307349, 60.72757812358973 ], [ -115.88567860562506, 60.727757729144997 ] ], [ [ -115.885681298961927, 60.727937334695518 ], [ -115.8856848, 60.7281708 ], [ -115.885684953744615, 60.728206739811135 ] ], [ [ -115.885693020285004, 60.730092429764127 ], [ -115.885694556739523, 60.7304516087436 ] ], [ [ -115.885695324963237, 60.730631198226213 ], [ -115.885696093184649, 60.730810787704094 ] ], [ [ -115.885690867324925, 60.731080118915884 ], [ -115.885684160717091, 60.731169854732869 ] ], [ [ -115.885553342651193, 60.731797308476331 ], [ -115.885518800000014, 60.7319048 ], [ -115.8852469, 60.7323425 ], [ -115.8848659, 60.73275240000001 ], [ -115.8843756, 60.7331434 ], [ -115.883794899999984, 60.733497699999987 ], [ -115.883123700000013, 60.7338154 ], [ -115.883051874584169, 60.733841704145036 ] ] ] } },
{ "type": "Feature", "properties": { "osm_id": 266086792, "name": "Rose Hill", "highway": "residential", "flooded_m": 126.01703651385917 }, "geometry": { "type": "MultiLineString", "coordinates": [ [ [ -115.861332, 60.738739 ], [ -115.8616175, 60.7386414 ], [ -115.861816600000012, 60.73860729999997 ], [ -115.8624659, 60.7386605 ], [ -115.862597240716696, 60.738664911342241 ] ], [ [ -115.86278067604195, 60.738664067306424 ], [ -115.862841799999984, 60.738659499999983 ], [ -115.862964863479235, 60.738641956943162 ] ], [ [ -115.864812269779293, 60.738263777947736 ], [ -115.864852200000016, 60.7382565 ], [ -115.8649987, 60.7382298 ], [ -115.865286, 60.73818330000001 ], [ -115.8655151, 60.7381576 ], [ -115.865549734848585, 60.738154593860848 ] ] ] } },
{ "type": "Feature", "properties": { "osm_id": 266086812, "name": "Wildrose Drive", "highway": "residential", "flooded_m": 24.300119294881348 }, "geometry": { "type": "LineString", "coordinates": [ [ -115.864958848636093, 60.739795643692609 ], [ -115.864913900000019, 60.739823800000011 ], [ -115.8647509, 60.739937300000015 ], [ -115.864699576259383, 60.739973032999792 ] ] } },
{ "type": "Feature", "properties": { "osm_id": 266086813, "name": "Wildrose Drive", "highway": "residential", "flooded_m": 89.228176972380297 }, "geometry": { "type": "MultiLineString", "coordinates": [ [ [ -115.862829499433815, 60.743997821331966 ], [ -115.863162226199265, 60.744090433231889 ] ], [ [ -115.863320876718916, 60.744134591888844 ], [ -115.864410779040682, 60.74443794607847 ] ] ] } },
{ "type": "Feature", "properties": { "osm_id": 266086819, "name": null, "highway": "residential", "flooded_m": 31.944815651427184 }, "geometry": { "type": "MultiLineString", "coordinates": [ [ [ -115.8490713, 60.7473158 ], [ -115.84908221473269, 60.747318861709616 ] ], [ [ -115.849316107479424, 60.747384470995343 ], [ -115.8493458, 60.747392799999986 ], [ -115.849417700000018, 60.7474205 ], [ -115.849559600000021, 60.747463399999987 ], [ -115.849626538998848, 60.747487647007233 ] ], [ [ -115.849841641669371, 60.747568561446194 ], [ -115.849988235771889, 60.747633403652465 ] ] ] } },
{ "type": "Feature", "properties": { "osm_id": 266086871, "name": null, "highway": "residential", "flooded_m": 15.272607313506347 }, "geometry": { "type": "MultiLineString", "coordinates": [ [ [ -115.832308255543893, 60.749506890845602 ], [ -115.832348347715254, 60.74948266466685 ] ], [ [ -115.832495909927701, 60.749391672619147 ], [ -115.832621702555215, 60.749305459169172 ] ] ] } },
{ "type": "Feature", "properties": { "osm_id": 266086911, "name": null, "highway": "residential", "flooded_m": 116.91813359311267 }, "geometry": { "type": "MultiLineString", "coordinates": [ [ [ -115.845111, 60.7477235 ], [ -115.8452996, 60.7477886 ], [ -115.845354200000017, 60.7478019 ], [ -115.845531, 60.7478348 ], [ -115.845760226432716, 60.747869929223945 ] ], [ [ -115.850689515765211, 60.748543530844003 ], [ -115.850835681584329, 60.748564790748205 ] ], [ [ -115.85451571160749, 60.749287263825096 ], [ -115.8546497, 60.7493305 ], [ -115.854878558084849, 60.74940193571701 ] ], [ [ -115.854896840556293, 60.749407642373548 ], [ -115.855604358341054, 60.74962848218923 ] ] ] } },
{ "type": "Feature", "properties": { "osm_id": 266086925, "name": null, "highway": "residential", "flooded_m": 29.011891417568961 }, "geometry": { "type": "LineString", "coordinates": [ [ -115.8856848, 60.7281708 ], [ -115.885153012511608, 60.728174515734061 ] ] } },
{ "type": "Feature", "properties": { "osm_id": 266086928, "name": null, "highway": "residential", "flooded_m": 12.995426922521911 }, "geometry": { "type": "LineString", "coordinates": [ [ -115.850672933508449, 60.748383812824351 ], [ -115.850517506307952, 60.748472273076729 ] ] } },
{ "type": "Feature", "properties": { "osm_id": 266086990, "name": null, "highway": "residential", "flooded_m": 368.50243828312131 }, "geometry": { "type": "MultiLineString", "coordinates": [ [ [ -115.8490713, 60.7473158 ], [ -115.848835496617198, 60.747290555865185 ] ], [ [ -115.847252629355964, 60.747180355273663 ], [ -115.8472468, 60.747180499999985 ], [ -115.847187562201071, 60.747186613030053 ] ], [ [ -115.846884373074445, 60.74721790011079 ], [ -115.8468679, 60.7472196 ], [ -115.846693599999981, 60.7472288 ], [ -115.84658, 60.7472295 ], [ -115.8463754, 60.7472201 ], [ -115.846296, 60.7472247 ], [ -115.846217700000011, 60.747238699999983 ], [ -115.8461644, 60.747254899999987 ], [ -115.8459262, 60.7473536 ], [ -115.845111, 60.7477235 ], [ -115.8448826, 60.7478232 ], [ -115.844709, 60.7478949 ], [ -115.844457100000014, 60.7479989 ], [ -115.844267, 60.7480886 ], [ -115.844150616246736, 60.748148193562891 ] ], [ [ -115.844098009718465, 60.748178243127306 ], [ -115.8440168, 60.748226099999968 ], [ -115.844001797392039, 60.748236703303192 ] ], [ [ -115.843910115262346, 60.748301500742215 ], [ -115.8438763, 60.7483254 ], [ -115.8437604, 60.748397699999984 ], [ -115.843731034910604, 60.748413953933181 ] ], [ [ -115.843162765805417, 60.748678430979538 ], [ -115.842999399999982, 60.7487371 ], [ -115.842893225421548, 60.748765898487683 ] ], [ [ -115.842791633820397, 60.748793453774368 ], [ -115.8427616, 60.7488016 ], [ -115.842552222470189, 60.748852748940848 ] ], [ [ -115.842421419026152, 60.748884702729981 ], [ -115.842275699999988, 60.7489203 ], [ -115.8420408, 60.748986400000014 ], [ -115.841774099999981, 60.7490711 ], [ -115.8416135, 60.749127 ], [ -115.8414547, 60.7492007 ], [ -115.840931839855202, 60.749490871163921 ] ] ] } },
{ "type": "Feature", "properties": { "osm_id": 266087028, "name": null, "highway": "residential", "flooded_m": 27.547121353416379 }, "geometry": { "type": "MultiLineString", "coordinates": [ [ [ -115.8490713, 60.7473158 ], [ -115.849082300422836, 60.747316468913446 ] ], [ [ -115.849631140526128, 60.747359094284022 ], [ -115.84993346687844, 60.747389764847355 ] ], [ [ -115.849996738879312, 60.747395778360968 ], [ -115.850179659809314, 60.747410725833952 ] ] ] } },
{ "type": "Feature", "properties": { "osm_id": 266087169, "name": null, "highway": "residential", "flooded_m": 28.321158388461676 }, "geometry": { "type": "LineString", "coordinates": [ [ -115.858874772618279, 60.748274243594317 ], [ -115.859130475205831, 60.748495573662417 ] ] } },
{ "type": "Feature", "properties": { "osm_id": 266087178, "name": null, "highway": "residential", "flooded_m": 126.72231274196568 }, "geometry": { "type": "MultiLineString", "coordinates": [ [ [ -115.882533159237965, 60.727282596399441 ], [ -115.8833264, 60.7275536 ], [ -115.883691394485581, 60.727651409714056 ] ], [ [ -115.883886135954711, 60.727697933956271 ], [ -115.884068199999987, 60.7277354 ], [ -115.884250884406669, 60.727753743735931 ] ], [ [ -115.884433590647035, 60.727772089394577 ], [ -115.884616297098418, 60.727790434804831 ] ], [ [ -115.885081352873826, 60.727932348026286 ], [ -115.8850991, 60.7279649 ], [ -115.885098329100288, 60.72811207235106 ] ] ] } },
{ "type": "Feature", "properties": { "osm_id": 744108885, "name": "Hay River Highway", "highway": "primary", "flooded_m": 775.9082060276088 }, "geometry": { "type": "MultiLineString", "coordinates": [ [ [ -115.843541569387298, 60.772566327179568 ], [ -115.8434191, 60.772646099999989 ], [ -115.843270255855643, 60.77274357273852 ] ], [ [ -115.843212289354724, 60.772781532733092 ], [ -115.842999585309386, 60.772920823304524 ] ], [ [ -115.842648169047791, 60.77315094702859 ], [ -115.842272081619114, 60.773397221877879 ] ], [ [ -115.842084035737514, 60.773520358898168 ], [ -115.842052214822715, 60.773541195887418 ] ], [ [ -115.841916873188069, 60.773629819983597 ], [ -115.841510843793429, 60.773895691434348 ] ], [ [ -115.841375499164997, 60.773984314971997 ], [ -115.840767674109358, 60.774382310492413 ] ], [ [ -115.840698764795604, 60.774427430565588 ], [ -115.84057961666845, 60.774505445356127 ] ], [ [ -115.840563415676272, 60.774516053265366 ], [ -115.840022011713856, 60.77487054266804 ] ], [ [ -115.840015435675724, 60.774874848329716 ], [ -115.839886658851952, 60.774959164669554 ] ], [ [ -115.839827372454764, 60.774997982115018 ], [ -115.839615950882575, 60.775136408253644 ] ], [ [ -115.839451241677693, 60.775244248876845 ], [ -115.838887034673974, 60.775613646997485 ] ], [ [ -115.838127003528953, 60.776111237980246 ], [ -115.837720911257605, 60.776377097699871 ] ], [ [ -115.837570501085153, 60.776475566508473 ], [ -115.837194335624332, 60.776721826799054 ] ], [ [ -115.837179444415028, 60.776731575370533 ], [ -115.836818164382422, 60.77696808601101 ] ], [ [ -115.83677333642234, 60.776997432156833 ], [ -115.836630076593536, 60.777091215212444 ] ], [ [ -115.836502594017247, 60.777174669315933 ], [ -115.83623184861743, 60.777351905916262 ] ], [ [ -115.836096474794502, 60.777440524006884 ], [ -115.835825724902563, 60.777617759769051 ] ], [ [ -115.835690348833538, 60.777706377440559 ], [ -115.8355956, 60.7777684 ], [ -115.83555560361674, 60.777795000451036 ] ], [ [ -115.835289056894055, 60.777972271616271 ], [ -115.835125139068893, 60.778081286547106 ] ], [ [ -115.835022507222163, 60.778149542239667 ], [ -115.834755954600993, 60.778326812321176 ] ], [ [ -115.834748789384278, 60.778331577494143 ], [ -115.834560612337143, 60.778456722562574 ] ], [ [ -115.834489399030488, 60.778504081860838 ], [ -115.833689714622594, 60.77903588722841 ] ], [ [ -115.833619705052797, 60.779082443853667 ], [ -115.833556431307173, 60.779124520982151 ] ], [ [ -115.833431519186092, 60.779207587301642 ], [ -115.833289862464142, 60.779301788083238 ] ], [ [ -115.833243331849346, 60.779332730479538 ], [ -115.833156576936545, 60.779390421430534 ] ], [ [ -115.832890003669135, 60.779567687718682 ], [ -115.832623427452077, 60.779744953464892 ] ], [ [ -115.832490138237432, 60.779833586134743 ], [ -115.832090266168876, 60.780099483331369 ] ], [ [ -115.830890610140457, 60.780897167604195 ], [ -115.830796762695272, 60.780959567212449 ] ], [ [ -115.830757311338786, 60.780985798512567 ], [ -115.83042034538839, 60.781209845734814 ] ], [ [ -115.829824199076583, 60.781606211076522 ], [ -115.829667493131495, 60.781710399537694 ] ], [ [ -115.829305547509733, 60.781960856626021 ], [ -115.829290669735599, 60.781971323124488 ] ], [ [ -115.829179473896872, 60.782049549010083 ], [ -115.829102177586634, 60.782103926414543 ] ] ] } },
{ "type": "Feature", "properties": { "osm_id": 876108353, "name": null, "highway": "service", "flooded_m": 32.695620752891607 }, "geometry": { "type": "LineString", "coordinates": [ [ -115.825699674424243, 60.784746989152019 ], [ -115.825654899999989, 60.7847429 ], [ -115.8254403, 60.78476 ], [ -115.8252659, 60.7848451 ], [ -115.82524598046048, 60.784888526947633 ] ] } },
{ "type": "Feature", "properties": { "osm_id": 1276094811, "name": null, "highway": "service", "flooded_m": 112.27603778378945 }, "geometry": { "type": "MultiLineString", "coordinates": [ [ [ -115.839141, 60.7736747 ], [ -115.839487, 60.773763699999989 ], [ -115.8396104, 60.7738253 ], [ -115.8396506, 60.773872400000023 ], [ -115.839551400000019, 60.7739497 ], [ -115.839529194182091, 60.773968365774998 ] ], [ [ -115.839496072342342, 60.774004163799383 ], [ -115.8394334, 60.774127799999988 ], [ -115.8394763, 60.7742077 ], [ -115.839488330598087, 60.774218320276397 ] ], [ [ -115.839648270719678, 60.774328562108856 ], [ -115.8396667, 60.7743399 ], [ -115.8402036, 60.7745399 ] ] ] } },
{ "type": "Feature", "properties": { "osm_id": 1287791975, "name": null, "highway": "service", "flooded_m": 77.039530384334427 }, "geometry": { "type": "MultiLineString", "coordinates": [ [ [ -115.865835486467347, 60.738007223773899 ], [ -115.86577300268948, 60.737737320084427 ] ], [ [ -115.865627211190869, 60.737107544664923 ], [ -115.865530599999985, 60.7366902 ] ] ] } },
{ "type": "Feature", "properties": { "osm_id": 1287791976, "name": null, "highway": "service", "flooded_m": 40.058981438661483 }, "geometry": { "type": "MultiLineString", "coordinates": [ [ [ -115.864852200000016, 60.7382565 ], [ -115.8648440364083, 60.738178420149893 ] ], [ [ -115.864797054935593, 60.737729063583338 ], [ -115.864778262694742, 60.737549320944765 ] ], [ [ -115.864740678810023, 60.737189835647087 ], [ -115.864731282963191, 60.737099964318425 ] ], [ [ -115.864693700073346, 60.736740478986583 ], [ -115.864692500000018, 60.736729 ] ] ] } },
{ "type": "Feature", "properties": { "osm_id": 1287791977, "name": null, "highway": "service", "flooded_m": 34.720508319712827 }, "geometry": { "type": "MultiLineString", "coordinates": [ [ [ -115.864030768279747, 60.737812367636231 ], [ -115.864010246129922, 60.737722402021753 ] ], [ [ -115.863927242580246, 60.737358523523234 ], [ -115.863877100000011, 60.737138699999988 ] ] ] } },
{ "type": "Feature", "properties": { "osm_id": 1425949289, "name": null, "highway": "service", "flooded_m": 10.605123989928618 }, "geometry": { "type": "LineString", "coordinates": [ [ -115.867999665133951, 60.736319463029069 ], [ -115.867938087419233, 60.736229151539384 ] ] } },
{ "type": "Feature", "properties": { "osm_id": 1425949292, "name": null, "highway": "service", "flooded_m": 31.908052715686999 }, "geometry": { "type": "LineString", "coordinates": [ [ -115.8647509, 60.739937300000015 ], [ -115.865064600000011, 60.7399939 ], [ -115.865299915755585, 60.740036403524506 ] ] } },
{ "type": "Feature", "properties": { "osm_id": 1425949299, "name": null, "highway": "service", "flooded_m": 52.900276842439496 }, "geometry": { "type": "MultiLineString", "coordinates": [ [ [ -115.863279393769858, 60.738883503600924 ], [ -115.863147560696618, 60.739061969891488 ] ], [ [ -115.863081643607572, 60.739151202984964 ], [ -115.8630552, 60.739187 ], [ -115.863232700000012, 60.7394183 ] ] ] } },
{ "type": "Feature", "properties": { "osm_id": 1425949304, "name": null, "highway": "service", "flooded_m": 29.579445179981168 }, "geometry": { "type": "LineString", "coordinates": [ [ -115.844709, 60.7478949 ], [ -115.8448069, 60.7481561 ] ] } }
]
}
