{
"type": "FeatureCollection",
"name": "20220511_141309_16M9_buildings",
"crs": { "type": "name", "properties": { "name": "urn:ogc:def:crs:OGC:1.3:CRS84" } },
"features": [
{ "type": "Feature", "properties": { "osm_id": 1276094812, "building": "yes", "street": "unnamed road", "area": "Hay River (other areas)", "flood_pixels": 19 }, "geometry": { "type": "Polygon", "coordinates": [ [ [ -115.839092400000013, 60.7740291 ], [ -115.839052200000012, 60.7740609 ], [ -115.838902, 60.7740158 ], [ -115.8390551, 60.773894400000017 ], [ -115.8392093, 60.7739408 ], [ -115.839178800000013, 60.773964899999989 ], [ -115.8392052, 60.7739729 ], [ -115.8391227, 60.7740383 ], [ -115.839092400000013, 60.7740291 ] ] ] } },
{ "type": "Feature", "properties": { "osm_id": 1425949281, "building": "yes", "street": "unnamed road", "area": "Hay River (other areas)", "flood_pixels": 20 }, "geometry": { "type": "Polygon", "coordinates": [ [ [ -115.882227, 60.7277538 ], [ -115.882035800000011, 60.7276065 ], [ -115.881791, 60.7276824 ], [ -115.881982199999982, 60.727829699999987 ], [ -115.882227, 60.7277538 ] ] ] } },
{ "type": "Feature", "properties": { "osm_id": 1425949282, "building": "yes", "street": "unnamed road", "area": "Hay River (other areas)", "flood_pixels": 6 }, "geometry": { "type": "Polygon", "coordinates": [ [ [ -115.8830733, 60.7281646 ], [ -115.8828751, 60.7281931 ], [ -115.8830046, 60.728408399999985 ], [ -115.8832027, 60.7283799 ], [ -115.8830733, 60.7281646 ] ] ] } },
{ "type": "Feature", "properties": { "osm_id": 1425949283, "building": "yes", "street": "unnamed road", "area": "Hay River (other areas)", "flood_pixels": 19 }, "geometry": { "type": "Polygon", "coordinates": [ [ [ -115.883619, 60.7284748 ], [ -115.883406500000021, 60.7284955 ], [ -115.8834734, 60.7286592 ], [ -115.883686, 60.7286384 ], [ -115.883619, 60.7284748 ] ] ] } },
{ "type": "Feature", "properties": { "osm_id": 1425949298, "building": "yes", "street": "Wildrose Drive", "area": "Hay River (other areas)", "flood_pixels": 14 }, "geometry": { "type": "Polygon", "coordinates": [ [ [ -115.8624826, 60.7403113 ], [ -115.86003580000002, 60.7394346 ], [ -115.8597294, 60.739638800000016 ], [ -115.8601428, 60.739787 ], [ -115.8597995, 60.7400158 ], [ -115.8615457, 60.740641799999985 ], [ -115.8618584, 60.7404334 ], [ -115.8621453, 60.7405362 ], [ -115.8624826, 60.7403113 ] ] ] } },
{ "type": "Feature", "properties": { "osm_id": 1426742408, "building": "yes", "street": "Miron Drive", "area": "Hay River (other areas)", "flood_pixels": 11 }, "geometry": { "type": "Polygon", "coordinates": [ [ [ -115.8412065, 60.7726911 ], [ -115.8408795, 60.77290150000001 ], [ -115.8414113, 60.7730985 ], [ -115.8417382, 60.7728881 ], [ -115.8412065, 60.7726911 ] ] ] } },
{ "type": "Feature", "properties": { "osm_id": 1426742410, "building": "yes", "street": "unnamed road", "area": "Hay River (other areas)", "flood_pixels": 16 }, "geometry": { "type": "Polygon", "coordinates": [ [ [ -115.839520599999986, 60.7714187 ], [ -115.8396243, 60.7711345 ], [ -115.83993150000002, 60.7711613 ], [ -115.8398276, 60.7714454 ], [ -115.839520599999986, 60.7714187 ] ] ] } },
{ "type": "Feature", "properties": { "osm_id": 1499772475, "building": "yes", "street": "unnamed road", "area": "Hay River (other areas)", "flood_pixels": 7 }, "geometry": { "type": "Polygon", "coordinates": [ [ [ -115.8571477, 60.7467569 ], [ -115.8570408, 60.7466923 ], [ -115.857266700000011, 60.7466031 ], [ -115.8573736, 60.7466677 ], [ -115.8571477, 60.7467569 ] ] ] } }
]
}
