{
"type": "FeatureCollection",
"name": "20220511_010511_16M2_buildings",
"crs": { "type": "name", "properties": { "name": "urn:ogc:def:crs:OGC:1.3:CRS84" } },
"features": [
{ "type": "Feature", "properties": { "osm_id": 744110031, "building": "yes", "street": "Miron Drive", "area": "Hay River (other areas)", "flood_pixels": 7 }, "geometry": { "type": "Polygon", "coordinates": [ [ [ -115.827886799999987, 60.7820361 ], [ -115.827646700000017, 60.7819565 ], [ -115.8278542, 60.7818075 ], [ -115.8277924, 60.781787 ], [ -115.827859800000013, 60.7817386 ], [ -115.827799, 60.7817184 ], [ -115.8278982, 60.7816472 ], [ -115.8282854, 60.7817757 ], [ -115.8281678, 60.7818602 ], [ -115.8281431, 60.781852 ], [ -115.827886799999987, 60.7820361 ] ] ] } },
{ "type": "Feature", "properties": { "osm_id": 876108326, "building": "yes", "street": "unnamed road", "area": "Hay River (other areas)", "flood_pixels": 6 }, "geometry": { "type": "Polygon", "coordinates": [ [ [ -115.8259756, 60.782798 ], [ -115.8258511, 60.7829234 ], [ -115.8256238, 60.782869599999984 ], [ -115.8257483, 60.7827442 ], [ -115.8259756, 60.782798 ] ] ] } },
{ "type": "Feature", "properties": { "osm_id": 876108327, "building": "yes", "street": "unnamed road", "area": "Hay River (other areas)", "flood_pixels": 9 }, "geometry": { "type": "Polygon", "coordinates": [ [ [ -115.826687, 60.781682 ], [ -115.826513299999988, 60.7817634 ], [ -115.826358199999987, 60.7816845 ], [ -115.8265318, 60.7816031 ], [ -115.826687, 60.781682 ] ] ] } },
{ "type": "Feature", "properties": { "osm_id": 876108328, "building": "yes", "street": "unnamed road", "area": "Hay River (other areas)", "flood_pixels": 6 }, "geometry": { "type": "Polygon", "coordinates": [ [ [ -115.8261201, 60.781754699999972 ], [ -115.8259548, 60.7818935 ], [ -115.826256700000016, 60.7819792 ], [ -115.8263317, 60.7819162 ], [ -115.8262254, 60.781886 ], [ -115.8262803, 60.7818399 ], [ -115.8262086, 60.7818196 ], [ -115.8262441, 60.7817898 ], [ -115.8261201, 60.781754699999972 ] ] ] } },
{ "type": "Feature", "properties": { "osm_id": 876108329, "building": "yes", "street": "unnamed road", "area": "Hay River (other areas)", "flood_pixels": 3 }, "geometry": { "type": "Polygon", "coordinates": [ [ [ -115.826081500000015, 60.7819549 ], [ -115.825985299999985, 60.7820292 ], [ -115.825817, 60.781977299999987 ], [ -115.825913200000016, 60.781903 ], [ -115.826081500000015, 60.7819549 ] ] ] } },
{ "type": "Feature", "properties": { "osm_id": 876108330, "building": "yes", "street": "unnamed road", "area": "Hay River (other areas)", "flood_pixels": 13 }, "geometry": { "type": "Polygon", "coordinates": [ [ [ -115.826179, 60.782142399999984 ], [ -115.8260395, 60.782229 ], [ -115.8258911, 60.782172099999983 ], [ -115.82603060000001, 60.7820854 ], [ -115.826179, 60.782142399999984 ] ] ] } },
{ "type": "Feature", "properties": { "osm_id": 876108335, "building": "yes", "street": "unnamed road", "area": "Hay River (other areas)", "flood_pixels": 12 }, "geometry": { "type": "Polygon", "coordinates": [ [ [ -115.8261903, 60.7824204 ], [ -115.826025700000017, 60.7825148 ], [ -115.8258583, 60.7824453 ], [ -115.826023, 60.7823509 ], [ -115.8261903, 60.7824204 ] ] ] } },
{ "type": "Feature", "properties": { "osm_id": 876108336, "building": "yes", "street": "unnamed road", "area": "Hay River (other areas)", "flood_pixels": 11 }, "geometry": { "type": "Polygon", "coordinates": [ [ [ -115.825532, 60.7825277 ], [ -115.825434, 60.7825778 ], [ -115.825272700000014, 60.7825027 ], [ -115.82511190000001, 60.7825851 ], [ -115.8249569, 60.782512899999986 ], [ -115.825215699999987, 60.7823805 ], [ -115.825532, 60.7825277 ] ] ] } },
{ "type": "Feature", "properties": { "osm_id": 876108337, "building": "yes", "street": "unnamed road", "area": "Hay River (other areas)", "flood_pixels": 16 }, "geometry": { "type": "Polygon", "coordinates": [ [ [ -115.825955800000017, 60.7825884 ], [ -115.825869700000013, 60.7826758 ], [ -115.825722700000014, 60.7826412 ], [ -115.825808899999984, 60.782553900000011 ], [ -115.825955800000017, 60.7825884 ] ] ] } },
{ "type": "Feature", "properties": { "osm_id": 1276094812, "building": "yes", "street": "unnamed road", "area": "Hay River (other areas)", "flood_pixels": 15 }, "geometry": { "type": "Polygon", "coordinates": [ [ [ -115.839092400000013, 60.7740291 ], [ -115.839052200000012, 60.7740609 ], [ -115.838902, 60.7740158 ], [ -115.8390551, 60.773894400000017 ], [ -115.8392093, 60.7739408 ], [ -115.839178800000013, 60.773964899999989 ], [ -115.8392052, 60.7739729 ], [ -115.8391227, 60.7740383 ], [ -115.839092400000013, 60.7740291 ] ] ] } },
{ "type": "Feature", "properties": { "osm_id": 1425949281, "building": "yes", "street": "unnamed road", "area": "Hay River (other areas)", "flood_pixels": 23 }, "geometry": { "type": "Polygon", "coordinates": [ [ [ -115.882227, 60.7277538 ], [ -115.882035800000011, 60.7276065 ], [ -115.881791, 60.7276824 ], [ -115.881982199999982, 60.727829699999987 ], [ -115.882227, 60.7277538 ] ] ] } },
{ "type": "Feature", "properties": { "osm_id": 1425949282, "building": "yes", "street": "unnamed road", "area": "Hay River (other areas)", "flood_pixels": 13 }, "geometry": { "type": "Polygon", "coordinates": [ [ [ -115.8830733, 60.7281646 ], [ -115.8828751, 60.7281931 ], [ -115.8830046, 60.728408399999985 ], [ -115.8832027, 60.7283799 ], [ -115.8830733, 60.7281646 ] ] ] } },
{ "type": "Feature", "properties": { "osm_id": 1425949283, "building": "yes", "street": "unnamed road", "area": "Hay River (other areas)", "flood_pixels": 5 }, "geometry": { "type": "Polygon", "coordinates": [ [ [ -115.883619, 60.7284748 ], [ -115.883406500000021, 60.7284955 ], [ -115.8834734, 60.7286592 ], [ -115.883686, 60.7286384 ], [ -115.883619, 60.7284748 ] ] ] } },
{ "type": "Feature", "properties": { "osm_id": 1425949298, "building": "yes", "street": "Wildrose Drive", "area": "Hay River (other areas)", "flood_pixels": 9 }, "geometry": { "type": "Polygon", "coordinates": [ [ [ -115.8624826, 60.7403113 ], [ -115.86003580000002, 60.7394346 ], [ -115.8597294, 60.739638800000016 ], [ -115.8601428, 60.739787 ], [ -115.8597995, 60.7400158 ], [ -115.8615457, 60.740641799999985 ], [ -115.8618584, 60.7404334 ], [ -115.8621453, 60.7405362 ], [ -115.8624826, 60.7403113 ] ] ] } },
{ "type": "Feature", "properties": { "osm_id": 1425949300, "building": "yes", "street": "Wildrose Drive", "area": "Hay River (other areas)", "flood_pixels": 13 }, "geometry": { "type": "Polygon", "coordinates": [ [ [ -115.8638666, 60.7395533 ], [ -115.863776, 60.7396668 ], [ -115.8636259, 60.739639099999984 ], [ -115.863478699999987, 60.739673699999976 ], [ -115.8633824, 60.7396198 ], [ -115.8633824, 60.7395173 ], [ -115.8636429, 60.7394689 ], [ -115.8638666, 60.7395533 ] ] ] } },
{ "type": "Feature", "properties": { "osm_id": 1425949302, "building": "yes", "street": "unnamed road", "area": "Hay River (other areas)", "flood_pixels": 4 }, "geometry": { "type": "Polygon", "coordinates": [ [ [ -115.8646015, 60.7433686 ], [ -115.8645169, 60.7431554 ], [ -115.864316100000011, 60.7431745 ], [ -115.8644007, 60.7433876 ], [ -115.8646015, 60.7433686 ] ] ] } },
{ "type": "Feature", "properties": { "osm_id": 1425949308, "building": "yes", "street": "unnamed road", "area": "Hay River (other areas)", "flood_pixels": 15 }, "geometry": { "type": "Polygon", "coordinates": [ [ [ -115.832866900000013, 60.749557599999982 ], [ -115.8327063, 60.749687 ], [ -115.8327682, 60.7497965 ], [ -115.8329894, 60.7497667 ], [ -115.832940199999982, 60.7496797 ], [ -115.8330312, 60.749606300000011 ], [ -115.832866900000013, 60.749557599999982 ] ] ] } },
{ "type": "Feature", "properties": { "osm_id": 1425949310, "building": "yes", "street": "unnamed road", "area": "Hay River (other areas)", "flood_pixels": 3 }, "geometry": { "type": "Polygon", "coordinates": [ [ [ -115.8490711, 60.7474576 ], [ -115.8490112, 60.747550299999986 ], [ -115.8486808, 60.7474993 ], [ -115.848740600000014, 60.7474066 ], [ -115.8490711, 60.7474576 ] ] ] } },
{ "type": "Feature", "properties": { "osm_id": 1425949311, "building": "yes", "street": "unnamed road", "area": "Hay River (other areas)", "flood_pixels": 10 }, "geometry": { "type": "Polygon", "coordinates": [ [ [ -115.84919210000001, 60.7475801 ], [ -115.8490438, 60.747560199999988 ], [ -115.848999800000016, 60.74763870000001 ], [ -115.8491481, 60.747658599999987 ], [ -115.84919210000001, 60.7475801 ] ] ] } },
{ "type": "Feature", "properties": { "osm_id": 1425949320, "building": "yes", "street": "unnamed road", "area": "Hay River (other areas)", "flood_pixels": 11 }, "geometry": { "type": "Polygon", "coordinates": [ [ [ -115.868072399999988, 60.735897 ], [ -115.8679165, 60.7357705 ], [ -115.867606, 60.735862 ], [ -115.8677275, 60.7359606 ], [ -115.867880600000021, 60.735915499999983 ], [ -115.867915, 60.735943399999982 ], [ -115.868072399999988, 60.735897 ] ] ] } },
{ "type": "Feature", "properties": { "osm_id": 1425949321, "building": "yes", "street": "unnamed road", "area": "Hay River (other areas)", "flood_pixels": 9 }, "geometry": { "type": "Polygon", "coordinates": [ [ [ -115.868981799999986, 60.7356586 ], [ -115.8686942, 60.7356982 ], [ -115.8687512, 60.735797200000015 ], [ -115.869038799999984, 60.7357576 ], [ -115.868981799999986, 60.7356586 ] ] ] } },
{ "type": "Feature", "properties": { "osm_id": 1426742408, "building": "yes", "street": "Miron Drive", "area": "Hay River (other areas)", "flood_pixels": 3 }, "geometry": { "type": "Polygon", "coordinates": [ [ [ -115.8412065, 60.7726911 ], [ -115.8408795, 60.77290150000001 ], [ -115.8414113, 60.7730985 ], [ -115.8417382, 60.7728881 ], [ -115.8412065, 60.7726911 ] ] ] } },
{ "type": "Feature", "properties": { "osm_id": 1426742410, "building": "yes", "street": "unnamed road", "area": "Hay River (other areas)", "flood_pixels": 10 }, "geometry": { "type": "Polygon", "coordinates": [ [ [ -115.839520599999986, 60.7714187 ], [ -115.8396243, 60.7711345 ], [ -115.83993150000002, 60.7711613 ], [ -115.8398276, 60.7714454 ], [ -115.839520599999986, 60.7714187 ] ] ] } },
{ "type": "Feature", "properties": { "osm_id": 1499772466, "building": "yes", "street": "unnamed road", "area": "Hay River (other areas)", "flood_pixels": 3 }, "geometry": { "type": "Polygon", "coordinates": [ [ [ -115.825125600000021, 60.7545086 ], [ -115.8247804, 60.754417300000014 ], [ -115.8248753, 60.754331599999986 ], [ -115.825220499999986, 60.754422799999986 ], [ -115.825125600000021, 60.7545086 ] ] ] } },
{ "type": "Feature", "properties": { "osm_id": 1499772475, "building": "yes", "street": "unnamed road", "area": "Hay River (other areas)", "flood_pixels": 13 }, "geometry": { "type": "Polygon", "coordinates": [ [ [ -115.8571477, 60.7467569 ], [ -115.8570408, 60.7466923 ], [ -115.857266700000011, 60.7466031 ], [ -115.8573736, 60.7466677 ], [ -115.8571477, 60.7467569 ] ] ] } }
]
}
