{
"type": "FeatureCollection",
"name": "20220510_140509_16M13_roads",
"crs": { "type": "name", "properties": { "name": "urn:ogc:def:crs:OGC:1.3:CRS84" } },
"features": [
{ "type": "Feature", "properties": { "osm_id": 28802131, "name": "Reserve Highway", "highway": "tertiary", "flooded_m": 312.13348443805643 }, "geometry": { "type": "MultiLineString", "coordinates": [ [ [ -115.729871978278652, 60.860613589547334 ], [ -115.7298697, 60.8606109 ], [ -115.72968, 60.86047580000001 ], [ -115.7290001, 60.860045600000021 ], [ -115.728830875982837, 60.859975204600765 ] ], [ [ -115.723641161316536, 60.857017142589321 ], [ -115.723555746340523, 60.856962078578889 ] ], [ [ -115.723461689337753, 60.856901443078648 ], [ -115.72332, 60.8568101 ], [ -115.723166728485111, 60.856689007130377 ] ], [ [ -115.723103971291891, 60.856639425205721 ], [ -115.723051692940714, 60.856598122051942 ] ], [ [ -115.721278086073838, 60.855144583485149 ], [ -115.721146661745607, 60.854963748063462 ] ], [ [ -115.72114603645764, 60.854962887683214 ], [ -115.721080950134407, 60.854873330304294 ] ], [ [ -115.721015238891795, 60.854782912512903 ], [ -115.720971557049083, 60.854722806582878 ] ], [ [ -115.751141866031787, 60.836317507183971 ], [ -115.7529789, 60.83631410000001 ], [ -115.752981676919035, 60.836314258244848 ] ], [ [ -115.753165237985158, 60.836324718481691 ], [ -115.753899483478889, 60.836366556925597 ] ] ] } },
{ "type": "Feature", "properties": { "osm_id": 28802173, "name": "Hay River Highway", "highway": "primary", "flooded_m": 1354.0586036989744 }, "geometry": { "type": "MultiLineString", "coordinates": [ [ [ -115.777667901806552, 60.828372269515711 ], [ -115.7777137, 60.8286574 ], [ -115.7777363, 60.8287975 ], [ -115.7777989, 60.829187 ], [ -115.777827997618616, 60.82936143850236 ] ], [ [ -115.777842998469836, 60.829451366998427 ], [ -115.777857999402343, 60.8295412954919 ] ], [ [ -115.777873000416079, 60.829631223982723 ], [ -115.7778963, 60.8297709 ], [ -115.7779643, 60.8301788 ], [ -115.778067100000015, 60.83068 ], [ -115.778162157482555, 60.831429694333188 ] ], [ [ -115.778230550035886, 60.831969068331794 ], [ -115.778355799999986, 60.832956799999984 ], [ -115.7783655, 60.833226700000012 ], [ -115.778273, 60.8336041 ], [ -115.7781445, 60.8339412 ], [ -115.777281243642733, 60.835552116260061 ] ], [ [ -115.777137582207871, 60.835820185302659 ], [ -115.7771111, 60.8358696 ], [ -115.777053, 60.8359621 ], [ -115.776593633374631, 60.836892739390514 ] ], [ [ -115.776533959005079, 60.836981988225773 ], [ -115.776409199999989, 60.83714590000001 ], [ -115.776310148531635, 60.837242106062455 ] ], [ [ -115.776208310247398, 60.837338191671449 ], [ -115.7759455, 60.8375561 ], [ -115.775742236577273, 60.837693115420528 ] ], [ [ -115.775596038593278, 60.837781575758754 ], [ -115.775552747668485, 60.837804567872226 ] ], [ [ -115.775177317901409, 60.838000037807404 ], [ -115.775071251268557, 60.83804617038583 ] ], [ [ -115.774616697565676, 60.838227059190267 ], [ -115.774430189045745, 60.83829315281821 ] ], [ [ -115.773501366957262, 60.838526194008537 ], [ -115.773318868652552, 60.838568941645441 ] ], [ [ -115.773315720554535, 60.838569679039516 ], [ -115.7731423, 60.8386103 ], [ -115.77292967839837, 60.838655181378634 ] ], [ [ -115.77275912137317, 60.838691183191941 ], [ -115.772521927315921, 60.838741250502892 ] ], [ [ -115.772202673175897, 60.838808638280256 ], [ -115.772114174053328, 60.838827318382954 ] ], [ [ -115.77090463844209, 60.839073308810988 ], [ -115.77084601888042, 60.839085104148509 ] ], [ [ -115.77016297155906, 60.83922254334226 ], [ -115.769992325148408, 60.839256879188497 ] ], [ [ -115.769977553764377, 60.839259851332088 ], [ -115.769606716886329, 60.83933446654018 ] ], [ [ -115.768123020759845, 60.839641530802538 ], [ -115.767906172215859, 60.83968673402552 ] ], [ [ -115.76719564213947, 60.839834844413808 ], [ -115.766228199999986, 60.840036499999982 ], [ -115.7649698552936, 60.840299619080405 ] ], [ [ -115.762558622612957, 60.840800265317625 ], [ -115.762536838206685, 60.840804709834494 ] ], [ [ -115.762373166057472, 60.840838102541454 ], [ -115.762187709066168, 60.840875939507974 ] ], [ [ -115.762115729278946, 60.840890624742961 ], [ -115.7618296, 60.840949 ], [ -115.7607717, 60.8411688 ], [ -115.760510599999989, 60.841231599999986 ], [ -115.760343, 60.841283799999985 ], [ -115.759935499999983, 60.8414208 ], [ -115.759772225430524, 60.841484032683482 ] ], [ [ -115.759146835609172, 60.841850966470389 ], [ -115.759018857357859, 60.841932291961093 ] ] ] } },
{ "type": "Feature", "properties": { "osm_id": 28802330, "name": "105th Street", "highway": "residential", "flooded_m": 10.313252519923562 }, "geometry": { "type": "LineString", "coordinates": [ [ -115.744810758676778, 60.853121506940703 ], [ -115.744853651873086, 60.853211699707977 ] ] } },
{ "type": "Feature", "properties": { "osm_id": 28802338, "name": "106 Street", "highway": "residential", "flooded_m": 76.357779842564952 }, "geometry": { "type": "LineString", "coordinates": [ [ -115.7453151, 60.8476127 ], [ -115.745633323038234, 60.848280394986368 ] ] } },
{ "type": "Feature", "properties": { "osm_id": 28802341, "name": "102nd Avenue", "highway": "residential", "flooded_m": 162.65457486932164 }, "geometry": { "type": "MultiLineString", "coordinates": [ [ [ -115.736044771421746, 60.851063953058194 ], [ -115.73491721682602, 60.85118137914607 ] ], [ [ -115.732514084792825, 60.851444520480626 ], [ -115.731959665169896, 60.851501331580153 ] ], [ [ -115.731774858197454, 60.851520268103926 ], [ -115.7316223, 60.8515359 ], [ -115.7305531, 60.851695 ] ] ] } },
{ "type": "Feature", "properties": { "osm_id": 28802344, "name": "104th Avenue", "highway": "residential", "flooded_m": 107.64524193699444 }, "geometry": { "type": "MultiLineString", "coordinates": [ [ [ -115.732413600000015, 60.8574337 ], [ -115.732831050758165, 60.857383930435475 ] ], [ [ -115.734032314614055, 60.857240704528756 ], [ -115.7341548, 60.8572261 ], [ -115.734826508024142, 60.857158386670314 ] ], [ [ -115.734865116552569, 60.857154494523172 ], [ -115.73504994215034, 60.857135861985434 ] ], [ [ -115.735234767535786, 60.857117229192966 ], [ -115.735303499999986, 60.8571103 ], [ -115.735584526982947, 60.857075724001547 ] ], [ [ -115.735604683206574, 60.857073244066299 ], [ -115.735789670986037, 60.857050483804549 ] ] ] } },
{ "type": "Feature", "properties": { "osm_id": 28802356, "name": "103rd Avenue", "highway": "residential", "flooded_m": 40.848660665304905 }, "geometry": { "type": "MultiLineString", "coordinates": [ [ [ -115.739398757818492, 60.854222957272732 ], [ -115.739952965573849, 60.854172368630834 ] ], [ [ -115.740322436452175, 60.854138641597515 ], [ -115.740507171603767, 60.854121777699262 ] ] ] } },
{ "type": "Feature", "properties": { "osm_id": 28802409, "name": "100 Street", "highway": "residential", "flooded_m": 72.774319218877309 }, "geometry": { "type": "MultiLineString", "coordinates": [ [ [ -115.732666417205905, 60.851481114237011 ], [ -115.732694330043842, 60.851540746248943 ] ], [ [ -115.734352298285728, 60.85508869643008 ], [ -115.734475941347029, 60.855359237734248 ] ], [ [ -115.734771245372656, 60.855990564258775 ], [ -115.734856990151698, 60.856170956032884 ] ], [ [ -115.734900397982841, 60.856262277606369 ], [ -115.734942735885781, 60.856351347750376 ] ], [ [ -115.73528572837273, 60.857072914054363 ], [ -115.735303499999986, 60.8571103 ] ] ] } },
{ "type": "Feature", "properties": { "osm_id": 28802415, "name": null, "highway": "service", "flooded_m": 55.548237494572902 }, "geometry": { "type": "LineString", "coordinates": [ [ -115.737264694181832, 60.861655712350995 ], [ -115.7373084, 60.861651099999989 ], [ -115.7382795, 60.861595299999983 ] ] } },
{ "type": "Feature", "properties": { "osm_id": 28802432, "name": "Lakeshore Drive", "highway": "residential", "flooded_m": 56.739424236730869 }, "geometry": { "type": "MultiLineString", "coordinates": [ [ [ -115.7422578, 60.8640946 ], [ -115.74305200635844, 60.864311280231746 ] ], [ [ -115.743670970060379, 60.86451448485731 ], [ -115.743779009631723, 60.86455354949539 ] ] ] } },
{ "type": "Feature", "properties": { "osm_id": 28802586, "name": "Hay River Highway", "highway": "primary", "flooded_m": 3.1642160036269584 }, "geometry": { "type": "LineString", "coordinates": [ [ -115.778933, 60.8247652 ], [ -115.778913171436969, 60.824791906538486 ] ] } },
{ "type": "Feature", "properties": { "osm_id": 119937335, "name": "Abby Place", "highway": "residential", "flooded_m": 33.738654763895141 }, "geometry": { "type": "LineString", "coordinates": [ [ -115.7943745, 60.8025913 ], [ -115.794901491301218, 60.80275081571606 ] ] } },
{ "type": "Feature", "properties": { "osm_id": 119937336, "name": "Airport Rd", "highway": "service", "flooded_m": 171.24611796662725 }, "geometry": { "type": "MultiLineString", "coordinates": [ [ [ -115.7771111, 60.8358696 ], [ -115.7775375, 60.83593650000001 ], [ -115.777684, 60.8359721 ], [ -115.7779206, 60.8360388 ], [ -115.7780785, 60.8360882 ], [ -115.7781991, 60.8361334 ], [ -115.778292, 60.8361912 ], [ -115.778371387832379, 60.836258223070921 ] ], [ [ -115.77890303039527, 60.836789459798368 ], [ -115.778936687329818, 60.836824253358287 ] ], [ [ -115.779024316407231, 60.836914841357235 ], [ -115.77911194597813, 60.837005429299268 ] ], [ [ -115.77919957604243, 60.837096017184344 ], [ -115.779257019309512, 60.837155399054673 ] ], [ [ -115.779434016786254, 60.837338368334471 ], [ -115.779900634321777, 60.83782071821571 ] ], [ [ -115.779965021295538, 60.837887274780343 ], [ -115.779988268827353, 60.837911305588449 ] ], [ [ -115.780142026825104, 60.838070243131114 ], [ -115.780163539318977, 60.83809248016312 ] ] ] } },
{ "type": "Feature", "properties": { "osm_id": 119937340, "name": "Aspen Drive", "highway": "residential", "flooded_m": 43.018343918462051 }, "geometry": { "type": "MultiLineString", "coordinates": [ [ [ -115.797902860105495, 60.806376200586023 ], [ -115.797977501965761, 60.806287076532769 ] ], [ [ -115.80007970033985, 60.803791695998058 ], [ -115.800309309307238, 60.803524370975722 ] ] ] } },
{ "type": "Feature", "properties": { "osm_id": 119937343, "name": "Back Road", "highway": "residential", "flooded_m": 8.5082949529231158 }, "geometry": { "type": "LineString", "coordinates": [ [ -115.782060499999986, 60.856861199999983 ], [ -115.782094900927817, 60.856786681637317 ] ] } },
{ "type": "Feature", "properties": { "osm_id": 119937345, "name": "Back Road", "highway": "residential", "flooded_m": 35.210404713284305 }, "geometry": { "type": "MultiLineString", "coordinates": [ [ [ -115.781983430052776, 60.85723463022795 ], [ -115.781989768123552, 60.857203920450303 ] ], [ [ -115.782001927185121, 60.857145006125435 ], [ -115.782060499999986, 60.856861199999983 ] ] ] } },
{ "type": "Feature", "properties": { "osm_id": 119937351, "name": "Beaver Crescent", "highway": "residential", "flooded_m": 128.46751757267225 }, "geometry": { "type": "MultiLineString", "coordinates": [ [ [ -115.7736598, 60.818687 ], [ -115.773892301089234, 60.818707293110158 ] ], [ [ -115.774184211231017, 60.818732770942987 ], [ -115.774754, 60.8187825 ], [ -115.774943800000017, 60.818778700000024 ], [ -115.77499372362341, 60.818753761703306 ] ], [ [ -115.775208008807468, 60.817957944162131 ], [ -115.7749932, 60.8179245 ], [ -115.7739559, 60.817818399999986 ] ] ] } },
{ "type": "Feature", "properties": { "osm_id": 119937355, "name": "Cameron Crescent", "highway": "residential", "flooded_m": 27.683626528074964 }, "geometry": { "type": "LineString", "coordinates": [ [ -115.775810134424134, 60.821447743012669 ], [ -115.7756293, 60.821367899999984 ], [ -115.7755209, 60.8213071 ], [ -115.775503381759052, 60.821258982516326 ] ] } },
{ "type": "Feature", "properties": { "osm_id": 119937357, "name": "Capital Drive", "highway": "residential", "flooded_m": 68.732092654820576 }, "geometry": { "type": "MultiLineString", "coordinates": [ [ [ -115.786763399999984, 60.8091393 ], [ -115.7869878, 60.808846 ], [ -115.787143510611997, 60.808652223407513 ] ], [ [ -115.787173941419056, 60.808614352999228 ], [ -115.787245574029583, 60.808525207552137 ] ] ] } },
{ "type": "Feature", "properties": { "osm_id": 119937358, "name": "Capital Drive", "highway": "residential", "flooded_m": 44.505339186729834 }, "geometry": { "type": "MultiLineString", "coordinates": [ [ [ -115.7885708, 60.806873 ], [ -115.788878792053652, 60.806508072937582 ] ], [ [ -115.788981935376995, 60.806385860639828 ], [ -115.788985699999984, 60.8063814 ] ] ] } },
{ "type": "Feature", "properties": { "osm_id": 119937359, "name": "Capital Drive", "highway": "residential", "flooded_m": 63.173680247540467 }, "geometry": { "type": "MultiLineString", "coordinates": [ [ [ -115.78808553948079, 60.80745528224471 ], [ -115.788108972939085, 60.807424308123522 ] ], [ [ -115.788153011054305, 60.807366098788961 ], [ -115.7883572, 60.8070962 ], [ -115.7885708, 60.806873 ] ] ] } },
{ "type": "Feature", "properties": { "osm_id": 119937360, "name": "Capital Drive", "highway": "residential", "flooded_m": 80.147267039908627 }, "geometry": { "type": "MultiLineString", "coordinates": [ [ [ -115.7860122, 60.8099973 ], [ -115.786181373466931, 60.80979035261123 ] ], [ [ -115.786195709264831, 60.80977281570874 ], [ -115.7862724, 60.809679 ], [ -115.786349165993414, 60.809594617862075 ] ], [ [ -115.786511208223232, 60.809416497403603 ], [ -115.7867259, 60.809180499999989 ], [ -115.786763399999984, 60.8091393 ] ] ] } },
{ "type": "Feature", "properties": { "osm_id": 119937361, "name": "Caribou Crescent", "highway": "residential", "flooded_m": 36.110852376350756 }, "geometry": { "type": "MultiLineString", "coordinates": [ [ [ -115.7769575, 60.8134034 ], [ -115.777396643865004, 60.813603028096722 ] ], [ [ -115.77894690220225, 60.812580474666625 ], [ -115.778907229488624, 60.81255605452494 ] ] ] } },
{ "type": "Feature", "properties": { "osm_id": 119937365, "name": "Commercial Road", "highway": "residential", "flooded_m": 31.07218788582378 }, "geometry": { "type": "LineString", "coordinates": [ [ -115.789614400000019, 60.8107739 ], [ -115.7894517, 60.810739899999987 ], [ -115.789089403909074, 60.810664125398944 ] ] } },
{ "type": "Feature", "properties": { "osm_id": 119937366, "name": "Commercial Road", "highway": "residential", "flooded_m": 42.575538346630594 }, "geometry": { "type": "MultiLineString", "coordinates": [ [ [ -115.79035, 60.810916100000014 ], [ -115.790192039426501, 60.81088637148035 ] ], [ [ -115.790183991739966, 60.810884856882005 ], [ -115.790172, 60.8108826 ], [ -115.789614400000019, 60.8107739 ] ] ] } },
{ "type": "Feature", "properties": { "osm_id": 119937367, "name": "Commercial Road", "highway": "residential", "flooded_m": 36.000548811509233 }, "geometry": { "type": "MultiLineString", "coordinates": [ [ [ -115.787447379032741, 60.810337546771486 ], [ -115.7872648506887, 60.810303458477122 ] ], [ [ -115.786352362273632, 60.810129119010639 ], [ -115.7860486, 60.8100579 ], [ -115.7860122, 60.8099973 ] ] ] } },
{ "type": "Feature", "properties": { "osm_id": 119937368, "name": "Courtoreille Street", "highway": "residential", "flooded_m": 10.804745288838472 }, "geometry": { "type": "MultiLineString", "coordinates": [ [ [ -115.787254640255185, 60.809243626804538 ], [ -115.787122198765672, 60.809215499879471 ] ], [ [ -115.786813063399649, 60.80914984734197 ], [ -115.786763399999984, 60.8091393 ] ] ] } },
{ "type": "Feature", "properties": { "osm_id": 119937380, "name": "Gaetz Drive", "highway": "residential", "flooded_m": 81.09456456901431 }, "geometry": { "type": "LineString", "coordinates": [ [ -115.77599107908236, 60.816711210013942 ], [ -115.774525309537623, 60.816578614223978 ] ] } },
{ "type": "Feature", "properties": { "osm_id": 119937391, "name": "Lepine Road", "highway": "residential", "flooded_m": 17.144146450887689 }, "geometry": { "type": "LineString", "coordinates": [ [ -115.78886282370344, 60.806930763982102 ], [ -115.7885708, 60.806873 ] ] } },
{ "type": "Feature", "properties": { "osm_id": 119937392, "name": "McBryan Drive", "highway": "residential", "flooded_m": 31.622095476174216 }, "geometry": { "type": "LineString", "coordinates": [ [ -115.793833690982822, 60.806709840351601 ], [ -115.7935139, 60.8066486 ], [ -115.793294296897372, 60.806604254530619 ] ] } },
{ "type": "Feature", "properties": { "osm_id": 119937393, "name": "MacKenzie Highway", "highway": "residential", "flooded_m": 24.195460273310438 }, "geometry": { "type": "LineString", "coordinates": [ [ -115.760510599999989, 60.841231599999986 ], [ -115.760257020694112, 60.841053079698504 ] ] } },
{ "type": "Feature", "properties": { "osm_id": 119937394, "name": "Mackie Place", "highway": "residential", "flooded_m": 25.218690940800172 }, "geometry": { "type": "LineString", "coordinates": [ [ -115.7963462, 60.801012900000011 ], [ -115.7966136, 60.8011978 ] ] } },
{ "type": "Feature", "properties": { "osm_id": 119937395, "name": "Malcolm Crescent", "highway": "residential", "flooded_m": 42.947487302879907 }, "geometry": { "type": "LineString", "coordinates": [ [ -115.7780262, 60.8203722 ], [ -115.7778017, 60.8203371 ], [ -115.777365, 60.8202164 ], [ -115.777328890790443, 60.820198099884877 ] ] } },
{ "type": "Feature", "properties": { "osm_id": 119937397, "name": "McBryan Drive", "highway": "residential", "flooded_m": 276.83960667267615 }, "geometry": { "type": "LineString", "coordinates": [ [ -115.789643312118358, 60.805853068768513 ], [ -115.789605100000017, 60.8058451 ], [ -115.789568299999985, 60.805802600000014 ], [ -115.789557400000021, 60.8057695 ], [ -115.7896461, 60.805654 ], [ -115.789851400000018, 60.805407 ], [ -115.7901585, 60.8050587 ], [ -115.7903231, 60.8049574 ], [ -115.7916842, 60.8042558 ], [ -115.792408699999982, 60.8038746 ] ] } },
{ "type": "Feature", "properties": { "osm_id": 119937398, "name": "McBryan Drive", "highway": "residential", "flooded_m": 97.293337873108271 }, "geometry": { "type": "LineString", "coordinates": [ [ -115.792408699999982, 60.8038746 ], [ -115.793109800000011, 60.803473 ], [ -115.79359732204459, 60.80322256589762 ] ] } },
{ "type": "Feature", "properties": { "osm_id": 119937399, "name": "McBryan Drive", "highway": "residential", "flooded_m": 56.990328781071732 }, "geometry": { "type": "MultiLineString", "coordinates": [ [ [ -115.7943745, 60.8025913 ], [ -115.794393364361682, 60.802573478751967 ] ], [ [ -115.794675821567509, 60.802306637441241 ], [ -115.795138, 60.80187 ] ] ] } },
{ "type": "Feature", "properties": { "osm_id": 119937400, "name": "McBryan Drive", "highway": "residential", "flooded_m": 49.796533301205379 }, "geometry": { "type": "MultiLineString", "coordinates": [ [ [ -115.79377757560961, 60.803106702774215 ], [ -115.7939856, 60.802965699999987 ], [ -115.79402338338781, 60.802929325788973 ] ], [ [ -115.79411579192454, 60.802840363343776 ], [ -115.794164800969341, 60.802793181712197 ] ], [ [ -115.794208199946382, 60.802751400832392 ], [ -115.7943745, 60.8025913 ] ] ] } },
{ "type": "Feature", "properties": { "osm_id": 119937401, "name": "McBryan Drive", "highway": "residential", "flooded_m": 39.81110381612153 }, "geometry": { "type": "LineString", "coordinates": [ [ -115.7963462, 60.801012900000011 ], [ -115.796427400000013, 60.8009885 ], [ -115.796994412842764, 60.800847588511964 ] ] } },
{ "type": "Feature", "properties": { "osm_id": 119937402, "name": "McBryan Drive", "highway": "residential", "flooded_m": 11.692079487083625 }, "geometry": { "type": "LineString", "coordinates": [ [ -115.79846404587002, 60.800860211954316 ], [ -115.798645710251535, 60.800916237042486 ] ] } },
{ "type": "Feature", "properties": { "osm_id": 119937403, "name": "McBryan Drive", "highway": "residential", "flooded_m": 72.970054999919924 }, "geometry": { "type": "MultiLineString", "coordinates": [ [ [ -115.795138, 60.80187 ], [ -115.795398637916236, 60.801594785125118 ] ], [ [ -115.795801348585641, 60.801239227875975 ], [ -115.7958698, 60.801196 ], [ -115.7960772, 60.801101699999982 ], [ -115.7962119, 60.80105319999997 ], [ -115.7963462, 60.801012900000011 ] ] ] } },
{ "type": "Feature", "properties": { "osm_id": 119937407, "name": "McRorie Road", "highway": "residential", "flooded_m": 43.003011251040753 }, "geometry": { "type": "LineString", "coordinates": [ [ -115.795839459310926, 60.802047698644799 ], [ -115.795138, 60.80187 ] ] } },
{ "type": "Feature", "properties": { "osm_id": 119937421, "name": "Miron Drive", "highway": "residential", "flooded_m": 61.308481557516707 }, "geometry": { "type": "LineString", "coordinates": [ [ -115.810610928856249, 60.795406330170636 ], [ -115.8107032, 60.795396400000016 ], [ -115.811416399999985, 60.7953344 ], [ -115.811717133274158, 60.795303360595746 ] ] } },
{ "type": "Feature", "properties": { "osm_id": 119937425, "name": "Miron Drive", "highway": "residential", "flooded_m": 11.175806172022133 }, "geometry": { "type": "MultiLineString", "coordinates": [ [ [ -115.812270582628244, 60.795242426858209 ], [ -115.812455192307311, 60.795218684326272 ] ], [ [ -115.81262631247229, 60.7951933852069 ], [ -115.812639943603457, 60.795191108672903 ] ] ] } },
{ "type": "Feature", "properties": { "osm_id": 119937432, "name": "Nahanni Road", "highway": "residential", "flooded_m": 46.613418902926227 }, "geometry": { "type": "LineString", "coordinates": [ [ -115.785326674129067, 60.8129423093988 ], [ -115.7854352, 60.8129895 ], [ -115.786053714286396, 60.813161235870218 ] ] } },
{ "type": "Feature", "properties": { "osm_id": 119937450, "name": "Porrit Place", "highway": "residential", "flooded_m": 27.387496926132449 }, "geometry": { "type": "LineString", "coordinates": [ [ -115.782071940771758, 60.816352037861115 ], [ -115.78243313870631, 60.81652331545628 ] ] } },
{ "type": "Feature", "properties": { "osm_id": 119937460, "name": "Riverview Drive", "highway": "residential", "flooded_m": 96.76014736673568 }, "geometry": { "type": "MultiLineString", "coordinates": [ [ [ -115.774369063257566, 60.816399857800363 ], [ -115.77442528038479, 60.816220786024282 ] ], [ [ -115.776010538186824, 60.813900638055856 ], [ -115.7760977, 60.813827899999978 ], [ -115.7762255, 60.81372540000001 ], [ -115.7764091, 60.8136174 ], [ -115.7769575, 60.8134034 ] ] ] } },
{ "type": "Feature", "properties": { "osm_id": 119937462, "name": "Riverview Drive", "highway": "residential", "flooded_m": 128.55064043129335 }, "geometry": { "type": "MultiLineString", "coordinates": [ [ [ -115.778908657095712, 60.81251858235364 ], [ -115.779282206197706, 60.812363999718549 ] ], [ [ -115.779400090284312, 60.812315216225969 ], [ -115.779730700000016, 60.812178399999986 ], [ -115.780028483286387, 60.812076120641336 ] ], [ [ -115.780098183907441, 60.81205218044105 ], [ -115.780401008449218, 60.811948167901114 ] ], [ [ -115.780910417087895, 60.811790176926067 ], [ -115.781516682239555, 60.811613860102966 ] ] ] } },
{ "type": "Feature", "properties": { "osm_id": 119937467, "name": "Riverview Drive", "highway": "residential", "flooded_m": 67.758983392243337 }, "geometry": { "type": "MultiLineString", "coordinates": [ [ [ -115.7736598, 60.818687 ], [ -115.773706902074494, 60.818548830808993 ] ], [ [ -115.773798447005646, 60.818280289449739 ], [ -115.7739559, 60.817818399999986 ] ] ] } },
{ "type": "Feature", "properties": { "osm_id": 119937469, "name": "Riverview Drive", "highway": "residential", "flooded_m": 78.979048219062037 }, "geometry": { "type": "MultiLineString", "coordinates": [ [ [ -115.7739559, 60.817818399999986 ], [ -115.774055009495228, 60.817474500090945 ] ], [ [ -115.774106627883782, 60.817295386490663 ], [ -115.774209862894693, 60.816937159211555 ] ] ] } },
{ "type": "Feature", "properties": { "osm_id": 119937474, "name": "Riverview Drive", "highway": "residential", "flooded_m": 67.302893703809687 }, "geometry": { "type": "LineString", "coordinates": [ [ -115.776317111724282, 60.822617312801853 ], [ -115.7753526, 60.822238799999987 ] ] } },
{ "type": "Feature", "properties": { "osm_id": 119937475, "name": "Riverview Drive", "highway": "residential", "flooded_m": 48.135614655586508 }, "geometry": { "type": "LineString", "coordinates": [ [ -115.7769575, 60.8134034 ], [ -115.777599437164824, 60.813106014759683 ] ] } },
{ "type": "Feature", "properties": { "osm_id": 119937480, "name": "Riverview Drive", "highway": "residential", "flooded_m": 290.59574105700676 }, "geometry": { "type": "MultiLineString", "coordinates": [ [ [ -115.7753526, 60.822238799999987 ], [ -115.775097700000018, 60.8221242 ], [ -115.7748876, 60.8220058 ], [ -115.774739899999986, 60.821888099999988 ], [ -115.7745453, 60.8216891 ], [ -115.774481303429354, 60.821608833227614 ] ], [ [ -115.774337073378021, 60.821427933196382 ], [ -115.774264958959179, 60.821337483122697 ] ], [ [ -115.774164246065951, 60.821211162274764 ], [ -115.774133899999981, 60.8211731 ], [ -115.7740977, 60.8211277 ], [ -115.773927061036048, 60.820885439020266 ] ], [ [ -115.773863406516298, 60.820795065905145 ], [ -115.773815036564542, 60.820726392603333 ] ], [ [ -115.773641572687211, 60.820454302650688 ], [ -115.773623499999985, 60.8204193 ], [ -115.773592, 60.820314899999985 ], [ -115.7735695, 60.8201286 ], [ -115.7735351, 60.8194608 ], [ -115.773550552390915, 60.819265741993057 ] ], [ [ -115.773627976860823, 60.818817487293316 ], [ -115.7736598, 60.818687 ] ] ] } },
{ "type": "Feature", "properties": { "osm_id": 119937481, "name": "Robin Crescent", "highway": "residential", "flooded_m": 21.21415039430579 }, "geometry": { "type": "LineString", "coordinates": [ [ -115.779728644034677, 60.819951510447623 ], [ -115.77936344322228, 60.819884675059875 ] ] } },
{ "type": "Feature", "properties": { "osm_id": 119937493, "name": "Service Road", "highway": "residential", "flooded_m": 64.658724840768457 }, "geometry": { "type": "LineString", "coordinates": [ [ -115.785266419586421, 60.816498827259132 ], [ -115.784803887680127, 60.817033555797572 ] ] } },
{ "type": "Feature", "properties": { "osm_id": 119937495, "name": "Sibbeston Road", "highway": "residential", "flooded_m": 14.145678662983006 }, "geometry": { "type": "MultiLineString", "coordinates": [ [ [ -115.7780262, 60.8203722 ], [ -115.778057500176729, 60.8203784693413 ] ], [ [ -115.778088059964034, 60.820384590375205 ], [ -115.778239982430989, 60.820415019852867 ] ], [ [ -115.778969915635614, 60.820561219430758 ], [ -115.779027300674059, 60.820572712954515 ] ] ] } },
{ "type": "Feature", "properties": { "osm_id": 119937500, "name": "Spruce Road", "highway": "residential", "flooded_m": 57.665474215999296 }, "geometry": { "type": "MultiLineString", "coordinates": [ [ [ -115.798069755096165, 60.806476850160045 ], [ -115.798252355968401, 60.806508719998781 ] ], [ [ -115.798555474547442, 60.806561623441553 ], [ -115.79877879999998, 60.8066006 ], [ -115.799346758806919, 60.806732244682351 ] ] ] } },
{ "type": "Feature", "properties": { "osm_id": 119937501, "name": "Spruce Road", "highway": "residential", "flooded_m": 10.674167904803653 }, "geometry": { "type": "LineString", "coordinates": [ [ -115.802266099787786, 60.807305291489108 ], [ -115.802448586883614, 60.807340440949581 ] ] } },
{ "type": "Feature", "properties": { "osm_id": 119937506, "name": "Stewart Drive", "highway": "residential", "flooded_m": 21.364194248065473 }, "geometry": { "type": "LineString", "coordinates": [ [ -115.798540147515141, 60.801173963682807 ], [ -115.798684869475721, 60.800995674063067 ] ] } },
{ "type": "Feature", "properties": { "osm_id": 119937510, "name": "Stewart Drive", "highway": "residential", "flooded_m": 18.911082770828266 }, "geometry": { "type": "MultiLineString", "coordinates": [ [ [ -115.798766287832649, 60.80090661020521 ], [ -115.798832137585492, 60.800845124915831 ] ], [ [ -115.798861541231858, 60.800817670029907 ], [ -115.798956794100633, 60.800728729784403 ] ] ] } },
{ "type": "Feature", "properties": { "osm_id": 119937513, "name": "Studney Drive", "highway": "residential", "flooded_m": 42.93441896354782 }, "geometry": { "type": "LineString", "coordinates": [ [ -115.791549576357639, 60.816555488747404 ], [ -115.7916761, 60.8164053 ], [ -115.791849829276998, 60.816199021071434 ] ] } },
{ "type": "Feature", "properties": { "osm_id": 119937514, "name": "Studney Drive", "highway": "residential", "flooded_m": 10.664564827175909 }, "geometry": { "type": "LineString", "coordinates": [ [ -115.799298555096229, 60.807196811720765 ], [ -115.799370006399712, 60.807107658396724 ] ] } },
{ "type": "Feature", "properties": { "osm_id": 119937519, "name": "Wild Currant Court", "highway": "residential", "flooded_m": 13.07978542961845 }, "geometry": { "type": "LineString", "coordinates": [ [ -115.783769169798987, 60.821423847531804 ], [ -115.7837258, 60.8213827 ], [ -115.783622095204706, 60.821332724116651 ] ] } },
{ "type": "Feature", "properties": { "osm_id": 119937523, "name": "Woodland Drive", "highway": "residential", "flooded_m": 0.38982721381704388 }, "geometry": { "type": "LineString", "coordinates": [ [ -115.786270529344506, 60.812290313763071 ], [ -115.786275329939315, 60.812287715727258 ] ] } },
{ "type": "Feature", "properties": { "osm_id": 119937525, "name": "Woodland Drive", "highway": "residential", "flooded_m": 132.05941752402296 }, "geometry": { "type": "MultiLineString", "coordinates": [ [ [ -115.7753526, 60.822238799999987 ], [ -115.775980643679006, 60.821802084281543 ] ], [ [ -115.777833467735178, 60.820561859234239 ], [ -115.777867922480084, 60.82052795404168 ] ], [ [ -115.778014290693392, 60.820383919491711 ], [ -115.7780262, 60.8203722 ], [ -115.778059362952007, 60.820329624467206 ] ], [ [ -115.778086500825822, 60.82029478400851 ], [ -115.778433739761667, 60.819848980460804 ] ], [ [ -115.778446040618192, 60.819833187729898 ], [ -115.778503186381812, 60.819759819636801 ] ] ] } },
{ "type": "Feature", "properties": { "osm_id": 119937530, "name": "Woodland Drive", "highway": "residential", "flooded_m": 11.847040865666081 }, "geometry": { "type": "MultiLineString", "coordinates": [ [ [ -115.789333635025429, 60.809064640514691 ], [ -115.78939507347873, 60.808993557177914 ] ], [ [ -115.789525842967649, 60.808842260476432 ], [ -115.789549094120375, 60.808815360871144 ] ] ] } },
{ "type": "Feature", "properties": { "osm_id": 119937539, "name": "Woodland Drive", "highway": "residential", "flooded_m": 33.644194868686668 }, "geometry": { "type": "MultiLineString", "coordinates": [ [ [ -115.781330022617553, 60.816732555589141 ], [ -115.781634595048189, 60.816555733568599 ] ], [ [ -115.781697834035342, 60.816520418929372 ], [ -115.781794437652721, 60.816467390821465 ] ] ] } },
{ "type": "Feature", "properties": { "osm_id": 119937540, "name": "Woodland Drive", "highway": "residential", "flooded_m": 52.483156188545067 }, "geometry": { "type": "MultiLineString", "coordinates": [ [ [ -115.782073553827118, 60.816309594561858 ], [ -115.782101901226866, 60.816290593981293 ] ], [ [ -115.782234076172969, 60.816201999913467 ], [ -115.7823679, 60.8161123 ], [ -115.782453156877381, 60.815996428237661 ] ], [ [ -115.782630353760084, 60.815756630377869 ], [ -115.78264696860218, 60.815734201386064 ] ], [ [ -115.782696425943541, 60.81566743688586 ], [ -115.782828569199538, 60.815489049797712 ] ] ] } },
{ "type": "Feature", "properties": { "osm_id": 119937542, "name": "Woodland Drive", "highway": "residential", "flooded_m": 35.443158050005465 }, "geometry": { "type": "LineString", "coordinates": [ [ -115.792894581342253, 60.804086483633476 ], [ -115.792408699999982, 60.8038746 ] ] } },
{ "type": "Feature", "properties": { "osm_id": 119937543, "name": "Woodland Drive", "highway": "residential", "flooded_m": 37.467535982218457 }, "geometry": { "type": "LineString", "coordinates": [ [ -115.786458152712541, 60.812190104265675 ], [ -115.786905174938113, 60.811934236153661 ] ] } },
{ "type": "Feature", "properties": { "osm_id": 119937561, "name": "Ptarmigan Cres", "highway": "residential", "flooded_m": 41.305347967442835 }, "geometry": { "type": "LineString", "coordinates": [ [ -115.779757825911787, 60.819185234539205 ], [ -115.780489528639691, 60.819284381911352 ] ] } },
{ "type": "Feature", "properties": { "osm_id": 119937579, "name": null, "highway": "unclassified", "flooded_m": 182.87882461673976 }, "geometry": { "type": "MultiLineString", "coordinates": [ [ [ -115.776243502357985, 60.838985854107761 ], [ -115.776225326563861, 60.838954602447224 ] ], [ [ -115.776064135518865, 60.838865103708422 ], [ -115.775935700000019, 60.8387991 ], [ -115.775625800000014, 60.8387083 ], [ -115.77551840139752, 60.838702663421714 ] ], [ [ -115.775150623456909, 60.838697836766158 ], [ -115.77499, 60.8387044 ], [ -115.774719841288118, 60.838761303626377 ] ], [ [ -115.774595187141315, 60.838789086847861 ], [ -115.773666399232226, 60.839020891054616 ] ], [ [ -115.773665696307532, 60.839021066484818 ], [ -115.773318599472773, 60.83910769139171 ] ], [ [ -115.773294880318858, 60.839113610927534 ], [ -115.772624400192498, 60.839280938497396 ] ] ] } },
{ "type": "Feature", "properties": { "osm_id": 119937580, "name": "Miron Drive", "highway": "residential", "flooded_m": 327.12777585208892 }, "geometry": { "type": "MultiLineString", "coordinates": [ [ [ -115.818474893083234, 60.793359341130106 ], [ -115.8185622, 60.7933077 ], [ -115.818589206362674, 60.793293457243372 ] ], [ [ -115.818631919732908, 60.79327093080596 ], [ -115.819338630911034, 60.792898214558534 ] ], [ [ -115.819622206210838, 60.79274088813785 ], [ -115.819735100000017, 60.7926683 ], [ -115.819756688996208, 60.792652278362567 ] ], [ [ -115.819876265995063, 60.792563537461014 ], [ -115.819902819002394, 60.792543831768498 ] ], [ [ -115.819987380040146, 60.792474722088357 ], [ -115.820072700000011, 60.7924047 ], [ -115.820091987403615, 60.792385849454377 ] ], [ [ -115.820183041219238, 60.792296857660247 ], [ -115.8202891, 60.7921932 ], [ -115.820354912348421, 60.792118783967545 ] ], [ [ -115.820836392608129, 60.79158426188279 ], [ -115.821374100000014, 60.7909923 ], [ -115.821693855434219, 60.79051428698947 ] ], [ [ -115.821821201915014, 60.790332050129265 ], [ -115.8220422, 60.790044500000022 ], [ -115.8223041, 60.7897037 ], [ -115.822366679239906, 60.789622271236141 ] ] ] } },
{ "type": "Feature", "properties": { "osm_id": 119937582, "name": null, "highway": "unclassified", "flooded_m": 35.747701128744993 }, "geometry": { "type": "MultiLineString", "coordinates": [ [ [ -115.756866583947016, 60.840497083602891 ], [ -115.756671400000016, 60.8405205 ], [ -115.75643596490157, 60.84056882336894 ] ], [ [ -115.756310822338051, 60.840594508819684 ], [ -115.756125350406819, 60.840632576553105 ] ] ] } },
{ "type": "Feature", "properties": { "osm_id": 119937585, "name": null, "highway": "residential", "flooded_m": 90.243949883573805 }, "geometry": { "type": "LineString", "coordinates": [ [ -115.752783241814882, 60.836685663921493 ], [ -115.752708, 60.836681099999986 ], [ -115.7523823, 60.836675 ], [ -115.752051100000017, 60.83667650000001 ], [ -115.7517086, 60.8366845 ], [ -115.7511506, 60.836707 ], [ -115.751126619468081, 60.836708414461917 ] ] } },
{ "type": "Feature", "properties": { "osm_id": 119937598, "name": null, "highway": "service", "flooded_m": 47.736175419626164 }, "geometry": { "type": "MultiLineString", "coordinates": [ [ [ -115.788985699999984, 60.8063814 ], [ -115.789008572206711, 60.80638610078681 ] ], [ [ -115.78906674353928, 60.806398056366469 ], [ -115.789431503571336, 60.806473022372487 ] ], [ [ -115.789922454002038, 60.806573921096515 ], [ -115.790343411156343, 60.806660433071521 ] ] ] } },
{ "type": "Feature", "properties": { "osm_id": 119937599, "name": "Winter Road", "highway": "unclassified", "flooded_m": 25.151998597858299 }, "geometry": { "type": "MultiLineString", "coordinates": [ [ [ -115.774099818867896, 60.822895013667726 ], [ -115.774461522588197, 60.822865743989816 ] ], [ [ -115.775206586063106, 60.822805448950753 ], [ -115.7753011, 60.8227978 ] ] ] } },
{ "type": "Feature", "properties": { "osm_id": 119937604, "name": null, "highway": "tertiary", "flooded_m": 80.116579456430856 }, "geometry": { "type": "LineString", "coordinates": [ [ -115.782554388406353, 60.825722865619255 ], [ -115.781738456095184, 60.825124011519549 ] ] } },
{ "type": "Feature", "properties": { "osm_id": 119937607, "name": null, "highway": "residential", "flooded_m": 12.14291766116536 }, "geometry": { "type": "MultiLineString", "coordinates": [ [ [ -115.78067444134463, 60.838097115702816 ], [ -115.780507253525727, 60.838141873899644 ] ], [ [ -115.780350029445998, 60.838183964378324 ], [ -115.780321380083862, 60.838191634070931 ] ] ] } },
{ "type": "Feature", "properties": { "osm_id": 119937615, "name": null, "highway": "residential", "flooded_m": 181.50802454165006 }, "geometry": { "type": "MultiLineString", "coordinates": [ [ [ -115.7618296, 60.840949 ], [ -115.761986400000012, 60.8413288 ], [ -115.762067394576661, 60.841518725042505 ] ], [ [ -115.761972797108413, 60.84167543496163 ], [ -115.761929100000017, 60.8417043 ], [ -115.7618563, 60.8417054 ], [ -115.7616626, 60.8416853 ], [ -115.761604402971429, 60.841685681901623 ] ], [ [ -115.760498442304481, 60.841736482227482 ], [ -115.7604625, 60.8417706 ], [ -115.7600921, 60.841991699999987 ], [ -115.760007, 60.8420327 ], [ -115.759892599999986, 60.842072099999989 ], [ -115.759682, 60.8421118 ], [ -115.759467, 60.8421388 ], [ -115.759254, 60.842137800000017 ], [ -115.759195127003693, 60.842131745690899 ] ], [ [ -115.75910845147196, 60.842119988884079 ], [ -115.75901213931111, 60.842105591238024 ] ] ] } },
{ "type": "Feature", "properties": { "osm_id": 119937651, "name": null, "highway": "tertiary", "flooded_m": 148.81110435171422 }, "geometry": { "type": "MultiLineString", "coordinates": [ [ [ -115.799184848417241, 60.838263754759041 ], [ -115.799087171109818, 60.838190276016675 ] ], [ [ -115.799064051457364, 60.838172883964724 ], [ -115.798908242928633, 60.838055674427373 ] ], [ [ -115.798822459589289, 60.83799114205253 ], [ -115.798729316247957, 60.837921072601404 ] ], [ [ -115.79858087045676, 60.837809399708917 ], [ -115.798550391067764, 60.837786470538838 ] ], [ [ -115.798218491886999, 60.837536785384629 ], [ -115.7980485, 60.8374089 ], [ -115.7979943, 60.837367899999983 ], [ -115.797739968702288, 60.837173339599858 ] ], [ [ -115.797655952486707, 60.837109067576826 ], [ -115.797621204753483, 60.837082485628379 ] ], [ [ -115.797502441476837, 60.836991631552621 ], [ -115.797264916940009, 60.836809923088353 ] ], [ [ -115.785851459427064, 60.828204793460053 ], [ -115.785584680386819, 60.827995084525725 ] ], [ [ -115.785315669444273, 60.827783617838506 ], [ -115.785238017016709, 60.827722575460385 ] ] ] } },
{ "type": "Feature", "properties": { "osm_id": 119937664, "name": null, "highway": "tertiary", "flooded_m": 0.94431357020286011 }, "geometry": { "type": "LineString", "coordinates": [ [ -115.836396069557253, 60.849371068683567 ], [ -115.836410085582926, 60.849366057631073 ] ] } },
{ "type": "Feature", "properties": { "osm_id": 119937667, "name": null, "highway": "tertiary", "flooded_m": 36.122261075248822 }, "geometry": { "type": "MultiLineString", "coordinates": [ [ [ -115.776127519923321, 60.822766602325217 ], [ -115.7760194, 60.822775300000011 ], [ -115.775943256282829, 60.822776388601994 ] ], [ [ -115.775760447564522, 60.82274809685974 ], [ -115.7757492, 60.822745499999989 ], [ -115.775585399999983, 60.822781599999985 ], [ -115.7753011, 60.8227978 ] ] ] } },
{ "type": "Feature", "properties": { "osm_id": 119937671, "name": null, "highway": "residential", "flooded_m": 51.813409317540845 }, "geometry": { "type": "MultiLineString", "coordinates": [ [ [ -115.7753526, 60.822238799999987 ], [ -115.7753241, 60.8222817 ], [ -115.7753419, 60.8223882 ], [ -115.775357604222805, 60.822424952758325 ] ], [ [ -115.775401348734491, 60.822520997374468 ], [ -115.775585399999983, 60.822781599999985 ] ] ] } },
{ "type": "Feature", "properties": { "osm_id": 119937689, "name": null, "highway": "tertiary", "flooded_m": 120.8826166019893 }, "geometry": { "type": "MultiLineString", "coordinates": [ [ [ -115.822906019520047, 60.819258235485137 ], [ -115.82289280000002, 60.8192453 ], [ -115.822849100000013, 60.8191822 ], [ -115.8228234, 60.819119 ], [ -115.822805200000019, 60.8189844 ], [ -115.822807399999988, 60.818814100000012 ], [ -115.822840101305886, 60.818449535051556 ] ], [ [ -115.822854886567953, 60.818270081702494 ], [ -115.82286, 60.818137299999975 ], [ -115.822855331996536, 60.818090502714348 ] ], [ [ -115.822846367551008, 60.818000632727269 ], [ -115.82283740315286, 60.817910762738514 ] ] ] } },
{ "type": "Feature", "properties": { "osm_id": 119937691, "name": null, "highway": "residential", "flooded_m": 46.090868101625404 }, "geometry": { "type": "LineString", "coordinates": [ [ -115.785302942958708, 60.813568478838498 ], [ -115.785545500000012, 60.8136444 ], [ -115.785670900000014, 60.8137373 ], [ -115.785635868063437, 60.813898195541483 ] ] } },
{ "type": "Feature", "properties": { "osm_id": 119961622, "name": "Hay River Highway", "highway": "tertiary", "flooded_m": 290.3491738530372 }, "geometry": { "type": "MultiLineString", "coordinates": [ [ [ -115.755366572262744, 60.845677086868072 ], [ -115.7551359, 60.845854 ], [ -115.754811795620654, 60.84602124115834 ] ], [ [ -115.754624603922494, 60.846102650808469 ], [ -115.7544201, 60.8461849 ], [ -115.754167200000012, 60.8462507 ], [ -115.754007417747204, 60.846293042711608 ] ], [ [ -115.753879776167068, 60.846326867843871 ], [ -115.7537989, 60.84634830000001 ], [ -115.75369416825832, 60.846367495833583 ] ], [ [ -115.74536470209685, 60.847599222192002 ], [ -115.7453151, 60.8476127 ], [ -115.744929942378505, 60.847735076026431 ] ], [ [ -115.744619368566688, 60.847833753068151 ], [ -115.744246652374912, 60.847952172535578 ] ], [ [ -115.744106309304186, 60.84799676186887 ], [ -115.743557213125328, 60.848171216266678 ] ], [ [ -115.742569395471165, 60.848485047227655 ], [ -115.7423363, 60.8485591 ], [ -115.742011092140487, 60.848642450444906 ] ], [ [ -115.741825252973143, 60.848688223809511 ], [ -115.7415426, 60.8487575 ], [ -115.741268115190053, 60.848815807211004 ] ], [ [ -115.741082655249613, 60.848851886720446 ], [ -115.740711961951476, 60.848918254959514 ] ], [ [ -115.740528985754125, 60.848951014198398 ], [ -115.740469299999987, 60.8489617 ], [ -115.740512683265962, 60.849040653966512 ] ] ] } },
{ "type": "Feature", "properties": { "osm_id": 119964093, "name": null, "highway": "unclassified", "flooded_m": 77.705688869044252 }, "geometry": { "type": "MultiLineString", "coordinates": [ [ [ -115.71911902585812, 60.855016979009378 ], [ -115.7194749, 60.854934500000013 ], [ -115.7197573, 60.85488 ], [ -115.720002799999989, 60.8548258 ], [ -115.720047512653622, 60.854814477624807 ] ], [ [ -115.720233472153481, 60.854767387728074 ], [ -115.7203669, 60.8547336 ], [ -115.720605112639248, 60.85468013144343 ] ] ] } },
{ "type": "Feature", "properties": { "osm_id": 119964102, "name": null, "highway": "unclassified", "flooded_m": 15.820895173280574 }, "geometry": { "type": "LineString", "coordinates": [ [ -115.719179319401078, 60.853510825648335 ], [ -115.7192495, 60.8534743 ], [ -115.719367717251558, 60.853402655326647 ] ] } },
{ "type": "Feature", "properties": { "osm_id": 119965097, "name": "100 Avenue", "highway": "residential", "flooded_m": 225.68705158752778 }, "geometry": { "type": "MultiLineString", "coordinates": [ [ [ -115.740469299999987, 60.8489617 ], [ -115.740065627601865, 60.849036465201451 ] ], [ [ -115.739045695411733, 60.849169383237388 ], [ -115.738306430303467, 60.849247859507578 ] ], [ [ -115.738121613467371, 60.84926747793822 ], [ -115.737947357372619, 60.849285975084015 ] ], [ [ -115.734610329171161, 60.849633147134078 ], [ -115.734587600000012, 60.849635499999977 ], [ -115.733869900000016, 60.849741499999986 ], [ -115.7337228, 60.8498657 ], [ -115.733694700000015, 60.85003420000001 ], [ -115.7337564, 60.8502251 ], [ -115.734006516690542, 60.850685605960031 ] ] ] } },
{ "type": "Feature", "properties": { "osm_id": 228144033, "name": null, "highway": "service", "flooded_m": 15.34018298398065 }, "geometry": { "type": "LineString", "coordinates": [ [ -115.780319346769332, 60.838245010444666 ], [ -115.780459497754379, 60.838364541452137 ] ] } },
{ "type": "Feature", "properties": { "osm_id": 268295938, "name": null, "highway": "service", "flooded_m": 7.0042701629418875 }, "geometry": { "type": "LineString", "coordinates": [ [ -115.781395791162595, 60.814793588833545 ], [ -115.7813856, 60.8147992 ], [ -115.78132799138173, 60.814846901183408 ] ] } },
{ "type": "Feature", "properties": { "osm_id": 314671821, "name": "Loop A", "highway": "service", "flooded_m": 30.847248141358207 }, "geometry": { "type": "LineString", "coordinates": [ [ -115.742890360749556, 60.863739241945638 ], [ -115.74276620000002, 60.86373480000001 ], [ -115.7424354, 60.8637017 ], [ -115.742340343376384, 60.863679170067819 ] ] } },
{ "type": "Feature", "properties": { "osm_id": 314671827, "name": null, "highway": "service", "flooded_m": 9.8787110599686727 }, "geometry": { "type": "LineString", "coordinates": [ [ -115.7382795, 60.861595299999983 ], [ -115.738327085713181, 60.861680896584645 ] ] } },
{ "type": "Feature", "properties": { "osm_id": 314671835, "name": "106th Avenue", "highway": "residential", "flooded_m": 5.1476006384518662 }, "geometry": { "type": "LineString", "coordinates": [ [ -115.7382795, 60.861595299999983 ], [ -115.738372147579369, 60.861585602951997 ] ] } },
{ "type": "Feature", "properties": { "osm_id": 314671891, "name": null, "highway": "service", "flooded_m": 17.150402410639213 }, "geometry": { "type": "MultiLineString", "coordinates": [ [ [ -115.7935139, 60.8066486 ], [ -115.79346647314506, 60.806699845177242 ] ], [ [ -115.793387958966534, 60.806784680108962 ], [ -115.793305541669085, 60.806873731841456 ] ] ] } },
{ "type": "Feature", "properties": { "osm_id": 744108885, "name": "Hay River Highway", "highway": "primary", "flooded_m": 226.07199069968669 }, "geometry": { "type": "MultiLineString", "coordinates": [ [ [ -115.822670185940026, 60.789714724541248 ], [ -115.822083550059389, 60.790517706033334 ] ], [ [ -115.822018366469763, 60.790606926030101 ], [ -115.821939700000016, 60.79071459999998 ], [ -115.821822813120562, 60.790874585814109 ] ], [ [ -115.821800137013682, 60.790905622934901 ], [ -115.821631599999989, 60.7911363 ], [ -115.821441873967871, 60.791320201979588 ] ], [ [ -115.821226102149865, 60.791529347300987 ], [ -115.821166457301658, 60.791587159869323 ] ], [ [ -115.820387763378207, 60.792388448017057 ], [ -115.820271482702637, 60.792510280489694 ] ], [ [ -115.820217788073407, 60.792566538408693 ], [ -115.820047810872424, 60.792744628575356 ] ], [ [ -115.819962821560893, 60.7928336735743 ], [ -115.8199229, 60.792875500000022 ] ] ] } },
{ "type": "Feature", "properties": { "osm_id": 749132426, "name": null, "highway": "service", "flooded_m": 4.5297913386966702 }, "geometry": { "type": "LineString", "coordinates": [ [ -115.732016766503079, 60.854976900116348 ], [ -115.731991799999989, 60.854938100000012 ] ] } },
{ "type": "Feature", "properties": { "osm_id": 817406720, "name": null, "highway": "residential", "flooded_m": 22.16932893799779 }, "geometry": { "type": "MultiLineString", "coordinates": [ [ [ -115.805943066939776, 60.800611438868195 ], [ -115.805787044583695, 60.800520259698466 ] ], [ [ -115.805646044134349, 60.800451180917264 ], [ -115.805627699999988, 60.8004423 ], [ -115.805597603049335, 60.80042878314476 ] ], [ [ -115.805465330623775, 60.800369378000752 ], [ -115.80539363187566, 60.800337177080834 ] ] ] } },
{ "type": "Feature", "properties": { "osm_id": 817406723, "name": null, "highway": "residential", "flooded_m": 76.666233724720854 }, "geometry": { "type": "MultiLineString", "coordinates": [ [ [ -115.805630606029908, 60.800865678037574 ], [ -115.805340500000014, 60.800996 ] ], [ [ -115.805340500000014, 60.800996 ], [ -115.805211686016662, 60.801053894380537 ] ], [ [ -115.804623955749648, 60.801318040651402 ], [ -115.8044743, 60.8013853 ], [ -115.804457099999979, 60.8014481 ], [ -115.8045558, 60.8015129 ], [ -115.804687665049457, 60.801512900017343 ] ], [ [ -115.804812296261971, 60.801499300721822 ], [ -115.804872279190491, 60.801490165646342 ] ], [ [ -115.805437934937828, 60.801235490790837 ], [ -115.805433474993322, 60.801224528522134 ] ], [ [ -115.805364607153621, 60.801055254658486 ], [ -115.805340500000014, 60.800996 ] ] ] } },
{ "type": "Feature", "properties": { "osm_id": 876108341, "name": null, "highway": "service", "flooded_m": 26.471541394097528 }, "geometry": { "type": "MultiLineString", "coordinates": [ [ [ -115.821663844973997, 60.789614778425182 ], [ -115.82167404337541, 60.78961619485402 ] ], [ [ -115.821846610869926, 60.789640162158037 ], [ -115.8223041, 60.7897037 ] ] ] } },
{ "type": "Feature", "properties": { "osm_id": 876108342, "name": null, "highway": "service", "flooded_m": 46.48992777801746 }, "geometry": { "type": "MultiLineString", "coordinates": [ [ [ -115.8220422, 60.790044500000022 ], [ -115.821467451979032, 60.789960359387941 ] ], [ [ -115.821284734732956, 60.78993360977023 ], [ -115.8210415, 60.789898 ] ] ] } },
{ "type": "Feature", "properties": { "osm_id": 876108367, "name": null, "highway": "service", "flooded_m": 17.959069950431232 }, "geometry": { "type": "LineString", "coordinates": [ [ -115.822232987269132, 60.790788392276077 ], [ -115.821939700000016, 60.79071459999998 ] ] } },
{ "type": "Feature", "properties": { "osm_id": 876189555, "name": null, "highway": "service", "flooded_m": 33.670550551878428 }, "geometry": { "type": "LineString", "coordinates": [ [ -115.778067100000015, 60.83068 ], [ -115.7778119, 60.8306908 ], [ -115.777450200000018, 60.8307061 ] ] } },
{ "type": "Feature", "properties": { "osm_id": 876189556, "name": null, "highway": "service", "flooded_m": 33.582428765556671 }, "geometry": { "type": "MultiLineString", "coordinates": [ [ [ -115.7779643, 60.8301788 ], [ -115.777740300000019, 60.8301895 ], [ -115.777683104638442, 60.830192203363993 ] ], [ [ -115.777498839891976, 60.830200912549877 ], [ -115.777431400000012, 60.8302041 ], [ -115.7773805, 60.830076 ] ] ] } },
{ "type": "Feature", "properties": { "osm_id": 876189557, "name": null, "highway": "service", "flooded_m": 30.542126406003014 }, "geometry": { "type": "LineString", "coordinates": [ [ -115.7778963, 60.8297709 ], [ -115.777689, 60.829774 ], [ -115.7773349, 60.8297793 ] ] } },
{ "type": "Feature", "properties": { "osm_id": 876189558, "name": null, "highway": "service", "flooded_m": 58.625583706339043 }, "geometry": { "type": "LineString", "coordinates": [ [ -115.7777989, 60.829187 ], [ -115.7775989, 60.8292025 ], [ -115.776734100000013, 60.8292694 ] ] } },
{ "type": "Feature", "properties": { "osm_id": 876189559, "name": null, "highway": "service", "flooded_m": 69.132164430490619 }, "geometry": { "type": "LineString", "coordinates": [ [ -115.7777363, 60.8287975 ], [ -115.7775333, 60.8288089 ], [ -115.7772008, 60.8288275 ], [ -115.776956700000014, 60.8289125 ], [ -115.7768816, 60.8289896 ], [ -115.7768977, 60.8291151 ] ] } },
{ "type": "Feature", "properties": { "osm_id": 876189560, "name": null, "highway": "service", "flooded_m": 135.58678947310395 }, "geometry": { "type": "LineString", "coordinates": [ [ -115.777569287637135, 60.828355132568362 ], [ -115.777455100000012, 60.828363 ], [ -115.7766134, 60.8284209 ], [ -115.7766536, 60.828648399999985 ], [ -115.777501200000017, 60.828655599999983 ], [ -115.7777137, 60.8286574 ] ] } },
{ "type": "Feature", "properties": { "osm_id": 876189563, "name": null, "highway": "service", "flooded_m": 115.42561952637156 }, "geometry": { "type": "LineString", "coordinates": [ [ -115.775295452417254, 60.826913995348143 ], [ -115.7753232, 60.8269605 ], [ -115.7754037, 60.827011499999983 ], [ -115.775519, 60.8270325 ], [ -115.776659, 60.8271802 ], [ -115.776996900000015, 60.8271985 ], [ -115.777245715578104, 60.827195411444073 ] ] } },
{ "type": "Feature", "properties": { "osm_id": 876189568, "name": null, "highway": "service", "flooded_m": 69.227399023474035 }, "geometry": { "type": "MultiLineString", "coordinates": [ [ [ -115.7671724, 60.842792899999985 ], [ -115.768173370230556, 60.843114770651098 ] ], [ [ -115.768355128462133, 60.843173215094346 ], [ -115.768417630320371, 60.843193312489788 ] ] ] } },
{ "type": "Feature", "properties": { "osm_id": 876189570, "name": null, "highway": "track", "flooded_m": 465.44440445523287 }, "geometry": { "type": "MultiLineString", "coordinates": [ [ [ -115.7671724, 60.842792899999985 ], [ -115.767255100000014, 60.8429544 ], [ -115.7672364, 60.843123 ], [ -115.7671425, 60.843243199999989 ], [ -115.766949447062402, 60.843359437815124 ] ], [ [ -115.766252537942648, 60.843712212043918 ], [ -115.765962300000012, 60.8438325 ], [ -115.7643664, 60.8443879 ], [ -115.7639641, 60.8445159 ], [ -115.763197, 60.8448426 ], [ -115.763169529300797, 60.844851180055009 ] ], [ [ -115.762951438708953, 60.844919296969934 ], [ -115.762611004349395, 60.845025624603807 ] ], [ [ -115.762578905670054, 60.845035649881432 ], [ -115.762392638137783, 60.845093825946421 ] ], [ [ -115.762206369930283, 60.84515200175089 ], [ -115.7617325, 60.8453 ], [ -115.7610136, 60.8454568 ], [ -115.760720718710147, 60.845500689581399 ] ], [ [ -115.759980483532047, 60.845607850493202 ], [ -115.759795863883383, 60.845623286588285 ] ], [ [ -115.75974262732349, 60.845627737660493 ], [ -115.759426624060779, 60.845654158016288 ] ], [ [ -115.758775398544614, 60.845708603103667 ], [ -115.758688142314639, 60.845715897823432 ] ], [ [ -115.758503656639618, 60.845727846500587 ], [ -115.757950572756641, 60.845754054313311 ] ] ] } },
{ "type": "Feature", "properties": { "osm_id": 876189573, "name": null, "highway": "service", "flooded_m": 17.715704544711041 }, "geometry": { "type": "LineString", "coordinates": [ [ -115.777053, 60.8359621 ], [ -115.7767287, 60.8359466 ] ] } },
{ "type": "Feature", "properties": { "osm_id": 876189574, "name": null, "highway": "service", "flooded_m": 71.930075386166351 }, "geometry": { "type": "MultiLineString", "coordinates": [ [ [ -115.7786787, 60.8389083 ], [ -115.778658683335237, 60.838886942445363 ] ], [ [ -115.778639820386744, 60.838866815864257 ], [ -115.778109470542148, 60.838300926394425 ] ] ] } },
{ "type": "Feature", "properties": { "osm_id": 876189575, "name": null, "highway": "service", "flooded_m": 21.27797893663698 }, "geometry": { "type": "LineString", "coordinates": [ [ -115.777932168129581, 60.838970131177177 ], [ -115.7777908, 60.838792 ] ] } },
{ "type": "Feature", "properties": { "osm_id": 876189576, "name": null, "highway": "service", "flooded_m": 46.147023666513562 }, "geometry": { "type": "MultiLineString", "coordinates": [ [ [ -115.778775897931084, 60.838888007428324 ], [ -115.7786787, 60.8389083 ], [ -115.778367192968844, 60.838974085536115 ] ], [ [ -115.77789600463521, 60.839073446082701 ], [ -115.777525067313135, 60.839151247020688 ] ] ] } },
{ "type": "Feature", "properties": { "osm_id": 876189577, "name": null, "highway": "service", "flooded_m": 13.486780208022154 }, "geometry": { "type": "LineString", "coordinates": [ [ -115.777877870331281, 60.839548518702045 ], [ -115.778113438195703, 60.839510530752179 ] ] } },
{ "type": "Feature", "properties": { "osm_id": 876189578, "name": null, "highway": "service", "flooded_m": 74.225473958578405 }, "geometry": { "type": "MultiLineString", "coordinates": [ [ [ -115.7758678, 60.8414581 ], [ -115.775609288934177, 60.841136976237806 ] ], [ [ -115.775617380709562, 60.840925401037296 ], [ -115.775618376186927, 60.84092449876934 ] ], [ [ -115.775807980750102, 60.840752646356918 ], [ -115.7758141, 60.8407471 ], [ -115.775956837793586, 60.840658205304614 ] ], [ [ -115.775996529667893, 60.840633485757955 ], [ -115.776241036844766, 60.840481208985473 ] ], [ [ -115.776373487393684, 60.840398719232397 ], [ -115.776383135190287, 60.840392710595509 ] ] ] } },
{ "type": "Feature", "properties": { "osm_id": 876189579, "name": null, "highway": "service", "flooded_m": 148.49505752180244 }, "geometry": { "type": "MultiLineString", "coordinates": [ [ [ -115.7854673, 60.841875 ], [ -115.784984688463496, 60.841357010976125 ] ], [ [ -115.784911258058813, 60.841278196195844 ], [ -115.784263200000012, 60.840582599999976 ] ] ] } },
{ "type": "Feature", "properties": { "osm_id": 876189580, "name": null, "highway": "service", "flooded_m": 115.2603577355803 }, "geometry": { "type": "LineString", "coordinates": [ [ -115.784352291247629, 60.834808129183493 ], [ -115.782401600000014, 60.8352133 ] ] } },
{ "type": "Feature", "properties": { "osm_id": 876189581, "name": null, "highway": "service", "flooded_m": 90.135113011330034 }, "geometry": { "type": "MultiLineString", "coordinates": [ [ [ -115.790429438959819, 60.843345524806551 ], [ -115.790544800000021, 60.8433177 ], [ -115.791171665226187, 60.843181433271511 ] ], [ [ -115.791396781089219, 60.843132497029224 ], [ -115.792099306711251, 60.842979776878884 ] ], [ [ -115.792190079760402, 60.842960043595312 ], [ -115.7922579, 60.8429453 ] ] ] } },
{ "type": "Feature", "properties": { "osm_id": 876189582, "name": null, "highway": "service", "flooded_m": 44.870120314584483 }, "geometry": { "type": "LineString", "coordinates": [ [ -115.795040362673078, 60.847744575541753 ], [ -115.7949489, 60.8476558 ], [ -115.79493549999998, 60.8475735 ], [ -115.795005300000014, 60.8474977 ], [ -115.7951635, 60.8474429 ], [ -115.795244095387801, 60.847425146380921 ] ] } },
{ "type": "Feature", "properties": { "osm_id": 876206614, "name": null, "highway": "service", "flooded_m": 71.233580618247473 }, "geometry": { "type": "MultiLineString", "coordinates": [ [ [ -115.7874817, 60.8165713 ], [ -115.787857200000019, 60.816689 ], [ -115.787857200000857, 60.81679160272256 ] ], [ [ -115.787750994203137, 60.816890729745651 ], [ -115.78762110000001, 60.8169584 ], [ -115.787601428693563, 60.816968879030803 ] ], [ [ -115.787563415725145, 60.816989128754535 ], [ -115.787272499999986, 60.8171441 ], [ -115.787270171606394, 60.817145473525478 ] ] ] } },
{ "type": "Feature", "properties": { "osm_id": 876206632, "name": null, "highway": "service", "flooded_m": 20.618951517927226 }, "geometry": { "type": "MultiLineString", "coordinates": [ [ [ -115.7797354, 60.815589 ], [ -115.779710810984497, 60.815591608650131 ] ], [ [ -115.779526216743079, 60.815611192106843 ], [ -115.77934162227892, 60.815630775309266 ] ], [ [ -115.779287591781312, 60.815636507227993 ], [ -115.779180200000013, 60.8156479 ], [ -115.779156199389504, 60.815672098754654 ] ] ] } },
{ "type": "Feature", "properties": { "osm_id": 876206633, "name": null, "highway": "service", "flooded_m": 29.9779756907879 }, "geometry": { "type": "LineString", "coordinates": [ [ -115.779986099999988, 60.8157774 ], [ -115.779550400000019, 60.8157878 ], [ -115.779486, 60.815797 ], [ -115.779464028710834, 60.815817694677399 ] ] } },
{ "type": "Feature", "properties": { "osm_id": 876206634, "name": null, "highway": "service", "flooded_m": 19.937018207846538 }, "geometry": { "type": "MultiLineString", "coordinates": [ [ [ -115.780069625503657, 60.815824946935038 ], [ -115.780045425173725, 60.815912767457895 ] ], [ [ -115.780020743134116, 60.816002335543608 ], [ -115.779996060953607, 60.816091903623217 ] ] ] } },
{ "type": "Feature", "properties": { "osm_id": 876206635, "name": null, "highway": "service", "flooded_m": 16.941222556304236 }, "geometry": { "type": "LineString", "coordinates": [ [ -115.7823679, 60.8161123 ], [ -115.782083402617502, 60.816050446782398 ] ] } },
{ "type": "Feature", "properties": { "osm_id": 876206648, "name": null, "highway": "service", "flooded_m": 23.264245107325664 }, "geometry": { "type": "LineString", "coordinates": [ [ -115.7916842, 60.8042558 ], [ -115.7913655, 60.8041166 ] ] } },
{ "type": "Feature", "properties": { "osm_id": 876206649, "name": null, "highway": "service", "flooded_m": 45.905341093169753 }, "geometry": { "type": "LineString", "coordinates": [ [ -115.79343080000001, 60.803623400000014 ], [ -115.793109800000011, 60.803473 ], [ -115.792821900000021, 60.803338199999985 ] ] } },
{ "type": "Feature", "properties": { "osm_id": 876206650, "name": null, "highway": "service", "flooded_m": 51.409800983047887 }, "geometry": { "type": "LineString", "coordinates": [ [ -115.7883572, 60.8070962 ], [ -115.7874792, 60.8069258 ] ] } },
{ "type": "Feature", "properties": { "osm_id": 876206651, "name": null, "highway": "service", "flooded_m": 59.301569227177538 }, "geometry": { "type": "LineString", "coordinates": [ [ -115.789524215081528, 60.808885371018143 ], [ -115.790527281239676, 60.809093548105459 ] ] } },
{ "type": "Feature", "properties": { "osm_id": 876206653, "name": null, "highway": "service", "flooded_m": 96.890450986190331 }, "geometry": { "type": "LineString", "coordinates": [ [ -115.787351904865275, 60.80800228631233 ], [ -115.7867089, 60.8078736 ], [ -115.7866376, 60.8078979 ], [ -115.7866092, 60.807921 ], [ -115.7865985, 60.8079618 ], [ -115.7866299, 60.8080006 ], [ -115.787346565509196, 60.808143436771005 ] ] } },
{ "type": "Feature", "properties": { "osm_id": 876206654, "name": null, "highway": "service", "flooded_m": 62.695348068391297 }, "geometry": { "type": "LineString", "coordinates": [ [ -115.78716033251844, 60.808207600769435 ], [ -115.7866389, 60.8081055 ], [ -115.7864186, 60.808373100000011 ] ] } },
{ "type": "Feature", "properties": { "osm_id": 876206656, "name": null, "highway": "service", "flooded_m": 40.212106865751451 }, "geometry": { "type": "LineString", "coordinates": [ [ -115.7860574, 60.809026599999989 ], [ -115.7867259, 60.809180499999989 ] ] } },
{ "type": "Feature", "properties": { "osm_id": 876206657, "name": null, "highway": "service", "flooded_m": 43.982983768570826 }, "geometry": { "type": "LineString", "coordinates": [ [ -115.7869878, 60.808846 ], [ -115.7862371, 60.8086996 ] ] } },
{ "type": "Feature", "properties": { "osm_id": 876206659, "name": null, "highway": "service", "flooded_m": 107.69396876751458 }, "geometry": { "type": "LineString", "coordinates": [ [ -115.7862724, 60.809679 ], [ -115.7852662, 60.8094361 ], [ -115.785563899999985, 60.8090436 ] ] } },
{ "type": "Feature", "properties": { "osm_id": 876214446, "name": null, "highway": "service", "flooded_m": 48.913810625760988 }, "geometry": { "type": "MultiLineString", "coordinates": [ [ [ -115.7860122, 60.8099973 ], [ -115.785989767306461, 60.809996074965603 ] ], [ [ -115.785623695652845, 60.809954881289244 ], [ -115.784819, 60.8097853 ] ] ] } },
{ "type": "Feature", "properties": { "osm_id": 876214457, "name": null, "highway": "service", "flooded_m": 76.340252950158742 }, "geometry": { "type": "MultiLineString", "coordinates": [ [ [ -115.786242449292857, 60.813031825684028 ], [ -115.7859421, 60.8129456 ], [ -115.7858241, 60.8128789 ], [ -115.7858723, 60.8128266 ], [ -115.786060100000014, 60.8127364 ], [ -115.786315855461254, 60.812826834722202 ] ], [ [ -115.786432483062427, 60.81286807372512 ], [ -115.786576454011509, 60.812918980929226 ] ] ] } },
{ "type": "Feature", "properties": { "osm_id": 876214461, "name": null, "highway": "service", "flooded_m": 28.671345201374027 }, "geometry": { "type": "LineString", "coordinates": [ [ -115.7921112, 60.8163123 ], [ -115.7919878, 60.816392099999987 ], [ -115.7918483, 60.8164169 ], [ -115.7916761, 60.8164053 ] ] } },
{ "type": "Feature", "properties": { "osm_id": 876214462, "name": null, "highway": "service", "flooded_m": 6.8353856655392207 }, "geometry": { "type": "LineString", "coordinates": [ [ -115.792184766903489, 60.816327182699723 ], [ -115.7921112, 60.8163123 ], [ -115.792127661863006, 60.816291311171312 ] ] } },
{ "type": "Feature", "properties": { "osm_id": 876365697, "name": null, "highway": "service", "flooded_m": 28.161051190510413 }, "geometry": { "type": "LineString", "coordinates": [ [ -115.760506682120507, 60.841523668775856 ], [ -115.760343, 60.841283799999985 ] ] } },
{ "type": "Feature", "properties": { "osm_id": 876365699, "name": null, "highway": "service", "flooded_m": 60.554190478693613 }, "geometry": { "type": "MultiLineString", "coordinates": [ [ [ -115.7568884, 60.8408674 ], [ -115.756880900000013, 60.8408983 ], [ -115.756891700000011, 60.8409291 ], [ -115.75691980000002, 60.8409571 ], [ -115.7569629, 60.8409801 ], [ -115.7570177, 60.8409962 ], [ -115.757079500000017, 60.8410042 ], [ -115.757143400000018, 60.8410034 ], [ -115.757204300000012, 60.8409939 ], [ -115.757257199999984, 60.8409763 ], [ -115.757297900000012, 60.8409523 ], [ -115.7573229, 60.840923600000018 ], [ -115.7573304, 60.8408926 ], [ -115.7573196, 60.8408619 ], [ -115.757303870660479, 60.840846226643507 ] ], [ [ -115.757222682051847, 60.840803283354674 ], [ -115.7571937, 60.8407947 ], [ -115.757131799999982, 60.8407867 ], [ -115.757067899999981, 60.8407875 ], [ -115.757039124705813, 60.840792036011152 ] ], [ [ -115.756910015865245, 60.840842584990021 ], [ -115.7568884, 60.8408674 ] ] ] } },
{ "type": "Feature", "properties": { "osm_id": 876365705, "name": null, "highway": "service", "flooded_m": 48.869220239413906 }, "geometry": { "type": "MultiLineString", "coordinates": [ [ [ -115.765739700000012, 60.844184 ], [ -115.765926388770566, 60.84412375761984 ] ], [ [ -115.766634356716807, 60.843895299840639 ], [ -115.766671706683269, 60.843883246995048 ] ], [ [ -115.767789354635525, 60.843530473743691 ], [ -115.768329883980215, 60.843372092698402 ] ] ] } },
{ "type": "Feature", "properties": { "osm_id": 876365707, "name": null, "highway": "service", "flooded_m": 24.308272465224402 }, "geometry": { "type": "MultiLineString", "coordinates": [ [ [ -115.7621723, 60.8419246 ], [ -115.762241029767608, 60.841969284922747 ] ], [ [ -115.762327266473633, 60.842025351823352 ], [ -115.762370100000012, 60.842053199999988 ], [ -115.7624439, 60.8421058 ], [ -115.762349385258275, 60.842149866962735 ] ] ] } },
{ "type": "Feature", "properties": { "osm_id": 876365708, "name": null, "highway": "service", "flooded_m": 20.316764272409507 }, "geometry": { "type": "MultiLineString", "coordinates": [ [ [ -115.762054787937998, 60.841967569924876 ], [ -115.7621723, 60.8419246 ], [ -115.762116126113028, 60.841878342590221 ] ], [ [ -115.761969615874591, 60.841757695330813 ], [ -115.7619678, 60.8417562 ], [ -115.761929100000017, 60.8417043 ] ] ] } },
{ "type": "Feature", "properties": { "osm_id": 876365730, "name": null, "highway": "service", "flooded_m": 110.62700100301979 }, "geometry": { "type": "LineString", "coordinates": [ [ -115.7369891, 60.860310299999988 ], [ -115.7365519, 60.860393900000012 ], [ -115.73605569999998, 60.8604187 ], [ -115.7356238, 60.8603848 ], [ -115.735001600000018, 60.8603351 ] ] } },
{ "type": "Feature", "properties": { "osm_id": 876365731, "name": null, "highway": "service", "flooded_m": 138.21622463351935 }, "geometry": { "type": "LineString", "coordinates": [ [ -115.73803278945411, 60.860853832762054 ], [ -115.7370588, 60.860966 ], [ -115.736731599999985, 60.860947699999983 ], [ -115.735538, 60.8610561 ] ] } },
{ "type": "Feature", "properties": { "osm_id": 876365733, "name": null, "highway": "service", "flooded_m": 50.434362006659683 }, "geometry": { "type": "LineString", "coordinates": [ [ -115.740078576433703, 60.860170847282674 ], [ -115.7400602, 60.86025020000001 ], [ -115.7401139, 60.8604109 ], [ -115.740065847575053, 60.860619689782233 ] ] } },
{ "type": "Feature", "properties": { "osm_id": 876365734, "name": null, "highway": "service", "flooded_m": 203.00185286899816 }, "geometry": { "type": "MultiLineString", "coordinates": [ [ [ -115.735610400000013, 60.85778160000001 ], [ -115.735617740286571, 60.857794376062955 ] ], [ [ -115.735721479022104, 60.857974936366048 ], [ -115.736026200000012, 60.8585053 ], [ -115.736133375354157, 60.858697147909133 ] ], [ [ -115.736516446448064, 60.85968846444694 ], [ -115.7365117, 60.85972 ], [ -115.736591585656456, 60.859868755246403 ] ], [ [ -115.736736984143562, 60.860139498433561 ], [ -115.7367691, 60.860199300000012 ], [ -115.7369891, 60.860310299999988 ], [ -115.7372949, 60.8603573 ], [ -115.7377589, 60.8603195 ], [ -115.737870325250952, 60.860305235807367 ] ], [ [ -115.73842544869828, 60.860234169667237 ], [ -115.738610489305103, 60.860210480442895 ] ], [ [ -115.738980907588854, 60.860154530076272 ], [ -115.739166314471703, 60.86012152541285 ] ], [ [ -115.739907086710943, 60.859989655773177 ], [ -115.73990793820451, 60.859989504190331 ] ], [ [ -115.74041338639438, 60.859904606644392 ], [ -115.740463917035058, 60.859896453454581 ] ] ] } },
{ "type": "Feature", "properties": { "osm_id": 876365735, "name": null, "highway": "service", "flooded_m": 15.792058520846251 }, "geometry": { "type": "MultiLineString", "coordinates": [ [ [ -115.7372332, 60.858359 ], [ -115.737025638603384, 60.858384159304052 ] ], [ [ -115.736100729936311, 60.858496266608611 ], [ -115.736026200000012, 60.8585053 ] ] ] } },
{ "type": "Feature", "properties": { "osm_id": 876365736, "name": null, "highway": "service", "flooded_m": 84.475637189139235 }, "geometry": { "type": "MultiLineString", "coordinates": [ [ [ -115.739079414895343, 60.858365634771467 ], [ -115.739051311267261, 60.858368471455279 ] ], [ [ -115.737757488572754, 60.858499058566352 ], [ -115.737592600000013, 60.8585157 ], [ -115.737367300000017, 60.8584857 ], [ -115.7372332, 60.858359 ], [ -115.737215269937167, 60.858258349739366 ] ], [ [ -115.737214803878629, 60.858255733515307 ], [ -115.737199247401279, 60.858168406844854 ] ], [ [ -115.737183224952346, 60.858078463947528 ], [ -115.737144699999988, 60.8578622 ] ] ] } },
{ "type": "Feature", "properties": { "osm_id": 876365745, "name": null, "highway": "service", "flooded_m": 17.458805806992633 }, "geometry": { "type": "LineString", "coordinates": [ [ -115.7374638, 60.8578025 ], [ -115.737785087586872, 60.857799562718711 ] ] } },
{ "type": "Feature", "properties": { "osm_id": 876365746, "name": null, "highway": "service", "flooded_m": 127.796630114048 }, "geometry": { "type": "MultiLineString", "coordinates": [ [ [ -115.7352864, 60.857459700000021 ], [ -115.7353771, 60.8576811 ], [ -115.735427460860734, 60.85770279432883 ] ], [ [ -115.735577251521846, 60.857767320499981 ], [ -115.735610400000013, 60.85778160000001 ], [ -115.735828757107782, 60.857796360013673 ] ], [ [ -115.736127834409615, 60.857810205914454 ], [ -115.736562600000013, 60.857801200000011 ], [ -115.736954200000014, 60.857865199999985 ], [ -115.737144699999988, 60.8578622 ], [ -115.737278800000013, 60.85786 ], [ -115.7374638, 60.8578025 ], [ -115.737465936427, 60.857721948855684 ] ] ] } },
{ "type": "Feature", "properties": { "osm_id": 876365747, "name": null, "highway": "service", "flooded_m": 175.13984266413053 }, "geometry": { "type": "LineString", "coordinates": [ [ -115.73425685347749, 60.858569826556412 ], [ -115.7344866, 60.858364199999983 ], [ -115.7351893, 60.8576275 ], [ -115.7352864, 60.857459700000021 ], [ -115.735296599999984, 60.857442 ], [ -115.7353288, 60.8572605 ], [ -115.735303499999986, 60.8571103 ] ] } },
{ "type": "Feature", "properties": { "osm_id": 876365758, "name": null, "highway": "service", "flooded_m": 30.964055499694766 }, "geometry": { "type": "LineString", "coordinates": [ [ -115.743083389156723, 60.864508994758218 ], [ -115.7427478, 60.864733699999988 ] ] } },
{ "type": "Feature", "properties": { "osm_id": 876365760, "name": null, "highway": "service", "flooded_m": 9.5208739756808214 }, "geometry": { "type": "LineString", "coordinates": [ [ -115.7440943, 60.8653814 ], [ -115.744105, 60.865307 ], [ -115.744118033033857, 60.865298154906029 ] ] } },
{ "type": "Feature", "properties": { "osm_id": 876365761, "name": null, "highway": "service", "flooded_m": 14.208223098609997 }, "geometry": { "type": "LineString", "coordinates": [ [ -115.747393400000021, 60.8663725 ], [ -115.747501111050582, 60.866256259982315 ] ] } },
{ "type": "Feature", "properties": { "osm_id": 876365762, "name": null, "highway": "service", "flooded_m": 31.807311852204002 }, "geometry": { "type": "LineString", "coordinates": [ [ -115.746249006209595, 60.86579563303998 ], [ -115.7459316, 60.8660356 ] ] } },
{ "type": "Feature", "properties": { "osm_id": 876365775, "name": null, "highway": "service", "flooded_m": 74.889264577892433 }, "geometry": { "type": "LineString", "coordinates": [ [ -115.7684133, 60.8647076 ], [ -115.7685667, 60.864782 ], [ -115.768759800000012, 60.864768899999987 ], [ -115.7691193, 60.864701 ], [ -115.769468, 60.8646762 ], [ -115.7696959, 60.8646893 ] ] } },
{ "type": "Feature", "properties": { "osm_id": 876365776, "name": null, "highway": "service", "flooded_m": 40.320335568683554 }, "geometry": { "type": "LineString", "coordinates": [ [ -115.768401321514673, 60.864653433599287 ], [ -115.7684133, 60.8647076 ], [ -115.768480862392948, 60.865013329105857 ] ] } },
{ "type": "Feature", "properties": { "osm_id": 885312962, "name": "Hay River Highway", "highway": "primary", "flooded_m": 39.072018277781375 }, "geometry": { "type": "MultiLineString", "coordinates": [ [ [ -115.8199229, 60.792875500000022 ], [ -115.819733566683055, 60.793011242436386 ] ], [ [ -115.819701048102871, 60.79303455647436 ], [ -115.819486114600551, 60.793188650946703 ] ] ] } },
{ "type": "Feature", "properties": { "osm_id": 885314554, "name": null, "highway": "service", "flooded_m": 0.69842030095728835 }, "geometry": { "type": "LineString", "coordinates": [ [ -115.789292185551346, 60.810162101240756 ], [ -115.789280229384147, 60.810159819844024 ] ] } },
{ "type": "Feature", "properties": { "osm_id": 927940731, "name": "Buffalo Dr", "highway": "unclassified", "flooded_m": 98.189401035973589 }, "geometry": { "type": "MultiLineString", "coordinates": [ [ [ -115.765453387289512, 60.842178409375791 ], [ -115.765630931917741, 60.842241877859337 ] ], [ [ -115.765711191668487, 60.842270568878881 ], [ -115.766901451225095, 60.842696047725155 ] ], [ [ -115.76708295693156, 60.842760928160288 ], [ -115.7671724, 60.842792899999985 ] ] ] } },
{ "type": "Feature", "properties": { "osm_id": 931609014, "name": "Fraser Place", "highway": "unclassified", "flooded_m": 4.9977395036022347 }, "geometry": { "type": "LineString", "coordinates": [ [ -115.797014829882542, 60.800303345597122 ], [ -115.796978842921675, 60.800262066794041 ] ] } },
{ "type": "Feature", "properties": { "osm_id": 960838471, "name": "Hay River Highway", "highway": "primary", "flooded_m": 108.34764552975983 }, "geometry": { "type": "MultiLineString", "coordinates": [ [ [ -115.783627898585948, 60.818952784462944 ], [ -115.783286806958799, 60.819354262307989 ] ], [ [ -115.779292558807981, 60.824256600843754 ], [ -115.778933, 60.8247652 ] ] ] } },
{ "type": "Feature", "properties": { "osm_id": 960838472, "name": "Hay River Highway", "highway": "primary", "flooded_m": 39.022553576290257 }, "geometry": { "type": "MultiLineString", "coordinates": [ [ [ -115.785468976199084, 60.816770034819513 ], [ -115.785390852381525, 60.816859120676156 ] ], [ [ -115.785360768643073, 60.816893425505612 ], [ -115.785156478308352, 60.817126377959163 ] ] ] } },
{ "type": "Feature", "properties": { "osm_id": 1096141253, "name": "Hay River Highway", "highway": "primary", "flooded_m": 47.170271781987829 }, "geometry": { "type": "MultiLineString", "coordinates": [ [ [ -115.79035, 60.810916100000014 ], [ -115.790299302915784, 60.810977129528133 ] ], [ [ -115.790225266298165, 60.811066254904375 ], [ -115.790003153960413, 60.811333630774371 ] ], [ [ -115.789982281085742, 60.811358757011924 ], [ -115.789929115686192, 60.811422755978121 ] ] ] } },
{ "type": "Feature", "properties": { "osm_id": 1096141254, "name": "Hay River Highway", "highway": "primary", "flooded_m": 67.760896263088199 }, "geometry": { "type": "MultiLineString", "coordinates": [ [ [ -115.794216376683138, 60.806308581520533 ], [ -115.794042606682311, 60.806521182829968 ] ], [ [ -115.794023715270953, 60.806544295603011 ], [ -115.79389689069933, 60.806699458693451 ] ], [ [ -115.79383107722505, 60.80677931257911 ], [ -115.793823409875202, 60.806788590975195 ] ], [ [ -115.793602444241472, 60.80705598288889 ], [ -115.7934474, 60.807243599999985 ] ] ] } },
{ "type": "Feature", "properties": { "osm_id": 1128434485, "name": null, "highway": "track", "flooded_m": 163.60946035357009 }, "geometry": { "type": "MultiLineString", "coordinates": [ [ [ -115.7980485, 60.8374089 ], [ -115.798273553081344, 60.83735769443642 ] ], [ [ -115.799125669895986, 60.837163810277524 ], [ -115.79941270218491, 60.837098499390287 ] ], [ [ -115.800795645877002, 60.836783814139949 ], [ -115.801537844762365, 60.83661492026593 ] ], [ [ -115.801690945330321, 60.83658008015351 ], [ -115.802651128480434, 60.836361571722371 ] ], [ [ -115.802952371962064, 60.836232153949666 ], [ -115.8029706, 60.836209 ], [ -115.803094500000014, 60.8361314 ], [ -115.803321, 60.8361004 ], [ -115.803396358006836, 60.836111047678564 ] ] ] } },
{ "type": "Feature", "properties": { "osm_id": 1153071308, "name": null, "highway": "service", "flooded_m": 15.494879209766706 }, "geometry": { "type": "LineString", "coordinates": [ [ -115.7894517, 60.810739899999987 ], [ -115.789560301040311, 60.810611304344171 ] ] } },
{ "type": "Feature", "properties": { "osm_id": 1164747645, "name": "Hay River Highway", "highway": "primary", "flooded_m": 12.050539855722688 }, "geometry": { "type": "MultiLineString", "coordinates": [ [ [ -115.7934474, 60.807243599999985 ], [ -115.793381520223562, 60.807323374825415 ] ], [ [ -115.79036740616867, 60.810895632125167 ], [ -115.79035, 60.810916100000014 ] ] ] } },
{ "type": "Feature", "properties": { "osm_id": 1431348433, "name": "Riverview Drive", "highway": "residential", "flooded_m": 9.677401486711851 }, "geometry": { "type": "MultiLineString", "coordinates": [ [ [ -115.781798210187119, 60.811528853785674 ], [ -115.781888888878584, 60.811493987741656 ] ], [ [ -115.78202635856772, 60.811441130251481 ], [ -115.782075439244863, 60.811422258513531 ] ] ] } }
]
}
