{
"type": "FeatureCollection",
"name": "20220510_012905_16M17_roads",
"crs": { "type": "name", "properties": { "name": "urn:ogc:def:crs:OGC:1.3:CRS84" } },
"features": [
{ "type": "Feature", "properties": { "osm_id": 28801944, "name": "Fort Smith Highway", "highway": "primary", "flooded_m": 107.94095698994548 }, "geometry": { "type": "MultiLineString", "coordinates": [ [ [ -115.8210417, 60.7524985 ], [ -115.820157900000012, 60.752306900000015 ], [ -115.81954984526584, 60.752204008788674 ] ], [ [ -115.819001830714996, 60.752137675441347 ], [ -115.818635869738785, 60.752110293709094 ] ] ] } },
{ "type": "Feature", "properties": { "osm_id": 28801964, "name": "Fort Smith Highway", "highway": "primary", "flooded_m": 8.9568638705033141 }, "geometry": { "type": "LineString", "coordinates": [ [ -115.821189094763525, 60.752534044629044 ], [ -115.8210417, 60.7524985 ] ] } },
{ "type": "Feature", "properties": { "osm_id": 28801966, "name": "Fort Smith Highway", "highway": "primary", "flooded_m": 99.323004323616061 }, "geometry": { "type": "MultiLineString", "coordinates": [ [ [ -115.837955889295401, 60.759139098032421 ], [ -115.837471637834611, 60.758923268325844 ] ], [ [ -115.82699383952874, 60.75419494358529 ], [ -115.826807727133286, 60.754103524171647 ] ], [ [ -115.826638954083975, 60.754032440826165 ], [ -115.826582792579714, 60.754011764976717 ] ], [ [ -115.825370958975441, 60.753582057181823 ], [ -115.825009900000012, 60.7534777 ], [ -115.824644283845458, 60.753382710704258 ] ] ] } },
{ "type": "Feature", "properties": { "osm_id": 28802131, "name": "Reserve Highway", "highway": "tertiary", "flooded_m": 137.66109174420114 }, "geometry": { "type": "MultiLineString", "coordinates": [ [ [ -115.727516949723039, 60.859244437326176 ], [ -115.72738867183358, 60.859153430823895 ] ], [ [ -115.72114603645764, 60.854962887683214 ], [ -115.721080950134407, 60.854873330304294 ] ], [ [ -115.73668081361167, 60.841731501320105 ], [ -115.736952304862612, 60.841588859538113 ] ], [ [ -115.752981676919035, 60.836314258244848 ], [ -115.753030337251204, 60.836317031181473 ] ], [ [ -115.753165237985158, 60.836324718481691 ], [ -115.753532360486176, 60.836345638204349 ] ], [ [ -115.753899483478889, 60.836366556925597 ], [ -115.755184417824935, 60.836439764564084 ] ] ] } },
{ "type": "Feature", "properties": { "osm_id": 28802173, "name": "Hay River Highway", "highway": "primary", "flooded_m": 1106.6382952151223 }, "geometry": { "type": "MultiLineString", "coordinates": [ [ [ -115.777711232811754, 60.82864203989967 ], [ -115.7777137, 60.8286574 ], [ -115.7777363, 60.8287975 ], [ -115.777736323435391, 60.828797645817843 ] ], [ [ -115.777740219521959, 60.828821887710028 ], [ -115.777798029183344, 60.829181581802658 ] ], [ [ -115.777981108676656, 60.83026075152322 ], [ -115.778036462937209, 60.83053063102232 ] ], [ [ -115.778070970827173, 60.830710528891387 ], [ -115.778082368945633, 60.830800424578506 ] ], [ [ -115.778116563666913, 60.83107011162803 ], [ -115.778162157482555, 60.831429694333188 ] ], [ [ -115.778207752274113, 60.831789277006806 ], [ -115.778241949008276, 60.832058963991329 ] ], [ [ -115.778253348041645, 60.83214885964891 ], [ -115.778323189780323, 60.832699638701605 ] ], [ [ -115.778333142983385, 60.832778129196775 ], [ -115.778355799999986, 60.832956799999984 ], [ -115.7783655, 60.833226700000012 ], [ -115.778273, 60.8336041 ], [ -115.7781445, 60.8339412 ], [ -115.7771111, 60.8358696 ], [ -115.777053, 60.8359621 ], [ -115.7765784, 60.8369236 ], [ -115.776409199999989, 60.83714590000001 ], [ -115.77622820000002, 60.8373217 ], [ -115.7759455, 60.8375561 ], [ -115.7756666, 60.837744099999988 ], [ -115.775596038593278, 60.837781575758754 ] ], [ [ -115.772573639091874, 60.838730335145492 ], [ -115.772521927315921, 60.838741250502892 ] ], [ [ -115.77090463844209, 60.839073308810988 ], [ -115.770419173152675, 60.839170992350027 ] ], [ [ -115.77016297155906, 60.83922254334226 ], [ -115.769992325148408, 60.839256879188497 ] ], [ [ -115.769977553764377, 60.839259851332088 ], [ -115.769565474867562, 60.839342764663954 ] ], [ [ -115.768123020759845, 60.839641530802538 ], [ -115.767906172215859, 60.83968673402552 ] ], [ [ -115.766824687573262, 60.839912168056451 ], [ -115.766268252383227, 60.840028151589728 ] ], [ [ -115.765844278086846, 60.840116779540587 ], [ -115.765526314316404, 60.84018326584318 ] ], [ [ -115.761696957017648, 60.840976559870825 ], [ -115.7607717, 60.8411688 ], [ -115.760510599999989, 60.841231599999986 ], [ -115.760343, 60.841283799999985 ], [ -115.759935499999983, 60.8414208 ], [ -115.7596494, 60.841531599999989 ], [ -115.759396149664852, 60.841692534974293 ] ], [ [ -115.759146835609172, 60.841850966470389 ], [ -115.759007556853589, 60.84193947299174 ] ] ] } },
{ "type": "Feature", "properties": { "osm_id": 28802338, "name": "106 Street", "highway": "residential", "flooded_m": 114.87450412434808 }, "geometry": { "type": "MultiLineString", "coordinates": [ [ [ -115.7453151, 60.8476127 ], [ -115.7456369, 60.84828790000001 ], [ -115.745699904345827, 60.848437806454164 ] ], [ [ -115.746166397185107, 60.849452668598715 ], [ -115.746208784905775, 60.849542856273949 ] ], [ [ -115.746293561055012, 60.849723231582836 ], [ -115.746335949483566, 60.849813419216503 ] ] ] } },
{ "type": "Feature", "properties": { "osm_id": 28802341, "name": "102nd Avenue", "highway": "residential", "flooded_m": 287.69186004484453 }, "geometry": { "type": "MultiLineString", "coordinates": [ [ [ -115.746193384111123, 60.849934486254277 ], [ -115.746008519307196, 60.84995535837696 ] ], [ [ -115.744899325481697, 60.850080585759123 ], [ -115.744714459010467, 60.850101456097185 ] ], [ [ -115.742859088483272, 60.850319708754931 ], [ -115.742680458157082, 60.850342567009577 ] ], [ [ -115.742495478609754, 60.850366237451041 ], [ -115.742205171451019, 60.850403385290036 ] ], [ [ -115.742125518702878, 60.850413577567849 ], [ -115.741940538343343, 60.850437247243207 ] ], [ [ -115.741755557713077, 60.850460916663181 ], [ -115.7413235, 60.8505162 ], [ -115.741200665310501, 60.850530624009032 ] ], [ [ -115.740861949419639, 60.850570397474229 ], [ -115.740645950304867, 60.850595760513976 ] ], [ [ -115.739536513598793, 60.850726026636629 ], [ -115.739166699379865, 60.850769446636789 ] ], [ [ -115.738981967098638, 60.850786710204332 ], [ -115.737873715784843, 60.85088657192351 ] ], [ [ -115.736210919200715, 60.851046649179004 ], [ -115.735841291047436, 60.851085144728998 ] ], [ [ -115.735656476641793, 60.851104392121904 ], [ -115.7347192, 60.851202 ], [ -115.7341782, 60.851253 ], [ -115.734178165449279, 60.851253004013252 ] ], [ [ -115.730895851658659, 60.851643998679123 ], [ -115.730849393687834, 60.851650911668955 ] ] ] } },
{ "type": "Feature", "properties": { "osm_id": 28802344, "name": "104th Avenue", "highway": "residential", "flooded_m": 72.071693096130048 }, "geometry": { "type": "LineString", "coordinates": [ [ -115.734495464720254, 60.857191758834588 ], [ -115.735303499999986, 60.8571103 ], [ -115.735789670986037, 60.857050483804549 ] ] } },
{ "type": "Feature", "properties": { "osm_id": 28802356, "name": "103rd Avenue", "highway": "residential", "flooded_m": 157.02725805433519 }, "geometry": { "type": "MultiLineString", "coordinates": [ [ [ -115.734231100000017, 60.8548235 ], [ -115.734591000256117, 60.854776378211866 ] ], [ [ -115.734908831209111, 60.854734763645162 ], [ -115.735516163642799, 60.854655241380478 ] ], [ [ -115.735701195488232, 60.854631013247641 ], [ -115.735886227056383, 60.854606784859293 ] ], [ [ -115.736626117612218, 60.854515768225994 ], [ -115.736811016380003, 60.854494868075456 ] ], [ [ -115.739398757818492, 60.854222957272732 ], [ -115.740507171603767, 60.854121777699262 ] ], [ [ -115.740876782278804, 60.854084467431235 ], [ -115.741246554860581, 60.854043018989856 ] ] ] } },
{ "type": "Feature", "properties": { "osm_id": 28802369, "name": "103rd Street", "highway": "residential", "flooded_m": 158.46145991366996 }, "geometry": { "type": "MultiLineString", "coordinates": [ [ [ -115.742926344618823, 60.858760820812144 ], [ -115.742895200000021, 60.8586924 ], [ -115.742733949288834, 60.8583500235721 ] ], [ [ -115.742630092325641, 60.858129504785694 ], [ -115.742564034627861, 60.857989243317988 ] ], [ [ -115.741081753953821, 60.854882492481146 ], [ -115.741033389037881, 60.854782465857916 ] ], [ [ -115.74095091292358, 60.854611890183598 ], [ -115.740776461617941, 60.854251086915546 ] ], [ [ -115.740647466579574, 60.853980501552833 ], [ -115.740605202716296, 60.85389031327837 ] ], [ [ -115.739337396218062, 60.851184658638481 ], [ -115.739334627006883, 60.85117874829384 ] ], [ [ -115.739295139647766, 60.85109446993696 ], [ -115.739164849898515, 60.850816387725494 ] ] ] } },
{ "type": "Feature", "properties": { "osm_id": 28802381, "name": "102nd Street", "highway": "residential", "flooded_m": 90.70979506312122 }, "geometry": { "type": "MultiLineString", "coordinates": [ [ [ -115.737966481953677, 60.853237024885942 ], [ -115.737925681731326, 60.853146849442396 ] ], [ [ -115.737884881735994, 60.853056673985968 ], [ -115.737803282426256, 60.852876323034387 ] ], [ [ -115.737795878663761, 60.852859959122419 ], [ -115.737762483111837, 60.852786147539241 ] ], [ [ -115.737272909042503, 60.851704040591727 ], [ -115.737068929492565, 60.851253162148865 ] ] ] } },
{ "type": "Feature", "properties": { "osm_id": 28802409, "name": "100 Street", "highway": "residential", "flooded_m": 365.1248311324789 }, "geometry": { "type": "MultiLineString", "coordinates": [ [ [ -115.733130815517157, 60.852473209237218 ], [ -115.733764131770229, 60.853826063374861 ] ], [ [ -115.733882315184076, 60.85407850720842 ], [ -115.734052042537854, 60.854441043599742 ] ], [ [ -115.73418637198634, 60.854727964414579 ], [ -115.734231100000017, 60.8548235 ], [ -115.734311084390654, 60.854998515969072 ] ], [ [ -115.734393512410151, 60.855178876877943 ], [ -115.7345953, 60.8556204 ], [ -115.73468550154864, 60.855810172428065 ] ], [ [ -115.734728373341284, 60.855900368350497 ], [ -115.734771245372656, 60.855990564258775 ] ], [ [ -115.734814117642799, 60.856080760152899 ], [ -115.734942735885781, 60.856351347750376 ] ], [ [ -115.735199978818343, 60.856892522563285 ], [ -115.735303499999986, 60.8571103 ] ] ] } },
{ "type": "Feature", "properties": { "osm_id": 28802413, "name": "101st Street", "highway": "residential", "flooded_m": 153.33909181142468 }, "geometry": { "type": "MultiLineString", "coordinates": [ [ [ -115.7347192, 60.851202 ], [ -115.734817971709035, 60.851411584766247 ] ], [ [ -115.734901139208674, 60.851588056629559 ], [ -115.734902983418678, 60.851591969808553 ] ], [ [ -115.735070952869933, 60.851948375541703 ], [ -115.735115516833901, 60.85204293217059 ] ], [ [ -115.735200531856506, 60.852223317017966 ], [ -115.735285547825725, 60.8524037018096 ] ], [ [ -115.73541059152312, 60.852669012699216 ], [ -115.735413073554454, 60.852674278892607 ] ], [ [ -115.73635058452173, 60.854658528217414 ], [ -115.736572787873556, 60.855109578689806 ] ], [ [ -115.736600452765074, 60.855165734733035 ], [ -115.736794997416524, 60.855560628783621 ] ] ] } },
{ "type": "Feature", "properties": { "osm_id": 28802415, "name": null, "highway": "service", "flooded_m": 45.454317365277888 }, "geometry": { "type": "MultiLineString", "coordinates": [ [ [ -115.737264694181832, 60.861655712350995 ], [ -115.7373084, 60.861651099999989 ], [ -115.737449310513654, 60.861643003643024 ] ], [ [ -115.737633843590018, 60.861632400615733 ], [ -115.7382795, 60.861595299999983 ] ] ] } },
{ "type": "Feature", "properties": { "osm_id": 28802430, "name": "105th Avenue", "highway": "residential", "flooded_m": 51.9982909466096 }, "geometry": { "type": "MultiLineString", "coordinates": [ [ [ -115.742895200000021, 60.8586924 ], [ -115.743645006207686, 60.858589896921188 ] ], [ [ -115.743658320227311, 60.858588076769756 ], [ -115.743830096624365, 60.858564593187218 ] ] ] } },
{ "type": "Feature", "properties": { "osm_id": 28802432, "name": "Lakeshore Drive", "highway": "residential", "flooded_m": 4.7094233801717529 }, "geometry": { "type": "LineString", "coordinates": [ [ -115.746069250377772, 60.865344996363575 ], [ -115.746140748204752, 60.865368911688023 ] ] } },
{ "type": "Feature", "properties": { "osm_id": 28802576, "name": "Hay River Highway", "highway": "primary", "flooded_m": 32.338468559831533 }, "geometry": { "type": "MultiLineString", "coordinates": [ [ [ -115.803803359372097, 60.800587296101767 ], [ -115.803402313105039, 60.800768410260837 ] ], [ [ -115.80324262416535, 60.800840525541531 ], [ -115.803207328524692, 60.800856464929069 ] ] ] } },
{ "type": "Feature", "properties": { "osm_id": 28802586, "name": "Hay River Highway", "highway": "primary", "flooded_m": 3.1642160036269584 }, "geometry": { "type": "LineString", "coordinates": [ [ -115.778933, 60.8247652 ], [ -115.778913171436969, 60.824791906538486 ] ] } },
{ "type": "Feature", "properties": { "osm_id": 119937335, "name": "Abby Place", "highway": "residential", "flooded_m": 27.283591447023746 }, "geometry": { "type": "MultiLineString", "coordinates": [ [ [ -115.7943745, 60.8025913 ], [ -115.794618957560573, 60.802665295646207 ] ], [ [ -115.794719784468498, 60.802695815039009 ], [ -115.794901491301218, 60.80275081571606 ] ] ] } },
{ "type": "Feature", "properties": { "osm_id": 119937336, "name": "Airport Rd", "highway": "service", "flooded_m": 159.48031302174633 }, "geometry": { "type": "MultiLineString", "coordinates": [ [ [ -115.7771111, 60.8358696 ], [ -115.7775375, 60.83593650000001 ], [ -115.777684, 60.8359721 ], [ -115.7779206, 60.8360388 ], [ -115.7780785, 60.8360882 ], [ -115.778105621896827, 60.836098365109549 ] ], [ [ -115.779024316407231, 60.836914841357235 ], [ -115.779257019309512, 60.837155399054673 ] ], [ [ -115.779462469196147, 60.837367780498084 ], [ -115.779611016276164, 60.837521337382022 ] ], [ [ -115.779788017779254, 60.837704306197303 ], [ -115.779900634321777, 60.83782071821571 ] ], [ [ -115.779965021295538, 60.837887274780343 ], [ -115.780251175305054, 60.838183067365023 ] ] ] } },
{ "type": "Feature", "properties": { "osm_id": 119937338, "name": "Ash Road", "highway": "residential", "flooded_m": 21.907001682274974 }, "geometry": { "type": "MultiLineString", "coordinates": [ [ [ -115.788724479132611, 60.815456603307886 ], [ -115.788816600000018, 60.8154855 ], [ -115.788906578039985, 60.815502869927997 ] ], [ [ -115.792736070034294, 60.816333911121795 ], [ -115.792918585160095, 60.816369409620485 ] ] ] } },
{ "type": "Feature", "properties": { "osm_id": 119937357, "name": "Capital Drive", "highway": "residential", "flooded_m": 72.983432169700009 }, "geometry": { "type": "MultiLineString", "coordinates": [ [ [ -115.786823954374441, 60.809060153521528 ], [ -115.786950526013001, 60.808894719030974 ] ], [ [ -115.786960409016316, 60.808881801449502 ], [ -115.7869878, 60.808846 ], [ -115.78731720623928, 60.808436062064537 ] ] ] } },
{ "type": "Feature", "properties": { "osm_id": 119937358, "name": "Capital Drive", "highway": "residential", "flooded_m": 15.262052250201059 }, "geometry": { "type": "LineString", "coordinates": [ [ -115.788878792053652, 60.806508072937582 ], [ -115.788985699999984, 60.8063814 ] ] } },
{ "type": "Feature", "properties": { "osm_id": 119937360, "name": "Capital Drive", "highway": "residential", "flooded_m": 73.712911871739792 }, "geometry": { "type": "MultiLineString", "coordinates": [ [ [ -115.786122845372532, 60.809861949489225 ], [ -115.786181373466931, 60.80979035261123 ] ], [ [ -115.786268572749449, 60.809683681886433 ], [ -115.7862724, 60.809679 ], [ -115.7867259, 60.809180499999989 ], [ -115.786754283081009, 60.809149316465778 ] ] ] } },
{ "type": "Feature", "properties": { "osm_id": 119937361, "name": "Caribou Crescent", "highway": "residential", "flooded_m": 42.926879328932124 }, "geometry": { "type": "MultiLineString", "coordinates": [ [ [ -115.7769575, 60.8134034 ], [ -115.777488353001402, 60.813644717176068 ] ], [ [ -115.77894690220225, 60.812580474666625 ], [ -115.778907229488624, 60.81255605452494 ] ] ] } },
{ "type": "Feature", "properties": { "osm_id": 119937365, "name": "Commercial Road", "highway": "residential", "flooded_m": 41.866851077329244 }, "geometry": { "type": "LineString", "coordinates": [ [ -115.789614400000019, 60.8107739 ], [ -115.7894517, 60.810739899999987 ], [ -115.788907025301384, 60.810625980220543 ] ] } },
{ "type": "Feature", "properties": { "osm_id": 119937366, "name": "Commercial Road", "highway": "residential", "flooded_m": 1.2979209978143071 }, "geometry": { "type": "LineString", "coordinates": [ [ -115.789636555204453, 60.810778219051535 ], [ -115.789614400000019, 60.8107739 ] ] } },
{ "type": "Feature", "properties": { "osm_id": 119937369, "name": "Covert Place", "highway": "residential", "flooded_m": 8.6123548215832848 }, "geometry": { "type": "LineString", "coordinates": [ [ -115.8038712, 60.7964535 ], [ -115.803955092692391, 60.796519054783921 ] ] } },
{ "type": "Feature", "properties": { "osm_id": 119937370, "name": "Cranberry Crescent", "highway": "residential", "flooded_m": 45.872273800983344 }, "geometry": { "type": "MultiLineString", "coordinates": [ [ [ -115.785063437350786, 60.824735693453427 ], [ -115.78495393406628, 60.82484666349594 ] ], [ [ -115.784866111901607, 60.824935661382241 ], [ -115.784841699999987, 60.8249604 ], [ -115.784643644435548, 60.825203025523059 ] ] ] } },
{ "type": "Feature", "properties": { "osm_id": 119937375, "name": "Reserve Highway", "highway": "tertiary", "flooded_m": 92.364718932381976 }, "geometry": { "type": "MultiLineString", "coordinates": [ [ [ -115.75592005112243, 60.836446012240735 ], [ -115.756708, 60.8360774 ], [ -115.756856585479696, 60.836016142768209 ] ], [ [ -115.763974137721164, 60.832730457935668 ], [ -115.764126778499559, 60.832648244748768 ] ], [ [ -115.817668586981526, 60.754023301423487 ], [ -115.817646719859439, 60.753933316366407 ] ] ] } },
{ "type": "Feature", "properties": { "osm_id": 119937386, "name": "Industrial Drive", "highway": "residential", "flooded_m": 4.5787307690084109 }, "geometry": { "type": "LineString", "coordinates": [ [ -115.791237652480547, 60.812191264694818 ], [ -115.791269205156823, 60.812153156910931 ] ] } },
{ "type": "Feature", "properties": { "osm_id": 119937387, "name": "Industrial Drive", "highway": "residential", "flooded_m": 32.024339650315909 }, "geometry": { "type": "MultiLineString", "coordinates": [ [ [ -115.78889424247491, 60.814915321769 ], [ -115.788969925882895, 60.81482621194192 ] ], [ [ -115.789122792644818, 60.814646224590732 ], [ -115.789272655282275, 60.814469772183749 ] ] ] } },
{ "type": "Feature", "properties": { "osm_id": 119937388, "name": "John Mapes Crescent", "highway": "residential", "flooded_m": 30.249692441305729 }, "geometry": { "type": "LineString", "coordinates": [ [ -115.809172104206965, 60.795521967382086 ], [ -115.8092291, 60.7957784 ], [ -115.809233189764683, 60.795791884940684 ] ] } },
{ "type": "Feature", "properties": { "osm_id": 119937392, "name": "McBryan Drive", "highway": "residential", "flooded_m": 6.271373735947158 }, "geometry": { "type": "LineString", "coordinates": [ [ -115.793881, 60.8067189 ], [ -115.793773702301593, 60.806698352523895 ] ] } },
{ "type": "Feature", "properties": { "osm_id": 119937393, "name": "MacKenzie Highway", "highway": "residential", "flooded_m": 16.403780551857924 }, "geometry": { "type": "LineString", "coordinates": [ [ -115.760510599999989, 60.841231599999986 ], [ -115.760338680693977, 60.841110568758488 ] ] } },
{ "type": "Feature", "properties": { "osm_id": 119937394, "name": "Mackie Place", "highway": "residential", "flooded_m": 25.218690940800172 }, "geometry": { "type": "LineString", "coordinates": [ [ -115.7963462, 60.801012900000011 ], [ -115.7966136, 60.8011978 ] ] } },
{ "type": "Feature", "properties": { "osm_id": 119937395, "name": "Malcolm Crescent", "highway": "residential", "flooded_m": 41.34523720037943 }, "geometry": { "type": "MultiLineString", "coordinates": [ [ [ -115.7780262, 60.8203722 ], [ -115.7778017, 60.8203371 ], [ -115.777510521220066, 60.820256621030545 ] ], [ [ -115.778084451021215, 60.819671759342192 ], [ -115.778267381101429, 60.819696460309927 ] ] ] } },
{ "type": "Feature", "properties": { "osm_id": 119937397, "name": "McBryan Drive", "highway": "residential", "flooded_m": 217.92154439778412 }, "geometry": { "type": "MultiLineString", "coordinates": [ [ [ -115.789631220363958, 60.805673375462632 ], [ -115.7896461, 60.805654 ], [ -115.789646225703223, 60.80565384876553 ] ], [ [ -115.789704083191609, 60.805584239835419 ], [ -115.789778161391709, 60.805495115120479 ] ], [ [ -115.789838760316826, 60.805422207142804 ], [ -115.789851400000018, 60.805407 ], [ -115.7901585, 60.8050587 ], [ -115.7903231, 60.8049574 ], [ -115.791342965217694, 60.8044316989374 ] ], [ [ -115.791346487137503, 60.804429883480488 ], [ -115.791514169577994, 60.804343447250723 ] ], [ [ -115.791533912614909, 60.804333270149499 ], [ -115.7916842, 60.8042558 ], [ -115.792096351146967, 60.804038945813346 ] ], [ [ -115.792188718363263, 60.803990346030503 ], [ -115.792283848893859, 60.803940292085109 ] ] ] } },
{ "type": "Feature", "properties": { "osm_id": 119937398, "name": "McBryan Drive", "highway": "residential", "flooded_m": 30.930077983200299 }, "geometry": { "type": "LineString", "coordinates": [ [ -115.792847120613004, 60.803623468086364 ], [ -115.793109800000011, 60.803473 ], [ -115.79322252179044, 60.803415096704803 ] ] } },
{ "type": "Feature", "properties": { "osm_id": 119937399, "name": "McBryan Drive", "highway": "residential", "flooded_m": 88.041006481719307 }, "geometry": { "type": "LineString", "coordinates": [ [ -115.7943745, 60.8025913 ], [ -115.795117640885181, 60.80188923431178 ] ] } },
{ "type": "Feature", "properties": { "osm_id": 119937400, "name": "McBryan Drive", "highway": "residential", "flooded_m": 54.691562771224888 }, "geometry": { "type": "MultiLineString", "coordinates": [ [ [ -115.793646834494282, 60.803195320712319 ], [ -115.7939856, 60.802965699999987 ], [ -115.79411579192454, 60.802840363343776 ] ], [ [ -115.794164800969341, 60.802793181712197 ], [ -115.794208199946382, 60.802751400832392 ] ], [ [ -115.794355477781039, 60.802609613213683 ], [ -115.7943745, 60.8025913 ] ] ] } },
{ "type": "Feature", "properties": { "osm_id": 119937401, "name": "McBryan Drive", "highway": "residential", "flooded_m": 8.2800415947896013 }, "geometry": { "type": "LineString", "coordinates": [ [ -115.7963462, 60.801012900000011 ], [ -115.796427400000013, 60.8009885 ], [ -115.796478033569784, 60.800975916920557 ] ] } },
{ "type": "Feature", "properties": { "osm_id": 119937403, "name": "McBryan Drive", "highway": "residential", "flooded_m": 32.426708597869329 }, "geometry": { "type": "LineString", "coordinates": [ [ -115.795878905605221, 60.801191859909594 ], [ -115.7960772, 60.801101699999982 ], [ -115.7962119, 60.80105319999997 ], [ -115.7963462, 60.801012900000011 ] ] } },
{ "type": "Feature", "properties": { "osm_id": 119937410, "name": "Miron Drive", "highway": "residential", "flooded_m": 50.113547110195512 }, "geometry": { "type": "MultiLineString", "coordinates": [ [ [ -115.8080404, 60.7955874 ], [ -115.808216116819551, 60.795575891490948 ] ], [ [ -115.808400297657286, 60.795563828378249 ], [ -115.809137019651573, 60.795515573397466 ] ] ] } },
{ "type": "Feature", "properties": { "osm_id": 119937414, "name": "Miron Drive", "highway": "residential", "flooded_m": 20.723324612798287 }, "geometry": { "type": "LineString", "coordinates": [ [ -115.807663515156676, 60.795613648553903 ], [ -115.8080404, 60.7955874 ] ] } },
{ "type": "Feature", "properties": { "osm_id": 119937417, "name": "Miron Drive", "highway": "residential", "flooded_m": 19.411433415054272 }, "geometry": { "type": "LineString", "coordinates": [ [ -115.8038712, 60.7964535 ], [ -115.803983, 60.7964037 ], [ -115.804145420875216, 60.796342312054712 ] ] } },
{ "type": "Feature", "properties": { "osm_id": 119937418, "name": "Miron Drive", "highway": "residential", "flooded_m": 66.345874989127779 }, "geometry": { "type": "MultiLineString", "coordinates": [ [ [ -115.802657600632841, 60.79699050766434 ], [ -115.8026576, 60.7969905 ], [ -115.802718900000016, 60.796920899999989 ], [ -115.802839489492555, 60.79687198717027 ] ], [ [ -115.802982885666353, 60.79681382328647 ], [ -115.803026054005485, 60.796796313415264 ] ], [ [ -115.803199496143179, 60.796725961764558 ], [ -115.803399180393157, 60.796644965117849 ] ], [ [ -115.803416105434536, 60.796638099888838 ], [ -115.8038712, 60.7964535 ] ] ] } },
{ "type": "Feature", "properties": { "osm_id": 119937421, "name": "Miron Drive", "highway": "residential", "flooded_m": 30.280227655461857 }, "geometry": { "type": "MultiLineString", "coordinates": [ [ [ -115.809321084698055, 60.795506609901565 ], [ -115.809689163917483, 60.795490044912867 ] ], [ [ -115.809873258949068, 60.795480264681181 ], [ -115.8100481, 60.795466899999987 ], [ -115.810057524470437, 60.795465885790158 ] ] ] } },
{ "type": "Feature", "properties": { "osm_id": 119937432, "name": "Nahanni Road", "highway": "residential", "flooded_m": 34.235048497333402 }, "geometry": { "type": "MultiLineString", "coordinates": [ [ [ -115.785326674129067, 60.8129423093988 ], [ -115.7854352, 60.8129895 ], [ -115.785468555631311, 60.812998761600475 ] ], [ [ -115.786781396146125, 60.81336346925125 ], [ -115.786804941737969, 60.81337000515348 ] ], [ [ -115.786963320265215, 60.813413968474848 ], [ -115.787327170229077, 60.813514966186723 ] ] ] } },
{ "type": "Feature", "properties": { "osm_id": 119937441, "name": "Pine Crescent", "highway": "residential", "flooded_m": 2.6424106578343918 }, "geometry": { "type": "LineString", "coordinates": [ [ -115.789688049657713, 60.819150700224029 ], [ -115.7896637, 60.8191465 ], [ -115.789642641733295, 60.819142291622832 ] ] } },
{ "type": "Feature", "properties": { "osm_id": 119937444, "name": "Poplar Road", "highway": "residential", "flooded_m": 2.4217120702673931 }, "geometry": { "type": "LineString", "coordinates": [ [ -115.791396096296509, 60.812864462490673 ], [ -115.791437029347392, 60.812873003258041 ] ] } },
{ "type": "Feature", "properties": { "osm_id": 119937460, "name": "Riverview Drive", "highway": "residential", "flooded_m": 61.470371146928109 }, "geometry": { "type": "MultiLineString", "coordinates": [ [ [ -115.77456200995374, 60.815773071696746 ], [ -115.774589028158019, 60.815683525824895 ] ], [ [ -115.776010538186824, 60.813900638055856 ], [ -115.7760977, 60.813827899999978 ], [ -115.776101307199426, 60.813825006912602 ] ], [ [ -115.776117746014123, 60.813811822458277 ], [ -115.7762255, 60.81372540000001 ], [ -115.7764091, 60.8136174 ], [ -115.776477935000528, 60.813590539066354 ] ], [ [ -115.776815010620794, 60.813459003568795 ], [ -115.7769575, 60.8134034 ] ] ] } },
{ "type": "Feature", "properties": { "osm_id": 119937462, "name": "Riverview Drive", "highway": "residential", "flooded_m": 63.760832472708735 }, "geometry": { "type": "MultiLineString", "coordinates": [ [ [ -115.778908657095712, 60.81251858235364 ], [ -115.778975450792174, 60.812490941875218 ] ], [ [ -115.779095432096653, 60.812441291167652 ], [ -115.779730700000016, 60.812178399999986 ], [ -115.779842219591998, 60.812140096620048 ] ], [ [ -115.7803528746621, 60.81196470072576 ], [ -115.780401008449218, 60.811948167901114 ] ], [ [ -115.780910417087895, 60.811790176926067 ], [ -115.780959037575073, 60.811776037065187 ] ] ] } },
{ "type": "Feature", "properties": { "osm_id": 119937475, "name": "Riverview Drive", "highway": "residential", "flooded_m": 48.135614654933129 }, "geometry": { "type": "MultiLineString", "coordinates": [ [ [ -115.7769575, 60.8134034 ], [ -115.777225153506819, 60.813279407289542 ] ], [ [ -115.777786577475723, 60.81301931809773 ], [ -115.778160855061358, 60.812845923979935 ] ] ] } },
{ "type": "Feature", "properties": { "osm_id": 119937489, "name": "Service Road", "highway": "residential", "flooded_m": 44.695983451385111 }, "geometry": { "type": "LineString", "coordinates": [ [ -115.786812518574465, 60.814627163214041 ], [ -115.7865093, 60.8150001 ] ] } },
{ "type": "Feature", "properties": { "osm_id": 119937491, "name": "Service Road", "highway": "residential", "flooded_m": 55.305830914071052 }, "geometry": { "type": "MultiLineString", "coordinates": [ [ [ -115.802510018913054, 60.800775001699634 ], [ -115.802884243543119, 60.80059554689398 ] ], [ [ -115.802907454143579, 60.80058441643579 ], [ -115.803258463985358, 60.800416091029298 ] ] ] } },
{ "type": "Feature", "properties": { "osm_id": 119937492, "name": "Service Road", "highway": "residential", "flooded_m": 14.41827749767789 }, "geometry": { "type": "MultiLineString", "coordinates": [ [ [ -115.7865093, 60.8150001 ], [ -115.786450209641487, 60.815072851548088 ] ], [ [ -115.786344046032113, 60.815203558379245 ], [ -115.786305408693508, 60.815251127725439 ] ] ] } },
{ "type": "Feature", "properties": { "osm_id": 119937493, "name": "Service Road", "highway": "residential", "flooded_m": 59.073839106393379 }, "geometry": { "type": "MultiLineString", "coordinates": [ [ [ -115.785380734116345, 60.816366666343384 ], [ -115.785343484046365, 60.81640973189608 ] ], [ [ -115.785266419586421, 60.816498827259132 ], [ -115.78488109082322, 60.816944303375664 ] ] ] } },
{ "type": "Feature", "properties": { "osm_id": 119937495, "name": "Sibbeston Road", "highway": "residential", "flooded_m": 1.8401903806417408 }, "geometry": { "type": "LineString", "coordinates": [ [ -115.7780262, 60.8203722 ], [ -115.778057500176729, 60.8203784693413 ] ] } },
{ "type": "Feature", "properties": { "osm_id": 119937513, "name": "Studney Drive", "highway": "residential", "flooded_m": 21.603614213731827 }, "geometry": { "type": "LineString", "coordinates": [ [ -115.791016563903185, 60.817179237504526 ], [ -115.791173459370953, 60.817001065225767 ] ] } },
{ "type": "Feature", "properties": { "osm_id": 119937516, "name": "Studney Drive", "highway": "residential", "flooded_m": 53.86583218588158 }, "geometry": { "type": "LineString", "coordinates": [ [ -115.800967436257537, 60.805236295608744 ], [ -115.801352370560835, 60.804790771329721 ] ] } },
{ "type": "Feature", "properties": { "osm_id": 119937523, "name": "Woodland Drive", "highway": "residential", "flooded_m": 21.594336032747403 }, "geometry": { "type": "MultiLineString", "coordinates": [ [ [ -115.785707497766069, 60.812595016912233 ], [ -115.785785750961026, 60.812552668099833 ] ], [ [ -115.785895176148998, 60.812493449462906 ], [ -115.78608285334181, 60.812391881746521 ] ] ] } },
{ "type": "Feature", "properties": { "osm_id": 119937525, "name": "Woodland Drive", "highway": "residential", "flooded_m": 59.658999128830224 }, "geometry": { "type": "MultiLineString", "coordinates": [ [ [ -115.778014290693392, 60.820383919491711 ], [ -115.7780262, 60.8203722 ], [ -115.778059362952007, 60.820329624467206 ] ], [ [ -115.778086500825822, 60.82029478400851 ], [ -115.778155949390992, 60.820205623375259 ] ], [ [ -115.778225397567169, 60.820116462703886 ], [ -115.778503186381812, 60.819759819636801 ] ] ] } },
{ "type": "Feature", "properties": { "osm_id": 119937530, "name": "Woodland Drive", "highway": "residential", "flooded_m": 37.748461831077094 }, "geometry": { "type": "MultiLineString", "coordinates": [ [ [ -115.789087035105993, 60.809349949306025 ], [ -115.789141424294101, 60.809287023108858 ] ], [ [ -115.78916404534489, 60.809260851343772 ], [ -115.789318064531258, 60.809082655279695 ] ], [ [ -115.789333635025429, 60.809064640514691 ], [ -115.78939507347873, 60.808993557177914 ] ] ] } },
{ "type": "Feature", "properties": { "osm_id": 119937543, "name": "Woodland Drive", "highway": "residential", "flooded_m": 19.641255801218922 }, "geometry": { "type": "MultiLineString", "coordinates": [ [ [ -115.78664605278351, 60.812082554062648 ], [ -115.78675073851619, 60.812022633635422 ] ], [ [ -115.787230503482306, 60.811667797088923 ], [ -115.787312058536997, 60.811578741180753 ] ] ] } },
{ "type": "Feature", "properties": { "osm_id": 119937550, "name": "Whitlock Rd", "highway": "unclassified", "flooded_m": 18.975615744813638 }, "geometry": { "type": "MultiLineString", "coordinates": [ [ [ -115.769396174783296, 60.840025386738496 ], [ -115.769252447493528, 60.840058235674704 ] ], [ [ -115.768468416162577, 60.840228494965466 ], [ -115.768458668824252, 60.8402305497317 ] ], [ [ -115.76828292144458, 60.840267597604779 ], [ -115.7682331, 60.8402781 ], [ -115.768136863989724, 60.840317393131862 ] ] ] } },
{ "type": "Feature", "properties": { "osm_id": 119937555, "name": null, "highway": "tertiary", "flooded_m": 14.581132806471853 }, "geometry": { "type": "MultiLineString", "coordinates": [ [ [ -115.807745624079388, 60.852702043277596 ], [ -115.807562035690069, 60.852689370626578 ] ], [ [ -115.806830150962824, 60.852572507123995 ], [ -115.806754, 60.8525565 ] ] ] } },
{ "type": "Feature", "properties": { "osm_id": 119937566, "name": null, "highway": "track", "flooded_m": 20.294662033106729 }, "geometry": { "type": "LineString", "coordinates": [ [ -115.825374879161117, 60.753474828099428 ], [ -115.825284300000021, 60.75346 ], [ -115.825140100000013, 60.753468099999985 ], [ -115.825009900000012, 60.7534777 ] ] } },
{ "type": "Feature", "properties": { "osm_id": 119937573, "name": null, "highway": "residential", "flooded_m": 61.985193849856394 }, "geometry": { "type": "MultiLineString", "coordinates": [ [ [ -115.806754, 60.8525565 ], [ -115.806823652114062, 60.852746795392669 ] ], [ [ -115.806838852558101, 60.852788323973854 ], [ -115.806839100000019, 60.852789 ], [ -115.8068589, 60.8529239 ], [ -115.806859131395726, 60.853057877731842 ] ], [ [ -115.806386817493248, 60.854588853958127 ], [ -115.806289251698772, 60.854669062446852 ] ] ] } },
{ "type": "Feature", "properties": { "osm_id": 119937580, "name": "Miron Drive", "highway": "residential", "flooded_m": 187.35891231131845 }, "geometry": { "type": "MultiLineString", "coordinates": [ [ [ -115.817766947676006, 60.793712277774553 ], [ -115.817840111874432, 60.79367923852616 ] ], [ [ -115.818148547977543, 60.793536053060947 ], [ -115.818214045469958, 60.793503065674265 ] ], [ [ -115.818589206362674, 60.793293457243372 ], [ -115.818963920946274, 60.793095836432975 ] ], [ [ -115.819714025832624, 60.792681850242495 ], [ -115.819735100000017, 60.7926683 ], [ -115.819756688996208, 60.792652278362567 ] ], [ [ -115.819902819002394, 60.792543831768498 ], [ -115.8199065, 60.792541100000015 ], [ -115.820072700000011, 60.7924047 ], [ -115.820091987403615, 60.792385849454377 ] ], [ [ -115.82027409452752, 60.792207865801814 ], [ -115.8202891, 60.7921932 ], [ -115.820354912348421, 60.792118783967545 ] ], [ [ -115.820433710188169, 60.792029684342275 ], [ -115.820504799999981, 60.7919493 ], [ -115.82091731081691, 60.79149518060246 ] ], [ [ -115.821240428455766, 60.791139461218798 ], [ -115.821240979135382, 60.791138854969553 ] ], [ [ -115.821432763556487, 60.790904603039145 ], [ -115.821514715980754, 60.790782090373007 ] ], [ [ -115.823132291766512, 60.788641273700399 ], [ -115.823346140276016, 60.788373772396412 ] ] ] } },
{ "type": "Feature", "properties": { "osm_id": 119937582, "name": null, "highway": "unclassified", "flooded_m": 112.78069342037736 }, "geometry": { "type": "LineString", "coordinates": [ [ -115.758337610734785, 60.84052057822624 ], [ -115.75805889999998, 60.8404937 ], [ -115.757825700000012, 60.840489500000011 ], [ -115.7577358, 60.8404879 ], [ -115.7575275, 60.840475499999989 ], [ -115.757201900000013, 60.8404723 ], [ -115.7569498, 60.8404871 ], [ -115.756671400000016, 60.8405205 ], [ -115.756310822338051, 60.840594508819684 ] ] } },
{ "type": "Feature", "properties": { "osm_id": 119937586, "name": "Miron Drive", "highway": "residential", "flooded_m": 47.372663363471347 }, "geometry": { "type": "MultiLineString", "coordinates": [ [ [ -115.839458556595019, 60.775041914605048 ], [ -115.839453475541546, 60.775045211920023 ] ], [ [ -115.835903000309997, 60.77734905464127 ], [ -115.8353846, 60.77768540000001 ] ] ] } },
{ "type": "Feature", "properties": { "osm_id": 119937598, "name": null, "highway": "service", "flooded_m": 15.551672717954236 }, "geometry": { "type": "LineString", "coordinates": [ [ -115.788985699999984, 60.8063814 ], [ -115.789249123340866, 60.806435539492796 ] ] } },
{ "type": "Feature", "properties": { "osm_id": 119937601, "name": null, "highway": "residential", "flooded_m": 3.329899255426239 }, "geometry": { "type": "LineString", "coordinates": [ [ -115.8353846, 60.77768540000001 ], [ -115.835432236317402, 60.777704138522978 ] ] } },
{ "type": "Feature", "properties": { "osm_id": 119937604, "name": null, "highway": "tertiary", "flooded_m": 65.246531278714613 }, "geometry": { "type": "MultiLineString", "coordinates": [ [ [ -115.782430516178067, 60.825631951264072 ], [ -115.782306644651172, 60.82554103679545 ] ], [ [ -115.78227519066543, 60.825517951306338 ], [ -115.781738456095184, 60.825124011519549 ] ], [ [ -115.781563430218185, 60.824995547602363 ], [ -115.781559547497992, 60.824992697784147 ] ] ] } },
{ "type": "Feature", "properties": { "osm_id": 119937606, "name": "Miron Drive", "highway": "residential", "flooded_m": 89.268963164243956 }, "geometry": { "type": "MultiLineString", "coordinates": [ [ [ -115.8353846, 60.77768540000001 ], [ -115.835357304532877, 60.777703488457284 ] ], [ [ -115.834822319229815, 60.778058013072034 ], [ -115.83415357095366, 60.778501165771182 ] ], [ [ -115.833628177062209, 60.778849312271248 ], [ -115.833351048605323, 60.779032944508266 ] ] ] } },
{ "type": "Feature", "properties": { "osm_id": 119937607, "name": null, "highway": "residential", "flooded_m": 20.118837964331508 }, "geometry": { "type": "LineString", "coordinates": [ [ -115.7806745, 60.838097099999985 ], [ -115.780350029445998, 60.838183964378324 ] ] } },
{ "type": "Feature", "properties": { "osm_id": 119937610, "name": null, "highway": "residential", "flooded_m": 20.632229965220148 }, "geometry": { "type": "LineString", "coordinates": [ [ -115.7865093, 60.8150001 ], [ -115.786864200000011, 60.815065399999988 ] ] } },
{ "type": "Feature", "properties": { "osm_id": 119937612, "name": "Wolf Dr", "highway": "residential", "flooded_m": 120.94531529636177 }, "geometry": { "type": "MultiLineString", "coordinates": [ [ [ -115.758385321103205, 60.836905358886163 ], [ -115.757563902601802, 60.836751911688836 ] ], [ [ -115.757373959658906, 60.836716427985905 ], [ -115.757198609850207, 60.836683670154237 ] ], [ [ -115.757015964062134, 60.83664954901613 ], [ -115.7561871, 60.8364947 ], [ -115.755918685543421, 60.836481159159469 ] ] ] } },
{ "type": "Feature", "properties": { "osm_id": 119937613, "name": null, "highway": "residential", "flooded_m": 230.61686128452496 }, "geometry": { "type": "MultiLineString", "coordinates": [ [ [ -115.813162974475347, 60.751254271149257 ], [ -115.812615875210369, 60.751163945328855 ] ], [ [ -115.812240696072763, 60.751102001856239 ], [ -115.8121462, 60.7510864 ], [ -115.812068621151553, 60.751077888175068 ] ], [ [ -115.811885884455023, 60.751057838407412 ], [ -115.811520411754302, 60.751017738127139 ] ], [ [ -115.810787692662075, 60.750985535180781 ], [ -115.810603995821197, 60.750991459393035 ] ], [ [ -115.810235799158349, 60.751024988525103 ], [ -115.8093605, 60.7511989 ], [ -115.8090166, 60.7512323 ], [ -115.808211057092223, 60.751199860214115 ] ], [ [ -115.808027752857839, 60.751195152472818 ], [ -115.807294438648242, 60.751178954858212 ] ], [ [ -115.805896526055278, 60.751225271862246 ], [ -115.805824360946716, 60.751239423616084 ] ] ] } },
{ "type": "Feature", "properties": { "osm_id": 119937615, "name": null, "highway": "residential", "flooded_m": 156.05140822610932 }, "geometry": { "type": "MultiLineString", "coordinates": [ [ [ -115.761915951618391, 60.841158161484451 ], [ -115.761986400000012, 60.8413288 ], [ -115.7620699, 60.8415246 ], [ -115.762056884407485, 60.84160842045064 ] ], [ [ -115.760685635559028, 60.841653977781633 ], [ -115.760594800000021, 60.8416528 ], [ -115.7605413, 60.8416958 ], [ -115.7604625, 60.8417706 ], [ -115.7600921, 60.841991699999987 ], [ -115.760007, 60.8420327 ], [ -115.759892599999986, 60.842072099999989 ], [ -115.759682, 60.8421118 ], [ -115.759467, 60.8421388 ], [ -115.759254, 60.842137800000017 ], [ -115.759195127003693, 60.842131745690899 ] ] ] } },
{ "type": "Feature", "properties": { "osm_id": 119937635, "name": "Miron Drive", "highway": "residential", "flooded_m": 128.03723045897658 }, "geometry": { "type": "MultiLineString", "coordinates": [ [ [ -115.827062515837071, 60.783647323423509 ], [ -115.82686870000002, 60.7838664 ], [ -115.826640391865936, 60.784135298934025 ] ], [ [ -115.826525029681747, 60.784271169429779 ], [ -115.826297995643515, 60.78453856036495 ] ], [ [ -115.826256521863399, 60.784587405873374 ], [ -115.826146637504351, 60.784716820763514 ] ], [ [ -115.825738888872408, 60.785252006140027 ], [ -115.825605139650548, 60.785430419953855 ] ] ] } },
{ "type": "Feature", "properties": { "osm_id": 119937636, "name": null, "highway": "residential", "flooded_m": 40.028380223349636 }, "geometry": { "type": "MultiLineString", "coordinates": [ [ [ -115.857259228343239, 60.754684864977875 ], [ -115.85744279015492, 60.754683045167432 ] ], [ [ -115.857809913724381, 60.754679404793052 ], [ -115.858360598943534, 60.754673942347708 ] ] ] } },
{ "type": "Feature", "properties": { "osm_id": 119937640, "name": "Fox Rd", "highway": "residential", "flooded_m": 7.0814935672359303 }, "geometry": { "type": "LineString", "coordinates": [ [ -115.766638345054801, 60.832491732102589 ], [ -115.766741035239306, 60.832530834662926 ] ] } },
{ "type": "Feature", "properties": { "osm_id": 119937645, "name": null, "highway": "residential", "flooded_m": 29.041200542650927 }, "geometry": { "type": "LineString", "coordinates": [ [ -115.8268609, 60.782074 ], [ -115.82726041179906, 60.782246697839511 ] ] } },
{ "type": "Feature", "properties": { "osm_id": 119937647, "name": null, "highway": "track", "flooded_m": 120.99776981269861 }, "geometry": { "type": "LineString", "coordinates": [ [ -115.839592773442035, 60.751008165586512 ], [ -115.839058, 60.751315599999984 ], [ -115.8386949, 60.7515474 ], [ -115.838526299999984, 60.7516665 ], [ -115.83827693015904, 60.751879620015487 ] ] } },
{ "type": "Feature", "properties": { "osm_id": 119937651, "name": null, "highway": "tertiary", "flooded_m": 274.64585190259982 }, "geometry": { "type": "MultiLineString", "coordinates": [ [ [ -115.806754, 60.8525565 ], [ -115.806736784509127, 60.852518044376865 ] ], [ [ -115.805990918856949, 60.85089517962691 ], [ -115.805963361963322, 60.85080514359386 ] ], [ [ -115.805935026143374, 60.850625309320939 ], [ -115.8059344, 60.8506198 ], [ -115.805937235776597, 60.850535537628922 ] ], [ [ -115.805943277609174, 60.850356008651481 ], [ -115.8059449, 60.85030780000001 ], [ -115.805948063606237, 60.850266259836637 ] ], [ [ -115.805961730874145, 60.850086798573074 ], [ -115.805968564446232, 60.84999706793883 ] ], [ [ -115.805976464995766, 60.849907346778934 ], [ -115.806018737210593, 60.849458765553607 ] ], [ [ -115.806030812872351, 60.849330619461497 ], [ -115.806052554076786, 60.849099900540146 ] ], [ [ -115.806061008167532, 60.8490101842822 ], [ -115.806103277866654, 60.848561602964715 ] ], [ [ -115.79981872913956, 60.838897957102766 ], [ -115.799760100000015, 60.8388232 ], [ -115.7996301, 60.8386737 ], [ -115.799584406198719, 60.838626489963055 ] ], [ [ -115.799087171109818, 60.838190276016675 ], [ -115.79870166468109, 60.837900270934632 ] ], [ [ -115.797264916940009, 60.836809923088353 ], [ -115.797194300000015, 60.8367559 ], [ -115.797119421539676, 60.836699586132866 ] ], [ [ -115.786030059210077, 60.828345184862265 ], [ -115.785851459427064, 60.828204793460053 ] ] ] } },
{ "type": "Feature", "properties": { "osm_id": 119937679, "name": "Fox Rd", "highway": "residential", "flooded_m": 29.497312178889729 }, "geometry": { "type": "LineString", "coordinates": [ [ -115.76790662498054, 60.833042118252898 ], [ -115.768278200000012, 60.8332161 ], [ -115.76829840693145, 60.833225293680663 ] ] } },
{ "type": "Feature", "properties": { "osm_id": 119937680, "name": null, "highway": "service", "flooded_m": 3.7366821626521403 }, "geometry": { "type": "LineString", "coordinates": [ [ -115.752991099999988, 60.844459799999989 ], [ -115.753033415775292, 60.84443336126828 ] ] } },
{ "type": "Feature", "properties": { "osm_id": 119937683, "name": null, "highway": "residential", "flooded_m": 46.612792544674889 }, "geometry": { "type": "LineString", "coordinates": [ [ -115.759409546363528, 60.841346837621273 ], [ -115.759376700000018, 60.8413601 ], [ -115.759147899999988, 60.8414274 ], [ -115.758768300000014, 60.8415123 ], [ -115.75866562818814, 60.841551344279758 ] ] } },
{ "type": "Feature", "properties": { "osm_id": 119937689, "name": null, "highway": "tertiary", "flooded_m": 50.015743837024864 }, "geometry": { "type": "LineString", "coordinates": [ [ -115.822815957605812, 60.818718697842044 ], [ -115.822853900000013, 60.8182957 ], [ -115.822854886567953, 60.818270081702494 ] ] } },
{ "type": "Feature", "properties": { "osm_id": 119937700, "name": null, "highway": "residential", "flooded_m": 35.30375485334298 }, "geometry": { "type": "MultiLineString", "coordinates": [ [ [ -115.8391838, 60.7733981 ], [ -115.8391614, 60.77348820000001 ], [ -115.839172858705538, 60.773516325936448 ] ], [ [ -115.839326582954257, 60.773613656704057 ], [ -115.839444, 60.7736623 ], [ -115.83954326077469, 60.773699112168288 ] ], [ [ -115.839791156274089, 60.773791046797847 ], [ -115.839869934398862, 60.773820262280715 ] ], [ [ -115.840031028415098, 60.77388291162552 ], [ -115.8400509684094, 60.773891474321722 ] ] ] } },
{ "type": "Feature", "properties": { "osm_id": 119937703, "name": null, "highway": "track", "flooded_m": 45.748224389896855 }, "geometry": { "type": "MultiLineString", "coordinates": [ [ [ -115.826624875304859, 60.754417940837243 ], [ -115.8263886, 60.7543998 ], [ -115.826260039465211, 60.754358887077281 ] ], [ [ -115.825134310526963, 60.753909297143508 ], [ -115.824814091099, 60.753756820066918 ] ] ] } },
{ "type": "Feature", "properties": { "osm_id": 119961622, "name": "Hay River Highway", "highway": "tertiary", "flooded_m": 600.49363750317821 }, "geometry": { "type": "MultiLineString", "coordinates": [ [ [ -115.758103296393585, 60.842739252305805 ], [ -115.757951207087586, 60.842917431669463 ] ], [ [ -115.755994922845233, 60.845054356971161 ], [ -115.755821830941144, 60.845232339660498 ] ], [ [ -115.755366572262744, 60.845677086868072 ], [ -115.7551359, 60.845854 ], [ -115.755134880335291, 60.845854526161347 ] ], [ [ -115.754963936169233, 60.845942735403582 ], [ -115.754811795620654, 60.84602124115834 ] ], [ [ -115.754792991060683, 60.846030944424605 ], [ -115.754758, 60.846049 ], [ -115.754584438752076, 60.846118804849198 ] ], [ [ -115.754437653322611, 60.84617784027877 ], [ -115.7544201, 60.8461849 ], [ -115.754167200000012, 60.8462507 ], [ -115.7537989, 60.84634830000001 ], [ -115.753508819101839, 60.846401467431754 ] ], [ [ -115.75295375260707, 60.846478142890426 ], [ -115.7529055, 60.846484 ], [ -115.752768923365409, 60.846498735028163 ] ], [ [ -115.752399315157007, 60.846538610684149 ], [ -115.752323394882069, 60.846546801302189 ] ], [ [ -115.751660096012728, 60.846618358939125 ], [ -115.751475290658462, 60.84663829536597 ] ], [ [ -115.751290480776348, 60.846658341767913 ], [ -115.750366362465215, 60.846760246863731 ] ], [ [ -115.750181538105679, 60.84678062711842 ], [ -115.750050592629819, 60.846795066074321 ] ], [ [ -115.74999671351371, 60.846801007118302 ], [ -115.748887761080965, 60.846923281766209 ] ], [ [ -115.747257800933554, 60.847128240655934 ], [ -115.747223248239322, 60.847133974528106 ] ], [ [ -115.747037859760766, 60.847168655338272 ], [ -115.746852380835776, 60.847205635716328 ] ], [ [ -115.745736730733441, 60.847498134175524 ], [ -115.745550716707811, 60.847548678313508 ] ], [ [ -115.745505861525871, 60.847560866399029 ], [ -115.7453151, 60.8476127 ], [ -115.743501211739073, 60.848189008340427 ] ], [ [ -115.742942124041406, 60.848366632455289 ], [ -115.742569395471165, 60.848485047227655 ] ], [ [ -115.741306225564529, 60.850484764974951 ], [ -115.7413235, 60.8505162 ], [ -115.741520080357361, 60.850935729118348 ] ], [ [ -115.741550299448178, 60.851000219762959 ], [ -115.741858170290968, 60.851657232741864 ] ] ] } },
{ "type": "Feature", "properties": { "osm_id": 119964039, "name": null, "highway": "unclassified", "flooded_m": 10.011423715091333 }, "geometry": { "type": "LineString", "coordinates": [ [ -115.718509268770163, 60.855297809506482 ], [ -115.718493399999986, 60.8553063 ], [ -115.71836913664842, 60.855356005345243 ] ] } },
{ "type": "Feature", "properties": { "osm_id": 119964059, "name": null, "highway": "unclassified", "flooded_m": 18.701477208096978 }, "geometry": { "type": "LineString", "coordinates": [ [ -115.7413946, 60.8612773 ], [ -115.741459399999982, 60.8614143 ], [ -115.741471222291295, 60.861440980224572 ] ] } },
{ "type": "Feature", "properties": { "osm_id": 119964069, "name": "Loop C", "highway": "service", "flooded_m": 22.006953697816151 }, "geometry": { "type": "LineString", "coordinates": [ [ -115.74167380192867, 60.861900841792739 ], [ -115.741645099999985, 60.861886899999988 ], [ -115.741586083893225, 60.861711432017913 ] ] } },
{ "type": "Feature", "properties": { "osm_id": 119964080, "name": null, "highway": "residential", "flooded_m": 40.266271138534997 }, "geometry": { "type": "LineString", "coordinates": [ [ -115.727407773255848, 60.859512108123027 ], [ -115.726669987889437, 60.85954663573515 ] ] } },
{ "type": "Feature", "properties": { "osm_id": 119964093, "name": null, "highway": "unclassified", "flooded_m": 89.157737293802597 }, "geometry": { "type": "LineString", "coordinates": [ [ -115.718933224510394, 60.855060040629702 ], [ -115.7194749, 60.854934500000013 ], [ -115.7197573, 60.85488 ], [ -115.720002799999989, 60.8548258 ], [ -115.7203669, 60.8547336 ], [ -115.720419370112452, 60.854721822754023 ] ] } },
{ "type": "Feature", "properties": { "osm_id": 119965097, "name": "100 Avenue", "highway": "residential", "flooded_m": 165.26977871659977 }, "geometry": { "type": "MultiLineString", "coordinates": [ [ [ -115.739501720219138, 60.849120971959231 ], [ -115.73941532662414, 60.84913014357371 ] ], [ [ -115.739230511129747, 60.849149763532949 ], [ -115.738306430303467, 60.849247859507578 ] ], [ [ -115.735534336690748, 60.84953749267823 ], [ -115.734979932832843, 60.84959488611586 ] ], [ [ -115.734610329171161, 60.849633147134078 ], [ -115.734587600000012, 60.849635499999977 ], [ -115.734240114944456, 60.849686822032844 ] ], [ [ -115.734155683928734, 60.849699291966232 ], [ -115.734054987391517, 60.84971416413326 ] ], [ [ -115.733701158319207, 60.850054182166744 ], [ -115.7337564, 60.8502251 ], [ -115.733908475477591, 60.850505097582989 ] ], [ [ -115.734178173425533, 60.851252802372279 ], [ -115.7341782, 60.851253 ] ] ] } },
{ "type": "Feature", "properties": { "osm_id": 119965099, "name": "101 Avenue", "highway": "residential", "flooded_m": 79.66191861805369 }, "geometry": { "type": "MultiLineString", "coordinates": [ [ [ -115.746245627117588, 60.848600977509378 ], [ -115.74661521357865, 60.848562473568826 ] ], [ [ -115.746984799162263, 60.848523968609548 ], [ -115.747283, 60.848492899999989 ], [ -115.747694, 60.8484645 ], [ -115.747723397791091, 60.848461520515279 ] ], [ [ -115.747908209354748, 60.848441758140815 ], [ -115.7480183, 60.8484144 ], [ -115.74807499534451, 60.84839294611934 ] ], [ [ -115.74809444491828, 60.848385586264143 ], [ -115.7481137, 60.8483783 ], [ -115.7481876, 60.8483333 ] ] ] } },
{ "type": "Feature", "properties": { "osm_id": 119965101, "name": "107 Street", "highway": "residential", "flooded_m": 127.48758789678756 }, "geometry": { "type": "LineString", "coordinates": [ [ -115.7481876, 60.8483333 ], [ -115.748237, 60.8482806 ], [ -115.7482632, 60.848223099999984 ], [ -115.7482713, 60.848163 ], [ -115.748237500000016, 60.8481016 ], [ -115.748186899999979, 60.847999399999985 ], [ -115.748093200000014, 60.8478103 ], [ -115.747955, 60.8475073 ], [ -115.747802487288496, 60.84722310743404 ] ] } },
{ "type": "Feature", "properties": { "osm_id": 266086990, "name": null, "highway": "residential", "flooded_m": 20.104930810412753 }, "geometry": { "type": "LineString", "coordinates": [ [ -115.839633709373814, 60.749874553758374 ], [ -115.839485700000012, 60.7499196 ], [ -115.8393752, 60.74997710000001 ], [ -115.839364570205944, 60.749992506477476 ] ] } },
{ "type": "Feature", "properties": { "osm_id": 314671821, "name": "Loop A", "highway": "service", "flooded_m": 37.014804662909341 }, "geometry": { "type": "LineString", "coordinates": [ [ -115.741977896233848, 60.863151774461791 ], [ -115.741998, 60.8631346 ], [ -115.7421408, 60.863062799999987 ], [ -115.742394599999983, 60.863006599999984 ], [ -115.742550565520105, 60.863015402708243 ] ] } },
{ "type": "Feature", "properties": { "osm_id": 314671827, "name": null, "highway": "service", "flooded_m": 81.511722999065654 }, "geometry": { "type": "MultiLineString", "coordinates": [ [ [ -115.7382795, 60.861595299999983 ], [ -115.738377265983473, 60.86177115971644 ] ], [ [ -115.738599860399134, 60.862042624834636 ], [ -115.73862, 60.8620582 ], [ -115.738717302705496, 60.862133518698982 ] ], [ [ -115.73871872738863, 60.862134621494377 ], [ -115.739202, 60.8625087 ] ] ] } },
{ "type": "Feature", "properties": { "osm_id": 314671835, "name": "106th Avenue", "highway": "residential", "flooded_m": 170.19321684754314 }, "geometry": { "type": "MultiLineString", "coordinates": [ [ [ -115.7382795, 60.861595299999983 ], [ -115.739014199999986, 60.8615184 ], [ -115.739296494324478, 60.861489810073948 ] ], [ [ -115.739666196993937, 60.861452366716946 ], [ -115.74022074939765, 60.861396199770773 ] ], [ [ -115.740405599772075, 60.861377476945883 ], [ -115.7413946, 60.8612773 ], [ -115.741527373474611, 60.861261921070749 ] ], [ [ -115.741699721548173, 60.861241958064078 ], [ -115.742069630871839, 60.861199110787616 ] ] ] } },
{ "type": "Feature", "properties": { "osm_id": 744108885, "name": "Hay River Highway", "highway": "primary", "flooded_m": 378.72031560084605 }, "geometry": { "type": "MultiLineString", "coordinates": [ [ [ -115.836096474794502, 60.777440524006884 ], [ -115.835690348833538, 60.777706377440559 ] ], [ [ -115.834622677184413, 60.778415447158743 ], [ -115.834356120139233, 60.77859271642744 ] ], [ [ -115.827416579880321, 60.783650416201866 ], [ -115.827391574605585, 60.783683306508685 ] ], [ [ -115.827348764683634, 60.783739615717792 ], [ -115.826738410838175, 60.784542409720622 ] ], [ [ -115.826128026255503, 60.785345200770465 ], [ -115.82578891042715, 60.785791194522112 ] ], [ [ -115.821800137013682, 60.790905622934901 ], [ -115.821631599999989, 60.7911363 ], [ -115.821625482521611, 60.791142229726475 ] ], [ [ -115.821607085337121, 60.79116006226684 ], [ -115.821350068923877, 60.791409188008167 ] ], [ [ -115.821226102149865, 60.791529347300987 ], [ -115.8209804, 60.7917675 ], [ -115.820844703994709, 60.791909680838707 ] ], [ [ -115.820727708299444, 60.792032266558792 ], [ -115.820653632626787, 60.792109881006688 ] ], [ [ -115.820642722780178, 60.79212131200773 ], [ -115.820462558862758, 60.79231008089036 ] ], [ [ -115.820302775962816, 60.792477493240987 ], [ -115.820271482702637, 60.792510280489694 ] ], [ [ -115.820217788073407, 60.792566538408693 ], [ -115.820047810872424, 60.792744628575356 ] ] ] } },
{ "type": "Feature", "properties": { "osm_id": 744111876, "name": null, "highway": "service", "flooded_m": 20.301115665285586 }, "geometry": { "type": "MultiLineString", "coordinates": [ [ [ -115.813361051725082, 60.795564473795288 ], [ -115.813278537956734, 60.795468526147687 ] ], [ [ -115.813184898560195, 60.795359640780823 ], [ -115.813122916866035, 60.795287567049186 ] ] ] } },
{ "type": "Feature", "properties": { "osm_id": 749132426, "name": null, "highway": "service", "flooded_m": 127.51689291308375 }, "geometry": { "type": "MultiLineString", "coordinates": [ [ [ -115.7345953, 60.8556204 ], [ -115.73407090000002, 60.8556228 ], [ -115.733821920953218, 60.855604664514296 ] ], [ [ -115.732903059287651, 60.855565817941063 ], [ -115.732392300000015, 60.85556050000001 ], [ -115.732074897814087, 60.855067240847866 ] ] ] } },
{ "type": "Feature", "properties": { "osm_id": 817406720, "name": null, "highway": "residential", "flooded_m": 67.048312173860253 }, "geometry": { "type": "MultiLineString", "coordinates": [ [ [ -115.807702435912447, 60.801704572070307 ], [ -115.807667899999984, 60.801635499999975 ], [ -115.807423900000018, 60.8014768 ], [ -115.807347318778824, 60.80143204339101 ] ], [ [ -115.807265192754429, 60.801384046028005 ], [ -115.8071669, 60.8013266 ], [ -115.806905481830086, 60.801173841278533 ] ] ] } },
{ "type": "Feature", "properties": { "osm_id": 817406722, "name": null, "highway": "residential", "flooded_m": 5.3402103261469938 }, "geometry": { "type": "LineString", "coordinates": [ [ -115.8071669, 60.8013266 ], [ -115.807082649681377, 60.801351173037929 ] ] } },
{ "type": "Feature", "properties": { "osm_id": 876108353, "name": null, "highway": "service", "flooded_m": 30.709421114774521 }, "geometry": { "type": "LineString", "coordinates": [ [ -115.825081890193118, 60.785246258447536 ], [ -115.825029900000018, 60.7853596 ], [ -115.824936960012892, 60.785512538741408 ] ] } },
{ "type": "Feature", "properties": { "osm_id": 876108367, "name": null, "highway": "service", "flooded_m": 10.638687243931308 }, "geometry": { "type": "LineString", "coordinates": [ [ -115.823993586098482, 60.791206127120532 ], [ -115.823825600000021, 60.7912357 ], [ -115.823808824837684, 60.791234878633105 ] ] } },
{ "type": "Feature", "properties": { "osm_id": 876189558, "name": null, "highway": "service", "flooded_m": 13.722981239884142 }, "geometry": { "type": "LineString", "coordinates": [ [ -115.776983349164865, 60.829250118952153 ], [ -115.776734100000013, 60.8292694 ] ] } },
{ "type": "Feature", "properties": { "osm_id": 876189559, "name": null, "highway": "service", "flooded_m": 30.48855037106145 }, "geometry": { "type": "LineString", "coordinates": [ [ -115.7777363, 60.8287975 ], [ -115.7775333, 60.8288089 ], [ -115.7772008, 60.8288275 ], [ -115.77718317644792, 60.828833636867166 ] ] } },
{ "type": "Feature", "properties": { "osm_id": 876189560, "name": null, "highway": "service", "flooded_m": 125.4594439587644 }, "geometry": { "type": "LineString", "coordinates": [ [ -115.777384881178975, 60.828367830517124 ], [ -115.7766134, 60.8284209 ], [ -115.7766536, 60.828648399999985 ], [ -115.777501200000017, 60.828655599999983 ], [ -115.7777137, 60.8286574 ] ] } },
{ "type": "Feature", "properties": { "osm_id": 876189563, "name": null, "highway": "service", "flooded_m": 81.805603859838001 }, "geometry": { "type": "LineString", "coordinates": [ [ -115.775596323390388, 60.827042518475366 ], [ -115.776659, 60.8271802 ], [ -115.776996900000015, 60.8271985 ], [ -115.777061713247917, 60.827197695515444 ] ] } },
{ "type": "Feature", "properties": { "osm_id": 876189568, "name": null, "highway": "service", "flooded_m": 44.091650151126714 }, "geometry": { "type": "MultiLineString", "coordinates": [ [ [ -115.7671724, 60.842792899999985 ], [ -115.767264589052687, 60.842822544769803 ] ], [ [ -115.767267888667774, 60.842823605808249 ], [ -115.767809855763446, 60.842997881031607 ] ], [ [ -115.768130192411306, 60.843100886736039 ], [ -115.768173370230556, 60.843114770651098 ] ] ] } },
{ "type": "Feature", "properties": { "osm_id": 876189570, "name": null, "highway": "track", "flooded_m": 243.11928108788328 }, "geometry": { "type": "MultiLineString", "coordinates": [ [ [ -115.7671724, 60.842792899999985 ], [ -115.767255100000014, 60.8429544 ], [ -115.7672364, 60.843123 ], [ -115.7671425, 60.843243199999989 ], [ -115.767096340289058, 60.843270993017946 ] ], [ [ -115.766949447062402, 60.843359437815124 ], [ -115.7666087, 60.8435646 ], [ -115.766464498032633, 60.843624365059419 ] ], [ [ -115.765191221095975, 60.84410085319967 ], [ -115.765049634780596, 60.844150127521367 ] ], [ [ -115.764546878741697, 60.84432509229196 ], [ -115.7643664, 60.8443879 ], [ -115.7639641, 60.8445159 ], [ -115.763698723938262, 60.844628922191077 ] ], [ [ -115.759980483532047, 60.845607850493202 ], [ -115.759426624060779, 60.845654158016288 ] ], [ [ -115.755531847852865, 60.846433889777508 ], [ -115.755369399735045, 60.846485243379583 ] ], [ [ -115.7488336958302, 60.848306311750314 ], [ -115.7482785, 60.8483634 ], [ -115.7481137, 60.8483783 ] ] ] } },
{ "type": "Feature", "properties": { "osm_id": 876189573, "name": null, "highway": "service", "flooded_m": 17.715704544711041 }, "geometry": { "type": "LineString", "coordinates": [ [ -115.777053, 60.8359621 ], [ -115.7767287, 60.8359466 ] ] } },
{ "type": "Feature", "properties": { "osm_id": 876189574, "name": null, "highway": "service", "flooded_m": 23.104683096982697 }, "geometry": { "type": "LineString", "coordinates": [ [ -115.778463035032715, 60.83867818627278 ], [ -115.778286251751197, 60.838489556449488 ] ] } },
{ "type": "Feature", "properties": { "osm_id": 876189576, "name": null, "highway": "service", "flooded_m": 32.300122216487495 }, "geometry": { "type": "MultiLineString", "coordinates": [ [ [ -115.780134377972786, 60.838271002927868 ], [ -115.7799974, 60.838336799999972 ], [ -115.779945649910971, 60.838395640827876 ] ], [ [ -115.777959302210505, 60.839060169816015 ], [ -115.777710536198271, 60.83911234668038 ] ] ] } },
{ "type": "Feature", "properties": { "osm_id": 876189577, "name": null, "highway": "service", "flooded_m": 21.197677707763198 }, "geometry": { "type": "LineString", "coordinates": [ [ -115.777877870331281, 60.839548518702045 ], [ -115.778248120919642, 60.839488811431821 ] ] } },
{ "type": "Feature", "properties": { "osm_id": 876189578, "name": null, "highway": "service", "flooded_m": 31.580931887961437 }, "geometry": { "type": "LineString", "coordinates": [ [ -115.7758678, 60.8414581 ], [ -115.775655364107479, 60.841194211557948 ] ] } },
{ "type": "Feature", "properties": { "osm_id": 876189580, "name": null, "highway": "service", "flooded_m": 104.79933327977633 }, "geometry": { "type": "MultiLineString", "coordinates": [ [ [ -115.784313077696936, 60.834816274464977 ], [ -115.783523798556274, 60.834980217039963 ] ], [ [ -115.783385968086364, 60.835008845402847 ], [ -115.782401600000014, 60.8352133 ] ] ] } },
{ "type": "Feature", "properties": { "osm_id": 876189581, "name": null, "highway": "service", "flooded_m": 81.314481241020715 }, "geometry": { "type": "MultiLineString", "coordinates": [ [ [ -115.79061507475447, 60.843302424016066 ], [ -115.791357194453326, 60.843141102508177 ] ], [ [ -115.7915427232154, 60.843100771487229 ], [ -115.792099306711251, 60.842979776878884 ] ], [ [ -115.792190079760402, 60.842960043595312 ], [ -115.7922579, 60.8429453 ] ] ] } },
{ "type": "Feature", "properties": { "osm_id": 876189582, "name": null, "highway": "service", "flooded_m": 166.51058082657232 }, "geometry": { "type": "MultiLineString", "coordinates": [ [ [ -115.796016499999979, 60.848692 ], [ -115.795600603531909, 60.848288344728381 ] ], [ [ -115.795413854472784, 60.848107088591121 ], [ -115.795047768147882, 60.847751763422934 ] ], [ [ -115.795040362673078, 60.847744575541753 ], [ -115.7949489, 60.8476558 ], [ -115.79493549999998, 60.8475735 ], [ -115.795005300000014, 60.8474977 ], [ -115.7951635, 60.8474429 ], [ -115.795429664582258, 60.847384268785071 ] ], [ [ -115.795986369336006, 60.847261634451336 ], [ -115.7962539, 60.8472027 ] ] ] } },
{ "type": "Feature", "properties": { "osm_id": 876206612, "name": null, "highway": "service", "flooded_m": 30.60664390230124 }, "geometry": { "type": "LineString", "coordinates": [ [ -115.790307251199238, 60.817360168767991 ], [ -115.78978840000002, 60.8172539 ] ] } },
{ "type": "Feature", "properties": { "osm_id": 876206613, "name": null, "highway": "service", "flooded_m": 45.840873306033544 }, "geometry": { "type": "MultiLineString", "coordinates": [ [ [ -115.791058167686813, 60.816949743017958 ], [ -115.790887551510565, 60.816908700510119 ] ], [ [ -115.790875965598687, 60.816905913453951 ], [ -115.790511562924195, 60.816818253588075 ] ], [ [ -115.790071687237742, 60.816362603533605 ], [ -115.790165255037621, 60.816251350206478 ] ] ] } },
{ "type": "Feature", "properties": { "osm_id": 876206614, "name": null, "highway": "service", "flooded_m": 11.946090928015581 }, "geometry": { "type": "LineString", "coordinates": [ [ -115.786626988665191, 60.817441964052094 ], [ -115.786505300000016, 60.8174815 ], [ -115.786440976945528, 60.817498813592273 ] ] } },
{ "type": "Feature", "properties": { "osm_id": 876206648, "name": null, "highway": "service", "flooded_m": 10.583180624347882 }, "geometry": { "type": "LineString", "coordinates": [ [ -115.7916842, 60.8042558 ], [ -115.791539219252257, 60.804192476364555 ] ] } },
{ "type": "Feature", "properties": { "osm_id": 876206649, "name": null, "highway": "service", "flooded_m": 29.8919886967468 }, "geometry": { "type": "LineString", "coordinates": [ [ -115.793218426907842, 60.803523895841224 ], [ -115.793109800000011, 60.803473 ], [ -115.792821900000021, 60.803338199999985 ] ] } },
{ "type": "Feature", "properties": { "osm_id": 876206651, "name": null, "highway": "service", "flooded_m": 10.782447255131114 }, "geometry": { "type": "LineString", "coordinates": [ [ -115.789888976525177, 60.808961075053759 ], [ -115.79007135789665, 60.808998926701655 ] ] } },
{ "type": "Feature", "properties": { "osm_id": 876206653, "name": null, "highway": "service", "flooded_m": 42.869767511659809 }, "geometry": { "type": "MultiLineString", "coordinates": [ [ [ -115.786987058451544, 60.807929269111135 ], [ -115.786804219673002, 60.807892676844538 ] ], [ [ -115.78665683162518, 60.807891345610564 ], [ -115.7866376, 60.8078979 ], [ -115.7866092, 60.807921 ], [ -115.7865985, 60.8079618 ], [ -115.786617337647129, 60.807985077104718 ] ], [ [ -115.786799277175149, 60.808034358591115 ], [ -115.786981706203591, 60.808070718231178 ] ], [ [ -115.786998239291506, 60.808074013398404 ], [ -115.787164135648268, 60.808107077624484 ] ] ] } },
{ "type": "Feature", "properties": { "osm_id": 876206654, "name": null, "highway": "service", "flooded_m": 45.244432152000684 }, "geometry": { "type": "LineString", "coordinates": [ [ -115.786933690284414, 60.808163222686773 ], [ -115.7866389, 60.8081055 ], [ -115.786447156485906, 60.808338412505556 ] ] } },
{ "type": "Feature", "properties": { "osm_id": 876206656, "name": null, "highway": "service", "flooded_m": 28.629093873755892 }, "geometry": { "type": "MultiLineString", "coordinates": [ [ [ -115.7860574, 60.809026599999989 ], [ -115.786391194580531, 60.809103445754346 ] ], [ [ -115.7865837548689, 60.809147776189604 ], [ -115.7867259, 60.809180499999989 ] ] ] } },
{ "type": "Feature", "properties": { "osm_id": 876206657, "name": null, "highway": "service", "flooded_m": 23.441289604002584 }, "geometry": { "type": "LineString", "coordinates": [ [ -115.7869878, 60.808846 ], [ -115.786587704045644, 60.808767974781404 ] ] } },
{ "type": "Feature", "properties": { "osm_id": 876206659, "name": null, "highway": "service", "flooded_m": 85.897261914639955 }, "geometry": { "type": "LineString", "coordinates": [ [ -115.7862724, 60.809679 ], [ -115.7852662, 60.8094361 ], [ -115.785424726144825, 60.809227093862091 ] ] } },
{ "type": "Feature", "properties": { "osm_id": 876214446, "name": null, "highway": "service", "flooded_m": 15.266264320253105 }, "geometry": { "type": "LineString", "coordinates": [ [ -115.785076617590974, 60.809839590962561 ], [ -115.784819, 60.8097853 ] ] } },
{ "type": "Feature", "properties": { "osm_id": 876214457, "name": null, "highway": "service", "flooded_m": 47.017112071002025 }, "geometry": { "type": "MultiLineString", "coordinates": [ [ [ -115.785883938673521, 60.812912724111285 ], [ -115.7858241, 60.8128789 ], [ -115.7858723, 60.8128266 ], [ -115.785882746429039, 60.812821582619378 ] ], [ [ -115.786069676760789, 60.812739786345247 ], [ -115.786576454011509, 60.812918980929226 ] ], [ [ -115.786613887304398, 60.812932217049806 ], [ -115.786626, 60.8129365 ] ] ] } },
{ "type": "Feature", "properties": { "osm_id": 876214458, "name": null, "highway": "service", "flooded_m": 2.1707098141316523 }, "geometry": { "type": "LineString", "coordinates": [ [ -115.786613027474388, 60.812954929060005 ], [ -115.786626, 60.8129365 ] ] } },
{ "type": "Feature", "properties": { "osm_id": 876214459, "name": null, "highway": "service", "flooded_m": 28.461014557621695 }, "geometry": { "type": "MultiLineString", "coordinates": [ [ [ -115.787906842940032, 60.812770248197388 ], [ -115.787902800000012, 60.8127691 ], [ -115.787724121478718, 60.812740887751353 ] ], [ [ -115.786983630247548, 60.812877334910155 ], [ -115.786947380419292, 60.812922330749274 ] ], [ [ -115.786875563641516, 60.81301147438429 ], [ -115.786790734490452, 60.813116769124534 ] ] ] } },
{ "type": "Feature", "properties": { "osm_id": 876214460, "name": null, "highway": "service", "flooded_m": 21.65972591078005 }, "geometry": { "type": "LineString", "coordinates": [ [ -115.787579959597736, 60.813287209640499 ], [ -115.787420356099844, 60.813465353385944 ] ] } },
{ "type": "Feature", "properties": { "osm_id": 876214466, "name": null, "highway": "service", "flooded_m": 27.885969258572864 }, "geometry": { "type": "LineString", "coordinates": [ [ -115.7970759, 60.8160638 ], [ -115.796611071293825, 60.815958266652508 ] ] } },
{ "type": "Feature", "properties": { "osm_id": 876214467, "name": null, "highway": "service", "flooded_m": 50.065852958425261 }, "geometry": { "type": "LineString", "coordinates": [ [ -115.797175247699997, 60.815621851928476 ], [ -115.7980228, 60.815797 ] ] } },
{ "type": "Feature", "properties": { "osm_id": 876365693, "name": null, "highway": "service", "flooded_m": 16.763662763350244 }, "geometry": { "type": "LineString", "coordinates": [ [ -115.7716989, 60.8386833 ], [ -115.771805612009416, 60.838824499343673 ] ] } },
{ "type": "Feature", "properties": { "osm_id": 876365697, "name": null, "highway": "service", "flooded_m": 41.038081850132308 }, "geometry": { "type": "MultiLineString", "coordinates": [ [ [ -115.760594800000021, 60.8416528 ], [ -115.760506682120507, 60.841523668775856 ] ], [ [ -115.760493411074421, 60.841504220795848 ], [ -115.760343, 60.841283799999985 ] ] ] } },
{ "type": "Feature", "properties": { "osm_id": 876365698, "name": null, "highway": "service", "flooded_m": 50.99227199421837 }, "geometry": { "type": "LineString", "coordinates": [ [ -115.757825700000012, 60.840489500000011 ], [ -115.7577869, 60.840625600000024 ], [ -115.7575469, 60.840745199999986 ], [ -115.7572915, 60.8408339 ] ] } },
{ "type": "Feature", "properties": { "osm_id": 876365699, "name": null, "highway": "service", "flooded_m": 66.045690570149546 }, "geometry": { "type": "MultiLineString", "coordinates": [ [ [ -115.7568884, 60.8408674 ], [ -115.756880900000013, 60.8408983 ], [ -115.756891700000011, 60.8409291 ], [ -115.75691980000002, 60.8409571 ], [ -115.7569629, 60.8409801 ], [ -115.7570177, 60.8409962 ], [ -115.75703113040197, 60.840997938566105 ] ], [ [ -115.757215426026775, 60.840990198338503 ], [ -115.757257199999984, 60.8409763 ], [ -115.757297900000012, 60.8409523 ], [ -115.7573229, 60.840923600000018 ], [ -115.7573304, 60.8408926 ], [ -115.7573196, 60.8408619 ], [ -115.7572915, 60.8408339 ], [ -115.7572484, 60.8408109 ], [ -115.7571937, 60.8407947 ], [ -115.757131799999982, 60.8407867 ], [ -115.757067899999981, 60.8407875 ], [ -115.757007, 60.8407971 ], [ -115.756954100000016, 60.8408146 ], [ -115.7569134, 60.8408387 ], [ -115.7568884, 60.8408674 ] ] ] } },
{ "type": "Feature", "properties": { "osm_id": 876365708, "name": null, "highway": "service", "flooded_m": 7.6121389393970622 }, "geometry": { "type": "LineString", "coordinates": [ [ -115.75844442137155, 60.843819910202825 ], [ -115.758578425693017, 60.843800052931826 ] ] } },
{ "type": "Feature", "properties": { "osm_id": 876365718, "name": null, "highway": "service", "flooded_m": 55.822752540759026 }, "geometry": { "type": "MultiLineString", "coordinates": [ [ [ -115.750993157639499, 60.844845768613347 ], [ -115.75108285675131, 60.84482922811042 ] ], [ [ -115.751363859193006, 60.844777410802557 ], [ -115.751435499999985, 60.8447642 ], [ -115.7516876, 60.84481 ], [ -115.752101780101043, 60.844729890676916 ] ], [ [ -115.752940950268723, 60.844487308057957 ], [ -115.752991099999988, 60.844459799999989 ], [ -115.753019764625634, 60.844488039152516 ] ] ] } },
{ "type": "Feature", "properties": { "osm_id": 876365723, "name": null, "highway": "track", "flooded_m": 15.705632681283713 }, "geometry": { "type": "MultiLineString", "coordinates": [ [ [ -115.742109456780952, 60.86018636454466 ], [ -115.742129757441973, 60.860190049102222 ] ], [ [ -115.741922382558542, 60.860261834156795 ], [ -115.7419083, 60.860228 ], [ -115.741833, 60.8601394 ] ] ] } },
{ "type": "Feature", "properties": { "osm_id": 876365724, "name": null, "highway": "service", "flooded_m": 5.5278234501952737 }, "geometry": { "type": "LineString", "coordinates": [ [ -115.741833, 60.8601394 ], [ -115.741916300000014, 60.8601575 ], [ -115.741926428701149, 60.860158954924131 ] ] } },
{ "type": "Feature", "properties": { "osm_id": 876365730, "name": null, "highway": "service", "flooded_m": 43.307048780709806 }, "geometry": { "type": "MultiLineString", "coordinates": [ [ [ -115.7369891, 60.860310299999988 ], [ -115.736949290085192, 60.860317912402984 ] ], [ [ -115.736933513010882, 60.860320929271467 ], [ -115.7365519, 60.860393900000012 ], [ -115.736209183110518, 60.860411029137445 ] ] ] } },
{ "type": "Feature", "properties": { "osm_id": 876365731, "name": null, "highway": "service", "flooded_m": 72.040008664519178 }, "geometry": { "type": "MultiLineString", "coordinates": [ [ [ -115.738217739721833, 60.86083253250596 ], [ -115.737292985949821, 60.860939031234956 ] ], [ [ -115.736370796031409, 60.860980468580614 ], [ -115.736186022164915, 60.860997249528396 ] ], [ [ -115.735816473859416, 60.861030810660559 ], [ -115.735631699420395, 60.861047590844926 ] ] ] } },
{ "type": "Feature", "properties": { "osm_id": 876365732, "name": null, "highway": "service", "flooded_m": 62.053365655599592 }, "geometry": { "type": "MultiLineString", "coordinates": [ [ [ -115.741369244387556, 60.860901271933052 ], [ -115.741342300000014, 60.860964699999982 ], [ -115.741202800000011, 60.8610234 ], [ -115.7410446, 60.86100780000001 ], [ -115.740956117163918, 60.860987197073541 ] ], [ [ -115.740791844754796, 60.860919749490726 ], [ -115.740755384867072, 60.8608955252787 ] ], [ [ -115.740057132723166, 60.860875843997988 ], [ -115.740006600000015, 60.8608771 ], [ -115.739689486339728, 60.860861279145595 ] ], [ [ -115.738839827911889, 60.860249028141048 ], [ -115.7388103, 60.8601849 ] ] ] } },
{ "type": "Feature", "properties": { "osm_id": 876365733, "name": null, "highway": "service", "flooded_m": 73.944775706131168 }, "geometry": { "type": "MultiLineString", "coordinates": [ [ [ -115.740103765602569, 60.859991498567794 ], [ -115.740092502180488, 60.860081185397696 ] ], [ [ -115.740086572634198, 60.860128400161607 ], [ -115.7400844, 60.8601457 ], [ -115.740078576433703, 60.860170847282674 ] ], [ [ -115.740063641767208, 60.860260499712915 ], [ -115.7401139, 60.8604109 ], [ -115.740065847575053, 60.860619689782233 ] ], [ [ -115.740045224857738, 60.860709288915018 ], [ -115.740006600000015, 60.8608771 ] ] ] } },
{ "type": "Feature", "properties": { "osm_id": 876365734, "name": null, "highway": "service", "flooded_m": 194.84622670349069 }, "geometry": { "type": "MultiLineString", "coordinates": [ [ [ -115.736416440800042, 60.859238562651925 ], [ -115.736455848955899, 60.859328725372386 ] ], [ [ -115.736640051548292, 60.859959002993307 ], [ -115.7367691, 60.860199300000012 ], [ -115.736830278013414, 60.860230167201756 ] ], [ [ -115.736950362381279, 60.860290755192345 ], [ -115.7369891, 60.860310299999988 ], [ -115.7372949, 60.8603573 ], [ -115.7377589, 60.8603195 ], [ -115.737870325250952, 60.860305235807367 ] ], [ [ -115.738055366671205, 60.860281547349487 ], [ -115.738345597622967, 60.860244392252916 ] ], [ [ -115.738610489305103, 60.860210480442895 ], [ -115.7388103, 60.8601849 ], [ -115.738948735424174, 60.860160257076934 ] ], [ [ -115.738980907588854, 60.860154530076272 ], [ -115.740093343188065, 60.859956498242489 ] ] ] } },
{ "type": "Feature", "properties": { "osm_id": 876365735, "name": null, "highway": "service", "flooded_m": 32.3310213219399 }, "geometry": { "type": "LineString", "coordinates": [ [ -115.7372332, 60.858359 ], [ -115.73665567590561, 60.858429002991734 ] ] } },
{ "type": "Feature", "properties": { "osm_id": 876365736, "name": null, "highway": "service", "flooded_m": 123.82061164418459 }, "geometry": { "type": "MultiLineString", "coordinates": [ [ [ -115.74016010297791, 60.858261376701947 ], [ -115.7399476, 60.858278 ], [ -115.739420972981065, 60.858331158559658 ] ], [ [ -115.738866480091488, 60.85838712752102 ], [ -115.738681648703135, 60.858405783332039 ] ], [ [ -115.737572839176238, 60.858513068749154 ], [ -115.737367300000017, 60.8584857 ], [ -115.7372332, 60.858359 ], [ -115.737231292560111, 60.858348292631028 ] ], [ [ -115.737214803878629, 60.858255733515307 ], [ -115.737144699999988, 60.8578622 ] ] ] } },
{ "type": "Feature", "properties": { "osm_id": 876365737, "name": null, "highway": "service", "flooded_m": 28.274207787228882 }, "geometry": { "type": "LineString", "coordinates": [ [ -115.7391025, 60.857893 ], [ -115.7392207, 60.8576458 ] ] } },
{ "type": "Feature", "properties": { "osm_id": 876365738, "name": null, "highway": "service", "flooded_m": 63.629276424550739 }, "geometry": { "type": "LineString", "coordinates": [ [ -115.7405484, 60.8575896 ], [ -115.7404062, 60.8576563 ], [ -115.7401997, 60.8577608 ], [ -115.73991, 60.8578979 ], [ -115.739674, 60.8579645 ] ] } },
{ "type": "Feature", "properties": { "osm_id": 876365739, "name": null, "highway": "service", "flooded_m": 65.888130884712794 }, "geometry": { "type": "MultiLineString", "coordinates": [ [ [ -115.740604065203485, 60.857841168206058 ], [ -115.7406288, 60.8578143 ], [ -115.7405484, 60.8575896 ], [ -115.740482701653562, 60.857391069618835 ] ], [ [ -115.740381250393099, 60.857320339786398 ], [ -115.740327590124181, 60.857299824285768 ] ], [ [ -115.740198642943099, 60.857282700026516 ], [ -115.7401139, 60.8572827 ], [ -115.740013314871916, 60.857314150304205 ] ] ] } },
{ "type": "Feature", "properties": { "osm_id": 876365740, "name": null, "highway": "service", "flooded_m": 68.807819457902454 }, "geometry": { "type": "MultiLineString", "coordinates": [ [ [ -115.739837158238032, 60.857112752294512 ], [ -115.739839671517075, 60.857115667927701 ] ], [ [ -115.740012840358801, 60.857326198634013 ], [ -115.740049500000012, 60.85737670000001 ], [ -115.7401997, 60.8577608 ], [ -115.740264720957654, 60.857927782014379 ] ] ] } },
{ "type": "Feature", "properties": { "osm_id": 876365742, "name": null, "highway": "service", "flooded_m": 42.40983062350324 }, "geometry": { "type": "LineString", "coordinates": [ [ -115.74179607487838, 60.858792354722048 ], [ -115.741168, 60.858891899999989 ], [ -115.741054979061062, 60.858911873492325 ] ] } },
{ "type": "Feature", "properties": { "osm_id": 876365743, "name": null, "highway": "service", "flooded_m": 21.411962699261437 }, "geometry": { "type": "LineString", "coordinates": [ [ -115.741456750778738, 60.859016451930991 ], [ -115.7413235, 60.8589324 ], [ -115.741168, 60.858891899999989 ] ] } },
{ "type": "Feature", "properties": { "osm_id": 876365745, "name": null, "highway": "service", "flooded_m": 148.58624894428272 }, "geometry": { "type": "MultiLineString", "coordinates": [ [ [ -115.7374638, 60.8578025 ], [ -115.737785087586872, 60.857799562718711 ] ], [ [ -115.73833745488875, 60.857797284227722 ], [ -115.7391025, 60.857893 ], [ -115.739308913377641, 60.857918824562518 ] ], [ [ -115.739619781324748, 60.857957716854031 ], [ -115.739674, 60.8579645 ], [ -115.7400307, 60.8580703 ], [ -115.740164511511963, 60.858149430724829 ] ], [ [ -115.741210270028986, 60.859822275989082 ], [ -115.7412779, 60.859957699999988 ], [ -115.74138009482337, 60.860006870604686 ] ], [ [ -115.741561315531783, 60.860080188940294 ], [ -115.741833, 60.8601394 ] ] ] } },
{ "type": "Feature", "properties": { "osm_id": 876365746, "name": null, "highway": "service", "flooded_m": 69.706130201334645 }, "geometry": { "type": "MultiLineString", "coordinates": [ [ [ -115.7352864, 60.857459700000021 ], [ -115.735311972549226, 60.857522123271458 ] ], [ [ -115.735427460860734, 60.85770279432883 ], [ -115.735577251521846, 60.857767320499981 ] ], [ [ -115.736312077768019, 60.857806389593506 ], [ -115.736494290145444, 60.857802615092041 ] ], [ [ -115.736575953324873, 60.857803382384525 ], [ -115.736679712035809, 60.857820340008992 ] ], [ [ -115.737046183540983, 60.857863751474063 ], [ -115.737144699999988, 60.8578622 ], [ -115.737278800000013, 60.85786 ], [ -115.7374638, 60.8578025 ], [ -115.7374665, 60.8577007 ] ] ] } },
{ "type": "Feature", "properties": { "osm_id": 876365747, "name": null, "highway": "service", "flooded_m": 49.789035459216961 }, "geometry": { "type": "MultiLineString", "coordinates": [ [ [ -115.735198933335042, 60.857610852568733 ], [ -115.735216449364586, 60.857580582953247 ] ], [ [ -115.735250611910672, 60.857521546162154 ], [ -115.7352864, 60.857459700000021 ], [ -115.735296599999984, 60.857442 ], [ -115.7353288, 60.8572605 ], [ -115.735303499999986, 60.8571103 ] ] ] } },
{ "type": "Feature", "properties": { "osm_id": 876365748, "name": null, "highway": "service", "flooded_m": 40.486296078543916 }, "geometry": { "type": "MultiLineString", "coordinates": [ [ [ -115.739067, 60.8616339 ], [ -115.7393333, 60.8616177 ], [ -115.73947516688105, 60.861627882303694 ] ], [ [ -115.739531210976509, 60.861692187933372 ], [ -115.7395452, 60.8617091 ], [ -115.7395747, 60.8618528 ] ] ] } },
{ "type": "Feature", "properties": { "osm_id": 876365749, "name": null, "highway": "service", "flooded_m": 65.439191087747162 }, "geometry": { "type": "MultiLineString", "coordinates": [ [ [ -115.739014199999986, 60.8615184 ], [ -115.739067, 60.8616339 ], [ -115.7391241, 60.86175870000001 ], [ -115.739145599999986, 60.861885399999984 ], [ -115.7390383, 60.8619716 ], [ -115.73890800040229, 60.862003856343023 ] ], [ [ -115.738700820587027, 60.862043571762662 ], [ -115.73862, 60.8620582 ] ] ] } },
{ "type": "Feature", "properties": { "osm_id": 876365762, "name": null, "highway": "service", "flooded_m": 36.881650754200713 }, "geometry": { "type": "LineString", "coordinates": [ [ -115.746499724001367, 60.865606081078724 ], [ -115.746131684729775, 60.865884331496559 ] ] } },
{ "type": "Feature", "properties": { "osm_id": 876365775, "name": null, "highway": "service", "flooded_m": 12.611105940635028 }, "geometry": { "type": "LineString", "coordinates": [ [ -115.768445980118514, 60.864723450114099 ], [ -115.7685667, 60.864782 ], [ -115.768628017252112, 60.864777840238368 ] ] } },
{ "type": "Feature", "properties": { "osm_id": 876365776, "name": null, "highway": "service", "flooded_m": 15.874388352678512 }, "geometry": { "type": "LineString", "coordinates": [ [ -115.768480108282816, 60.864294987898923 ], [ -115.768513100000021, 60.864360199999986 ], [ -115.768457262351191, 60.86443045407708 ] ] } },
{ "type": "Feature", "properties": { "osm_id": 885312962, "name": "Hay River Highway", "highway": "primary", "flooded_m": 29.565705712707675 }, "geometry": { "type": "MultiLineString", "coordinates": [ [ [ -115.819134954330067, 60.793440407916023 ], [ -115.819114931333459, 60.793454762834507 ] ], [ [ -115.815202524719922, 60.795452155028954 ], [ -115.814828857776419, 60.795620039710386 ] ] ] } },
{ "type": "Feature", "properties": { "osm_id": 927940731, "name": "Buffalo Dr", "highway": "unclassified", "flooded_m": 56.891942741849029 }, "geometry": { "type": "MultiLineString", "coordinates": [ [ [ -115.765812432464728, 60.842306759999431 ], [ -115.766175435769924, 60.84243652354894 ] ], [ [ -115.766356938528119, 60.842501404958348 ], [ -115.766484613727783, 60.842547044439783 ] ], [ [ -115.766538442023389, 60.842566286124161 ], [ -115.766719946255705, 60.842631167046449 ] ], [ [ -115.767000235869375, 60.842731359023318 ], [ -115.7671724, 60.842792899999985 ] ] ] } },
{ "type": "Feature", "properties": { "osm_id": 960838471, "name": "Hay River Highway", "highway": "primary", "flooded_m": 17.878576577494393 }, "geometry": { "type": "MultiLineString", "coordinates": [ [ [ -115.779229485421624, 60.824345819965231 ], [ -115.779166411681359, 60.824435039054947 ] ], [ [ -115.778977188337137, 60.824702696133514 ], [ -115.778933, 60.8247652 ] ] ] } },
{ "type": "Feature", "properties": { "osm_id": 960838472, "name": "Hay River Highway", "highway": "primary", "flooded_m": 50.301380864189511 }, "geometry": { "type": "MultiLineString", "coordinates": [ [ [ -115.786925686447233, 60.814987353518546 ], [ -115.786864200000011, 60.815065399999988 ], [ -115.786785934183541, 60.815165675783192 ] ], [ [ -115.785552928497921, 60.816674302042713 ], [ -115.785468976199084, 60.816770034819513 ] ], [ [ -115.785360768643073, 60.816893425505612 ], [ -115.785234603436166, 60.817037292245978 ] ] ] } },
{ "type": "Feature", "properties": { "osm_id": 1096141253, "name": "Hay River Highway", "highway": "primary", "flooded_m": 21.427204806746097 }, "geometry": { "type": "MultiLineString", "coordinates": [ [ [ -115.789558918102614, 60.81186838134991 ], [ -115.789484877343355, 60.811957506294881 ] ], [ [ -115.789410836169949, 60.812046631196722 ], [ -115.78933679458234, 60.812135756055433 ] ] ] } },
{ "type": "Feature", "properties": { "osm_id": 1096141254, "name": "Hay River Highway", "highway": "primary", "flooded_m": 59.895902625547635 }, "geometry": { "type": "MultiLineString", "coordinates": [ [ [ -115.79389689069933, 60.806699458693451 ], [ -115.793881, 60.8067189 ], [ -115.793676099864683, 60.806966852293691 ] ], [ [ -115.793638511256944, 60.807012338297547 ], [ -115.7934474, 60.807243599999985 ] ] ] } },
{ "type": "Feature", "properties": { "osm_id": 1128434485, "name": null, "highway": "track", "flooded_m": 148.06586787314615 }, "geometry": { "type": "MultiLineString", "coordinates": [ [ [ -115.801311243237791, 60.836666486058149 ], [ -115.802280035855745, 60.836446022267879 ] ], [ [ -115.802450343397226, 60.836407265106203 ], [ -115.802830039371571, 60.836320855963507 ] ], [ [ -115.803212234178361, 60.836115286326624 ], [ -115.803321, 60.8361004 ], [ -115.8034307, 60.8361159 ], [ -115.80353340000002, 60.8361763 ], [ -115.8035652, 60.8362521 ], [ -115.803505099999981, 60.8363073 ], [ -115.8033777, 60.836348700000016 ], [ -115.803133399999979, 60.8363504 ], [ -115.802980281692641, 60.836322194059079 ] ] ] } },
{ "type": "Feature", "properties": { "osm_id": 1153071029, "name": null, "highway": "service", "flooded_m": 11.368433254410261 }, "geometry": { "type": "LineString", "coordinates": [ [ -115.792726106292974, 60.806837374166705 ], [ -115.7925651, 60.8067834 ], [ -115.792570776496959, 60.806777337027746 ] ] } },
{ "type": "Feature", "properties": { "osm_id": 1153071308, "name": null, "highway": "service", "flooded_m": 4.7572682645079576 }, "geometry": { "type": "LineString", "coordinates": [ [ -115.7894517, 60.810739899999987 ], [ -115.789485042998038, 60.810700418318895 ] ] } },
{ "type": "Feature", "properties": { "osm_id": 1164747645, "name": "Hay River Highway", "highway": "primary", "flooded_m": 116.73199921985172 }, "geometry": { "type": "MultiLineString", "coordinates": [ [ [ -115.7934474, 60.807243599999985 ], [ -115.793253364454856, 60.807478559357115 ] ], [ [ -115.793234306548641, 60.807501636541431 ], [ -115.793160699093576, 60.807590767335469 ] ], [ [ -115.793060783666775, 60.807711753417443 ], [ -115.792939874258096, 60.807858159461674 ] ], [ [ -115.79286820006034, 60.807944947185845 ], [ -115.792675613635524, 60.808178140662299 ] ], [ [ -115.792645435379768, 60.808214681699511 ], [ -115.792588600000016, 60.808283499999987 ], [ -115.792495565097866, 60.808392918755978 ] ], [ [ -115.792268258538343, 60.808660251550705 ], [ -115.792192488837912, 60.80874936239212 ] ] ] } },
{ "type": "Feature", "properties": { "osm_id": 1276094811, "name": null, "highway": "service", "flooded_m": 82.276436051206588 }, "geometry": { "type": "LineString", "coordinates": [ [ -115.839537387851877, 60.773788853135159 ], [ -115.8396104, 60.7738253 ], [ -115.8396506, 60.773872400000023 ], [ -115.839551400000019, 60.7739497 ], [ -115.839503100000016, 60.7739903 ], [ -115.8394334, 60.774127799999988 ], [ -115.8394763, 60.7742077 ], [ -115.839532599999984, 60.7742574 ], [ -115.8396667, 60.7743399 ], [ -115.839848705308825, 60.774407699106597 ] ] } },
{ "type": "Feature", "properties": { "osm_id": 1431348433, "name": "Riverview Drive", "highway": "residential", "flooded_m": 9.677401486711851 }, "geometry": { "type": "MultiLineString", "coordinates": [ [ [ -115.781798210187119, 60.811528853785674 ], [ -115.781888888878584, 60.811493987741656 ] ], [ [ -115.78202635856772, 60.811441130251481 ], [ -115.782075439244863, 60.811422258513531 ] ] ] } }
]
}
