{
"type": "FeatureCollection",
"name": "20220511_141309_16M9_roads",
"crs": { "type": "name", "properties": { "name": "urn:ogc:def:crs:OGC:1.3:CRS84" } },
"features": [
{ "type": "Feature", "properties": { "osm_id": 119937555, "name": null, "highway": "tertiary", "flooded_m": 21.01135367194005 }, "geometry": { "type": "LineString", "coordinates": [ [ -115.807378669805075, 60.852670731750841 ], [ -115.807142200000015, 60.8526381 ], [ -115.807012779669236, 60.852610895896994 ] ] } },
{ "type": "Feature", "properties": { "osm_id": 119937573, "name": null, "highway": "residential", "flooded_m": 170.71314242226677 }, "geometry": { "type": "MultiLineString", "coordinates": [ [ [ -115.806772907181397, 60.852608156222828 ], [ -115.806805879778352, 60.852698240102718 ] ], [ [ -115.806823652114062, 60.852746795392669 ], [ -115.806839100000019, 60.852789 ], [ -115.8068589, 60.8529239 ], [ -115.806859200000019, 60.8530976 ], [ -115.806950400000019, 60.853309199999984 ], [ -115.806952528456819, 60.853507662785361 ] ], [ [ -115.806953491538124, 60.853597462590528 ], [ -115.8069537, 60.8536169 ], [ -115.806904295942232, 60.85386639985412 ] ], [ [ -115.806741247927917, 60.854224118040108 ], [ -115.8067249, 60.8542554 ], [ -115.806446, 60.8545402 ], [ -115.806386817493248, 60.854588853958127 ] ] ] } },
{ "type": "Feature", "properties": { "osm_id": 119937584, "name": null, "highway": "residential", "flooded_m": 11.929291613289999 }, "geometry": { "type": "LineString", "coordinates": [ [ -115.856511355299403, 60.74991918526694 ], [ -115.856692692258306, 60.749979135405809 ] ] } },
{ "type": "Feature", "properties": { "osm_id": 119937606, "name": "Miron Drive", "highway": "residential", "flooded_m": 43.562534016628767 }, "geometry": { "type": "MultiLineString", "coordinates": [ [ [ -115.834757153063791, 60.778101196769349 ], [ -115.834287322088699, 60.778412535504181 ] ], [ [ -115.832687323456568, 60.779472734431124 ], [ -115.832682259633373, 60.779476089704083 ] ] ] } },
{ "type": "Feature", "properties": { "osm_id": 119937636, "name": null, "highway": "residential", "flooded_m": 50.035475279151981 }, "geometry": { "type": "MultiLineString", "coordinates": [ [ [ -115.856708542800163, 60.754690322902121 ], [ -115.856892104665846, 60.754688503845202 ] ], [ [ -115.857075666513538, 60.754686684537113 ], [ -115.857809913724381, 60.754679404793052 ] ] ] } },
{ "type": "Feature", "properties": { "osm_id": 119937637, "name": null, "highway": "residential", "flooded_m": 30.005945436915642 }, "geometry": { "type": "LineString", "coordinates": [ [ -115.855056653573612, 60.754701958381837 ], [ -115.854506138047427, 60.754702622837875 ] ] } },
{ "type": "Feature", "properties": { "osm_id": 119937651, "name": null, "highway": "tertiary", "flooded_m": 140.68581125182115 }, "geometry": { "type": "MultiLineString", "coordinates": [ [ [ -115.806736784509127, 60.852518044376865 ], [ -115.806696427328475, 60.852427894937847 ] ], [ [ -115.806656070372398, 60.852337745486153 ], [ -115.806615713640895, 60.852247596021783 ] ], [ [ -115.805963361963322, 60.85080514359386 ], [ -115.8059508, 60.8507641 ], [ -115.8059344, 60.8506198 ], [ -115.8059449, 60.85030780000001 ], [ -115.805948063606237, 60.850266259836637 ] ], [ [ -115.805961730874145, 60.850086798573074 ], [ -115.805968564446232, 60.84999706793883 ] ], [ [ -115.806018737210593, 60.849458765553607 ], [ -115.806061008167532, 60.8490101842822 ] ] ] } },
{ "type": "Feature", "properties": { "osm_id": 119937664, "name": null, "highway": "tertiary", "flooded_m": 47.537620413810465 }, "geometry": { "type": "MultiLineString", "coordinates": [ [ [ -115.864809062711231, 60.842185351002819 ], [ -115.864993938750985, 60.84216059134333 ] ], [ [ -115.865363689980398, 60.842111071259041 ], [ -115.865644274920882, 60.842073492265314 ] ], [ [ -115.866102202990831, 60.842039867147719 ], [ -115.86628652951805, 60.84203057118409 ] ], [ [ -115.870172831085824, 60.841396994247773 ], [ -115.87018682568295, 60.841393424035715 ] ], [ [ -115.870358495908761, 60.841349628442259 ], [ -115.870527561474432, 60.841306497003416 ] ] ] } },
{ "type": "Feature", "properties": { "osm_id": 119937672, "name": "Miron Drive", "highway": "residential", "flooded_m": 20.528508149010364 }, "geometry": { "type": "LineString", "coordinates": [ [ -115.84269634782062, 60.772918209159187 ], [ -115.842695400000011, 60.7729189 ], [ -115.842467675647015, 60.773064699163996 ] ] } },
{ "type": "Feature", "properties": { "osm_id": 119937674, "name": "Tamarack Dr", "highway": "tertiary", "flooded_m": 21.439409940299722 }, "geometry": { "type": "LineString", "coordinates": [ [ -115.81922147846582, 60.816042033307205 ], [ -115.818856453372248, 60.815969476641854 ] ] } },
{ "type": "Feature", "properties": { "osm_id": 119937689, "name": null, "highway": "tertiary", "flooded_m": 90.193350628562655 }, "geometry": { "type": "MultiLineString", "coordinates": [ [ [ -115.82284328269192, 60.819167894423842 ], [ -115.8228234, 60.819119 ], [ -115.822805200000019, 60.8189844 ], [ -115.822807399999988, 60.818814100000012 ], [ -115.822807909609892, 60.818808418768626 ] ], [ [ -115.82282400555377, 60.818628976913686 ], [ -115.822853900000013, 60.8182957 ], [ -115.822858343281439, 60.818180320542751 ] ] ] } },
{ "type": "Feature", "properties": { "osm_id": 119937700, "name": null, "highway": "residential", "flooded_m": 52.1552330116698 }, "geometry": { "type": "MultiLineString", "coordinates": [ [ [ -115.839172858705538, 60.773516325936448 ], [ -115.839183399999982, 60.7735422 ], [ -115.839202500000013, 60.7735583 ], [ -115.8392381, 60.773577 ], [ -115.839311274276199, 60.773607314637502 ] ], [ [ -115.839688755872416, 60.773753070660746 ], [ -115.839981400000013, 60.7738616 ], [ -115.840244421646872, 60.773974547240243 ] ] ] } },
{ "type": "Feature", "properties": { "osm_id": 266086791, "name": "Hay River Highway", "highway": "primary", "flooded_m": 105.2908808496543 }, "geometry": { "type": "MultiLineString", "coordinates": [ [ [ -115.885695324963237, 60.730631198226213 ], [ -115.8856969, 60.7309994 ], [ -115.8856627, 60.731457 ], [ -115.885639675232042, 60.731528651254763 ] ], [ [ -115.86878409299797, 60.741354417230539 ], [ -115.868736958563105, 60.741394955311748 ] ] ] } },
{ "type": "Feature", "properties": { "osm_id": 266086792, "name": "Rose Hill", "highway": "residential", "flooded_m": 55.104696163837353 }, "geometry": { "type": "MultiLineString", "coordinates": [ [ [ -115.863334295316307, 60.738567818889798 ], [ -115.8633846, 60.7385571 ], [ -115.863517559830683, 60.738526354582447 ] ], [ [ -115.863519179194498, 60.738525980122169 ], [ -115.8635485, 60.7385192 ], [ -115.8638101, 60.7384588 ], [ -115.8641616, 60.7383859 ], [ -115.864258455978373, 60.738365810862632 ] ] ] } },
{ "type": "Feature", "properties": { "osm_id": 266086810, "name": "Wildrose Drive", "highway": "residential", "flooded_m": 6.465604788151186 }, "geometry": { "type": "LineString", "coordinates": [ [ -115.863405224304671, 60.740770197455369 ], [ -115.8634206, 60.7407409 ], [ -115.863441788164693, 60.740715109569422 ] ] } },
{ "type": "Feature", "properties": { "osm_id": 266086813, "name": "Wildrose Drive", "highway": "residential", "flooded_m": 67.108997823454075 }, "geometry": { "type": "LineString", "coordinates": [ [ -115.8609271, 60.743535 ], [ -115.8618314, 60.74372 ], [ -115.862049350095035, 60.743780667528362 ] ] } },
{ "type": "Feature", "properties": { "osm_id": 266086814, "name": "Wildrose Drive", "highway": "residential", "flooded_m": 73.890574395967633 }, "geometry": { "type": "LineString", "coordinates": [ [ -115.86152872412552, 60.742942753901993 ], [ -115.8615283, 60.7429431 ], [ -115.861115700000013, 60.7432937 ], [ -115.8609271, 60.743535 ] ] } },
{ "type": "Feature", "properties": { "osm_id": 266086911, "name": null, "highway": "residential", "flooded_m": 20.101606162900044 }, "geometry": { "type": "MultiLineString", "coordinates": [ [ [ -115.855967166980847, 60.749744431849649 ], [ -115.856068183009739, 60.749776802152702 ] ], [ [ -115.856148566785635, 60.749802560807389 ], [ -115.856356051824577, 60.749869048133156 ] ] ] } },
{ "type": "Feature", "properties": { "osm_id": 266086920, "name": null, "highway": "residential", "flooded_m": 132.68592983359497 }, "geometry": { "type": "MultiLineString", "coordinates": [ [ [ -115.858792264235191, 60.741449365184359 ], [ -115.8588253, 60.741468700000013 ], [ -115.8590586, 60.7415788 ], [ -115.859187091923999, 60.74163230735536 ] ], [ [ -115.85919059138071, 60.741633764615287 ], [ -115.859503100000012, 60.7417639 ], [ -115.859551708761884, 60.741795208822182 ] ], [ [ -115.859582833389823, 60.741815256101816 ], [ -115.8596183, 60.7418381 ], [ -115.859730231557791, 60.741933362692848 ] ], [ [ -115.859795071984777, 60.74199664397392 ], [ -115.859795500000018, 60.7419971 ], [ -115.8598189, 60.7420368 ], [ -115.859832, 60.7420887 ], [ -115.8598437, 60.7421727 ], [ -115.8598455, 60.7423112 ], [ -115.859842637082977, 60.742356215534883 ] ], [ [ -115.860593592109211, 60.743450054103214 ], [ -115.8606614, 60.743468599999986 ], [ -115.860807800000018, 60.7435016 ], [ -115.8609271, 60.743535 ] ] ] } },
{ "type": "Feature", "properties": { "osm_id": 266086922, "name": null, "highway": "residential", "flooded_m": 10.295381113331214 }, "geometry": { "type": "LineString", "coordinates": [ [ -115.851985471837182, 60.748305259044933 ], [ -115.8519591, 60.74834 ], [ -115.851941210204629, 60.74839467214494 ] ] } },
{ "type": "Feature", "properties": { "osm_id": 266086990, "name": null, "highway": "residential", "flooded_m": 44.783422197434007 }, "geometry": { "type": "MultiLineString", "coordinates": [ [ [ -115.846700540258638, 60.747228433679823 ], [ -115.846693599999981, 60.7472288 ], [ -115.84658, 60.7472295 ], [ -115.8463754, 60.7472201 ], [ -115.846333843227356, 60.747222507577249 ] ], [ [ -115.845922410973131, 60.747355319316185 ], [ -115.845589832373889, 60.747506229688433 ] ] ] } },
{ "type": "Feature", "properties": { "osm_id": 266087053, "name": null, "highway": "residential", "flooded_m": 34.250340799537057 }, "geometry": { "type": "LineString", "coordinates": [ [ -115.866079566492189, 60.74339679140715 ], [ -115.865767026694954, 60.743663524237959 ] ] } },
{ "type": "Feature", "properties": { "osm_id": 744108885, "name": "Hay River Highway", "highway": "primary", "flooded_m": 169.60071069034962 }, "geometry": { "type": "MultiLineString", "coordinates": [ [ [ -115.844716379287249, 60.77180106589109 ], [ -115.843588340486122, 60.772535861778593 ] ], [ [ -115.842999585309386, 60.772920823304524 ], [ -115.84246012605584, 60.773274084588017 ] ], [ [ -115.834748789384278, 60.778331577494143 ], [ -115.834622677184413, 60.778415447158743 ] ], [ [ -115.834560612337143, 60.778456722562574 ], [ -115.834489399030488, 60.778504081860838 ] ] ] } },
{ "type": "Feature", "properties": { "osm_id": 1276094811, "name": null, "highway": "service", "flooded_m": 70.569193327281795 }, "geometry": { "type": "MultiLineString", "coordinates": [ [ [ -115.839225214329645, 60.773696362194805 ], [ -115.839487, 60.773763699999989 ], [ -115.839504450060971, 60.773772410910631 ] ], [ [ -115.839537387851877, 60.773788853135159 ], [ -115.8396104, 60.7738253 ], [ -115.8396506, 60.773872400000023 ], [ -115.839551400000019, 60.7739497 ], [ -115.839503100000016, 60.7739903 ], [ -115.8394334, 60.774127799999988 ], [ -115.8394763, 60.7742077 ], [ -115.839488330598087, 60.774218320276397 ] ] ] } },
{ "type": "Feature", "properties": { "osm_id": 1287791977, "name": null, "highway": "service", "flooded_m": 13.86452728307817 }, "geometry": { "type": "LineString", "coordinates": [ [ -115.8641616, 60.7383859 ], [ -115.864133380710257, 60.738262195648183 ] ] } },
{ "type": "Feature", "properties": { "osm_id": 1425949299, "name": null, "highway": "service", "flooded_m": 32.580876811558376 }, "geometry": { "type": "LineString", "coordinates": [ [ -115.8635485, 60.7385192 ], [ -115.863345309754038, 60.73879427040383 ] ] } }
]
}
