{
"type": "FeatureCollection",
"name": "20220513_012118_16M12_roads",
"crs": { "type": "name", "properties": { "name": "urn:ogc:def:crs:OGC:1.3:CRS84" } },
"features": [
{ "type": "Feature", "properties": { "osm_id": 15830343, "name": "Hay River Highway", "highway": "tertiary", "flooded_m": 40.983170224351248 }, "geometry": { "type": "LineString", "coordinates": [ [ -115.744799349332141, 60.85805997843287 ], [ -115.7449455, 60.8584121 ], [ -115.744949447382623, 60.858420548570322 ] ] } },
{ "type": "Feature", "properties": { "osm_id": 28802131, "name": "Reserve Highway", "highway": "tertiary", "flooded_m": 129.22726911706957 }, "geometry": { "type": "MultiLineString", "coordinates": [ [ [ -115.727773507686393, 60.859426449966506 ], [ -115.727645228340648, 60.859335443707032 ] ], [ [ -115.753348799174219, 60.836335178468183 ], [ -115.754083045159618, 60.836377015910706 ] ], [ [ -115.75445016888979, 60.836397933129895 ], [ -115.755852100000013, 60.8364778 ] ] ] } },
{ "type": "Feature", "properties": { "osm_id": 28802173, "name": "Hay River Highway", "highway": "primary", "flooded_m": 1464.2397783785327 }, "geometry": { "type": "MultiLineString", "coordinates": [ [ [ -115.777524871870881, 60.827383255383864 ], [ -115.777528, 60.827520100000022 ], [ -115.77756581098032, 60.827742796212434 ] ], [ [ -115.777581080262806, 60.827832727209731 ], [ -115.7775824, 60.827840500000015 ], [ -115.777587675743391, 60.827873310816749 ] ], [ [ -115.777667901806552, 60.828372269515711 ], [ -115.7777137, 60.8286574 ], [ -115.7777363, 60.8287975 ], [ -115.7777989, 60.829187 ], [ -115.777842998469836, 60.829451366998427 ] ], [ [ -115.777873000416079, 60.829631223982723 ], [ -115.7778963, 60.8297709 ], [ -115.777917990019276, 60.829901009312877 ] ], [ [ -115.777962965404001, 60.830170794483521 ], [ -115.7779643, 60.8301788 ], [ -115.778067100000015, 60.83068 ], [ -115.778184954756327, 60.831609485673937 ] ], [ [ -115.778219151124489, 60.831879172670284 ], [ -115.778230550035886, 60.831969068331794 ] ], [ [ -115.778276146291418, 60.832328650958146 ], [ -115.778355799999986, 60.832956799999984 ], [ -115.7783655, 60.833226700000012 ], [ -115.778273, 60.8336041 ], [ -115.7781445, 60.8339412 ], [ -115.777712213366854, 60.834747908106856 ] ], [ [ -115.777664328921944, 60.834837264644257 ], [ -115.7771111, 60.8358696 ], [ -115.777053, 60.8359621 ], [ -115.7765784, 60.8369236 ], [ -115.776409199999989, 60.83714590000001 ], [ -115.77622820000002, 60.8373217 ], [ -115.7759455, 60.8375561 ], [ -115.7756666, 60.837744099999988 ], [ -115.77536495680836, 60.837904304367001 ] ], [ [ -115.772017189541216, 60.838847789461447 ], [ -115.771849900000021, 60.8388831 ], [ -115.771699703506101, 60.838913323656534 ] ], [ [ -115.771646298451898, 60.838924070164715 ], [ -115.771272862331571, 60.838999214584 ] ], [ [ -115.771090054088901, 60.839035999535191 ], [ -115.77084601888042, 60.839085104148509 ] ], [ [ -115.77071922236567, 60.839110617829576 ], [ -115.770419173152675, 60.839170992350027 ] ], [ [ -115.769421297802964, 60.839371773758437 ], [ -115.7692994, 60.8393963 ], [ -115.767010165079085, 60.839873506363837 ] ], [ [ -115.766268252383227, 60.840028151589728 ], [ -115.766255717539835, 60.840030764320289 ] ], [ [ -115.765897284763824, 60.840105695731111 ], [ -115.765711799763565, 60.84014448091586 ] ], [ [ -115.7651553420814, 60.840260834925452 ], [ -115.765021561182436, 60.840288807729991 ] ], [ [ -115.7649698552936, 60.840299619080405 ], [ -115.764227903673572, 60.840454753125819 ] ], [ [ -115.762373166057472, 60.840838102541454 ], [ -115.7618296, 60.840949 ], [ -115.7607717, 60.8411688 ], [ -115.760510599999989, 60.841231599999986 ], [ -115.760343, 60.841283799999985 ], [ -115.759935499999983, 60.8414208 ], [ -115.7596494, 60.841531599999989 ], [ -115.759584793695822, 60.841572656074568 ] ], [ [ -115.759425390806427, 60.841673952984692 ], [ -115.759396149664852, 60.841692534974293 ] ], [ [ -115.758648896846594, 60.842205538184992 ], [ -115.758639950789629, 60.842213530642987 ] ] ] } },
{ "type": "Feature", "properties": { "osm_id": 28802338, "name": "106 Street", "highway": "residential", "flooded_m": 190.57700470651918 }, "geometry": { "type": "MultiLineString", "coordinates": [ [ [ -115.7453151, 60.8476127 ], [ -115.7456369, 60.84828790000001 ], [ -115.7457885, 60.8486486 ], [ -115.745827303914069, 60.84873116669791 ] ], [ [ -115.746124009700409, 60.849362480909626 ], [ -115.746208731973667, 60.849542743651448 ] ], [ [ -115.746208784905775, 60.849542856273949 ], [ -115.7463828, 60.8499131 ] ] ] } },
{ "type": "Feature", "properties": { "osm_id": 28802341, "name": "102nd Avenue", "highway": "residential", "flooded_m": 406.41426203036474 }, "geometry": { "type": "MultiLineString", "coordinates": [ [ [ -115.7463828, 60.8499131 ], [ -115.746008519307196, 60.84995535837696 ] ], [ [ -115.745725513273612, 60.849987310568984 ], [ -115.745453923466272, 60.850017973215266 ] ], [ [ -115.744990897584046, 60.850070247702604 ], [ -115.744899325481697, 60.850080585759123 ] ], [ [ -115.740461044807063, 60.850617472172139 ], [ -115.7391441, 60.8507721 ], [ -115.738797259019137, 60.850803354460048 ] ], [ [ -115.737873715784843, 60.85088657192351 ], [ -115.737723175686014, 60.85090013595687 ] ], [ [ -115.737689006570648, 60.850903214653158 ], [ -115.7369411, 60.850970599999989 ], [ -115.736395732948338, 60.851027401021909 ] ], [ [ -115.736210919200715, 60.851046649179004 ], [ -115.73528684717256, 60.851142886143442 ] ], [ [ -115.733068733767425, 60.851381865113261 ], [ -115.732643100000018, 60.8514313 ], [ -115.7316223, 60.8515359 ], [ -115.7305531, 60.851695 ] ] ] } },
{ "type": "Feature", "properties": { "osm_id": 28802344, "name": "104th Avenue", "highway": "residential", "flooded_m": 175.36224057540724 }, "geometry": { "type": "MultiLineString", "coordinates": [ [ [ -115.732413600000015, 60.8574337 ], [ -115.733200977744303, 60.857339825564182 ] ], [ [ -115.734865116552569, 60.857154494523172 ], [ -115.735303499999986, 60.8571103 ], [ -115.735604683206574, 60.857073244066299 ] ], [ [ -115.736529619501127, 60.856959440204385 ], [ -115.736714605979216, 60.856936678666045 ] ], [ [ -115.736940505825558, 60.856908882579809 ], [ -115.7374296, 60.8568487 ], [ -115.738368366705416, 60.856742702016021 ] ] ] } },
{ "type": "Feature", "properties": { "osm_id": 28802356, "name": "103rd Avenue", "highway": "residential", "flooded_m": 111.75697238670261 }, "geometry": { "type": "MultiLineString", "coordinates": [ [ [ -115.734776033488046, 60.854752151356621 ], [ -115.734908831209111, 60.854734763645162 ] ], [ [ -115.735146099120001, 60.854703696879582 ], [ -115.735331131520041, 60.854679469257803 ] ], [ [ -115.736071258347209, 60.854582556215433 ], [ -115.736188440517097, 60.85456721182166 ] ], [ [ -115.736626117612218, 60.854515768225994 ], [ -115.73690575191425, 60.854484159474453 ] ], [ [ -115.736995914909173, 60.854473967669875 ], [ -115.737180813199771, 60.854453067009317 ] ], [ [ -115.737365711251755, 60.85443216609373 ], [ -115.737550609065167, 60.854411264923165 ] ], [ [ -115.739398757818492, 60.854222957272732 ], [ -115.739768229847115, 60.854189231765865 ] ], [ [ -115.740137701108864, 60.854155505241366 ], [ -115.74069190656364, 60.854104913546585 ] ] ] } },
{ "type": "Feature", "properties": { "osm_id": 28802369, "name": "103rd Street", "highway": "residential", "flooded_m": 198.81067260861636 }, "geometry": { "type": "MultiLineString", "coordinates": [ [ [ -115.743412265169468, 60.859828288782708 ], [ -115.743377881111584, 60.85975275641902 ] ], [ [ -115.743242787766732, 60.859455989819317 ], [ -115.743008440106848, 60.858941172858074 ] ], [ [ -115.742926344618823, 60.858760820812144 ], [ -115.742903844643834, 60.858711391225384 ] ], [ [ -115.742884952208811, 60.858670641544329 ], [ -115.74284247497026, 60.858580452119334 ] ], [ [ -115.742630092325641, 60.858129504785694 ], [ -115.742564034627861, 60.857989243317988 ] ], [ [ -115.742545140923568, 60.857949125754871 ], [ -115.742290292394159, 60.857407988328596 ] ], [ [ -115.740692980583702, 60.854077624834808 ], [ -115.740647466579574, 60.853980501552833 ] ], [ [ -115.739252883312702, 60.851004281221662 ], [ -115.7391441, 60.8507721 ] ] ] } },
{ "type": "Feature", "properties": { "osm_id": 28802381, "name": "102nd Street", "highway": "residential", "flooded_m": 11.659082172901702 }, "geometry": { "type": "LineString", "coordinates": [ [ -115.736987339261162, 60.851072810681465 ], [ -115.7369411, 60.850970599999989 ] ] } },
{ "type": "Feature", "properties": { "osm_id": 28802409, "name": "100 Street", "highway": "residential", "flooded_m": 236.3251945308258 }, "geometry": { "type": "MultiLineString", "coordinates": [ [ [ -115.732643100000018, 60.8514313 ], [ -115.732694330043842, 60.851540746248943 ] ], [ [ -115.732793068470784, 60.851751685765691 ], [ -115.732961940113924, 60.852112447611447 ] ], [ [ -115.733033735382492, 60.852265821919481 ], [ -115.73325747453724, 60.852743780312224 ] ], [ [ -115.733975248940027, 60.854277014066597 ], [ -115.734059697453347, 60.854457394247035 ] ], [ [ -115.73439120368154, 60.855173825172407 ], [ -115.734434726763922, 60.855269057312668 ] ], [ [ -115.734560619815625, 60.855544518594094 ], [ -115.7345953, 60.8556204 ], [ -115.734599758679636, 60.855629780540767 ] ], [ [ -115.73468550154864, 60.855810172428065 ], [ -115.734771245372656, 60.855990564258775 ] ], [ [ -115.734814117642799, 60.856080760152899 ], [ -115.734899862899354, 60.856261151898714 ] ], [ [ -115.735114230219082, 60.856712131015577 ], [ -115.735303499999986, 60.8571103 ] ] ] } },
{ "type": "Feature", "properties": { "osm_id": 28802413, "name": "101st Street", "highway": "residential", "flooded_m": 178.16301750437793 }, "geometry": { "type": "MultiLineString", "coordinates": [ [ [ -115.73635058452173, 60.854658528217414 ], [ -115.736928326114196, 60.855831258658107 ] ], [ [ -115.737239435077157, 60.856462727835243 ], [ -115.737282152833501, 60.856549431637639 ] ], [ [ -115.737283880205425, 60.856552937657099 ], [ -115.7374296, 60.8568487 ] ] ] } },
{ "type": "Feature", "properties": { "osm_id": 28802415, "name": null, "highway": "service", "flooded_m": 72.817006659308944 }, "geometry": { "type": "LineString", "coordinates": [ [ -115.736954, 60.8616885 ], [ -115.7373084, 60.861651099999989 ], [ -115.7382795, 60.861595299999983 ] ] } },
{ "type": "Feature", "properties": { "osm_id": 28802430, "name": "105th Avenue", "highway": "residential", "flooded_m": 115.15153932360664 }, "geometry": { "type": "LineString", "coordinates": [ [ -115.742904641641758, 60.858691109300153 ], [ -115.7449455, 60.8584121 ] ] } },
{ "type": "Feature", "properties": { "osm_id": 28802432, "name": "Lakeshore Drive", "highway": "residential", "flooded_m": 183.18061887628724 }, "geometry": { "type": "MultiLineString", "coordinates": [ [ [ -115.7422578, 60.8640946 ], [ -115.743284100000011, 60.8643746 ], [ -115.743925891025697, 60.864606658156553 ] ], [ [ -115.744323671184404, 60.864750483887114 ], [ -115.744435737372172, 60.864791003314629 ] ], [ [ -115.744686782619226, 60.864881772263914 ], [ -115.744690662753314, 60.864883175173411 ] ], [ [ -115.744868499192492, 60.864943345824187 ], [ -115.744964697491298, 60.86497552486172 ] ], [ [ -115.745050246973776, 60.865004141679982 ], [ -115.745958996268243, 60.86530811729704 ] ], [ [ -115.747384393589257, 60.865806212261411 ], [ -115.747412184979098, 60.865816070117958 ] ] ] } },
{ "type": "Feature", "properties": { "osm_id": 119937336, "name": "Airport Rd", "highway": "service", "flooded_m": 229.26130194057458 }, "geometry": { "type": "MultiLineString", "coordinates": [ [ [ -115.7771111, 60.8358696 ], [ -115.7775375, 60.83593650000001 ], [ -115.777684, 60.8359721 ], [ -115.7779206, 60.8360388 ], [ -115.778010751011109, 60.836067004347505 ] ], [ [ -115.778289800132328, 60.836189831301844 ], [ -115.778292, 60.8361912 ], [ -115.778405, 60.836286599999987 ], [ -115.77853810000002, 60.8364122 ], [ -115.778726038957743, 60.836606489821868 ] ], [ [ -115.77890303039527, 60.836789459798368 ], [ -115.779257019309512, 60.837155399054673 ] ], [ [ -115.779550101234335, 60.837458368155467 ], [ -115.779813000309687, 60.837730130786028 ] ], [ [ -115.779900634321777, 60.83782071821571 ], [ -115.780251175305054, 60.838183067365023 ] ] ] } },
{ "type": "Feature", "properties": { "osm_id": 119937338, "name": "Ash Road", "highway": "residential", "flooded_m": 25.086365108154194 }, "geometry": { "type": "LineString", "coordinates": [ [ -115.788577334393011, 60.81536142492503 ], [ -115.788593, 60.8153966 ], [ -115.788679200000018, 60.8154424 ], [ -115.788816600000018, 60.8154855 ], [ -115.788906578039985, 60.815502869927997 ] ] } },
{ "type": "Feature", "properties": { "osm_id": 119937354, "name": "Birch Road", "highway": "residential", "flooded_m": 32.230107193565445 }, "geometry": { "type": "LineString", "coordinates": [ [ -115.786429194793172, 60.817809927680038 ], [ -115.786976586219097, 60.817920650266331 ] ] } },
{ "type": "Feature", "properties": { "osm_id": 119937355, "name": "Cameron Crescent", "highway": "residential", "flooded_m": 1.130156252333933 }, "geometry": { "type": "LineString", "coordinates": [ [ -115.776226100000017, 60.8216314 ], [ -115.776210687779255, 60.821624595261653 ] ] } },
{ "type": "Feature", "properties": { "osm_id": 119937365, "name": "Commercial Road", "highway": "residential", "flooded_m": 21.393598168588937 }, "geometry": { "type": "LineString", "coordinates": [ [ -115.789614400000019, 60.8107739 ], [ -115.7894517, 60.810739899999987 ], [ -115.789252926539788, 60.810698326490893 ] ] } },
{ "type": "Feature", "properties": { "osm_id": 119937366, "name": "Commercial Road", "highway": "residential", "flooded_m": 11.98800470553544 }, "geometry": { "type": "LineString", "coordinates": [ [ -115.789819032633204, 60.810813791973793 ], [ -115.789614400000019, 60.8107739 ] ] } },
{ "type": "Feature", "properties": { "osm_id": 119937368, "name": "Courtoreille Street", "highway": "residential", "flooded_m": 32.457200640469679 }, "geometry": { "type": "MultiLineString", "coordinates": [ [ [ -115.788398634219675, 60.809486572140159 ], [ -115.788033936161085, 60.809409124155309 ] ], [ [ -115.787851587796155, 60.809370399793124 ], [ -115.787669239874177, 60.809331675184445 ] ] ] } },
{ "type": "Feature", "properties": { "osm_id": 119937370, "name": "Cranberry Crescent", "highway": "residential", "flooded_m": 60.806957263891121 }, "geometry": { "type": "MultiLineString", "coordinates": [ [ [ -115.785305217823151, 60.82449067135142 ], [ -115.785254687230164, 60.824541879773321 ] ], [ [ -115.785129576925058, 60.824668667543534 ], [ -115.784841699999987, 60.8249604 ], [ -115.784716404995081, 60.825113891563809 ] ] ] } },
{ "type": "Feature", "properties": { "osm_id": 119937372, "name": "Dean Drive", "highway": "residential", "flooded_m": 1.9365382564901332 }, "geometry": { "type": "LineString", "coordinates": [ [ -115.803176656193983, 60.807531477400254 ], [ -115.803190200000017, 60.8075154 ] ] } },
{ "type": "Feature", "properties": { "osm_id": 119937373, "name": "Dean Drive", "highway": "residential", "flooded_m": 33.833533460478222 }, "geometry": { "type": "LineString", "coordinates": [ [ -115.803190200000017, 60.8075154 ], [ -115.803422297076011, 60.807233609340969 ] ] } },
{ "type": "Feature", "properties": { "osm_id": 119937374, "name": "Dean Drive", "highway": "residential", "flooded_m": 86.575316398660703 }, "geometry": { "type": "MultiLineString", "coordinates": [ [ [ -115.796053476005696, 60.816119186670463 ], [ -115.7962593, 60.815878399999988 ], [ -115.796438074912956, 60.815669269340241 ] ], [ [ -115.796563122593227, 60.815522986946625 ], [ -115.7965832, 60.8154995 ], [ -115.796791640030989, 60.815255657912644 ] ] ] } },
{ "type": "Feature", "properties": { "osm_id": 119937375, "name": "Reserve Highway", "highway": "tertiary", "flooded_m": 64.797975274569481 }, "geometry": { "type": "MultiLineString", "coordinates": [ [ [ -115.755852100000013, 60.8364778 ], [ -115.756698938439882, 60.836081639184897 ] ], [ [ -115.763786284678602, 60.832831635825173 ], [ -115.763798949921878, 60.832824814337457 ] ] ] } },
{ "type": "Feature", "properties": { "osm_id": 119937377, "name": "Eagle Crescent", "highway": "residential", "flooded_m": 11.973056210505529 }, "geometry": { "type": "LineString", "coordinates": [ [ -115.7773123468086, 60.822083585349944 ], [ -115.777298400000021, 60.822090599999989 ], [ -115.77718847669729, 60.82217225031539 ] ] } },
{ "type": "Feature", "properties": { "osm_id": 119937378, "name": "Elm Crescent", "highway": "residential", "flooded_m": 10.889939294549698 }, "geometry": { "type": "LineString", "coordinates": [ [ -115.786404875608127, 60.818452066744726 ], [ -115.786587211793304, 60.818492429244657 ] ] } },
{ "type": "Feature", "properties": { "osm_id": 119937386, "name": "Industrial Drive", "highway": "residential", "flooded_m": 133.4845920074421 }, "geometry": { "type": "MultiLineString", "coordinates": [ [ [ -115.791045050119294, 60.812423878288989 ], [ -115.791047813439008, 60.812420540943066 ] ], [ [ -115.791121611091114, 60.81233141297519 ], [ -115.79156438833418, 60.811796644268114 ] ], [ [ -115.791815442692112, 60.811493422160794 ], [ -115.791859564906304, 60.811440130939637 ] ], [ [ -115.793113991654039, 60.809924941644852 ], [ -115.79333534869717, 60.809657554013299 ] ], [ [ -115.793356092872259, 60.809632495894327 ], [ -115.793409133552728, 60.809568424717106 ] ], [ [ -115.793548661493062, 60.809399878797713 ], [ -115.793556702025683, 60.809390165996192 ] ], [ [ -115.793630485643064, 60.809301036571462 ], [ -115.793758, 60.809147 ], [ -115.793778918796832, 60.809122785380076 ] ] ] } },
{ "type": "Feature", "properties": { "osm_id": 119937393, "name": "MacKenzie Highway", "highway": "residential", "flooded_m": 28.367130412889466 }, "geometry": { "type": "LineString", "coordinates": [ [ -115.760510599999989, 60.841231599999986 ], [ -115.7602133, 60.841022299999985 ] ] } },
{ "type": "Feature", "properties": { "osm_id": 119937395, "name": "Malcolm Crescent", "highway": "residential", "flooded_m": 36.933987692753547 }, "geometry": { "type": "MultiLineString", "coordinates": [ [ [ -115.777874766403471, 60.820348523794593 ], [ -115.7778017, 60.8203371 ], [ -115.777510521220066, 60.820256621030545 ] ], [ [ -115.778267381101429, 60.819696460309927 ], [ -115.7785254, 60.8197313 ] ] ] } },
{ "type": "Feature", "properties": { "osm_id": 119937432, "name": "Nahanni Road", "highway": "residential", "flooded_m": 35.228409567386919 }, "geometry": { "type": "LineString", "coordinates": [ [ -115.785326674129067, 60.8129423093988 ], [ -115.7854352, 60.8129895 ], [ -115.785871793460132, 60.813110724456607 ] ] } },
{ "type": "Feature", "properties": { "osm_id": 119937441, "name": "Pine Crescent", "highway": "residential", "flooded_m": 10.78289993833889 }, "geometry": { "type": "LineString", "coordinates": [ [ -115.789322205610915, 60.819947532675258 ], [ -115.789399741055007, 60.819858439291842 ] ] } },
{ "type": "Feature", "properties": { "osm_id": 119937444, "name": "Poplar Road", "highway": "residential", "flooded_m": 19.160544630861164 }, "geometry": { "type": "MultiLineString", "coordinates": [ [ [ -115.791213699237204, 60.812826404753118 ], [ -115.791396096296509, 60.812864462490673 ] ], [ [ -115.791437029347392, 60.812873003258041 ], [ -115.791578493791349, 60.812902519981627 ] ] ] } },
{ "type": "Feature", "properties": { "osm_id": 119937481, "name": "Robin Crescent", "highway": "residential", "flooded_m": 6.2531296501423252 }, "geometry": { "type": "LineString", "coordinates": [ [ -115.778633046198308, 60.819751001317641 ], [ -115.7785254, 60.8197313 ] ] } },
{ "type": "Feature", "properties": { "osm_id": 119937489, "name": "Service Road", "highway": "residential", "flooded_m": 133.78620279045151 }, "geometry": { "type": "MultiLineString", "coordinates": [ [ [ -115.787537228396047, 60.813735784546708 ], [ -115.786729702860953, 60.81472902145515 ] ], [ [ -115.78666757174318, 60.814805438450783 ], [ -115.786595097719129, 60.814894576007049 ] ], [ [ -115.78653688009247, 60.814966178883807 ], [ -115.7865093, 60.8150001 ] ] ] } },
{ "type": "Feature", "properties": { "osm_id": 119937492, "name": "Service Road", "highway": "residential", "flooded_m": 19.399536909758631 }, "geometry": { "type": "MultiLineString", "coordinates": [ [ [ -115.7865093, 60.8150001 ], [ -115.786450209641487, 60.815072851548088 ] ], [ [ -115.786377809370094, 60.815161989657419 ], [ -115.786305408693508, 60.815251127725439 ] ] ] } },
{ "type": "Feature", "properties": { "osm_id": 119937493, "name": "Service Road", "highway": "residential", "flooded_m": 91.645330933958974 }, "geometry": { "type": "MultiLineString", "coordinates": [ [ [ -115.785343484046365, 60.81640973189608 ], [ -115.784996172508059, 60.816811259602794 ] ], [ [ -115.7849581574377, 60.816855208245507 ], [ -115.784649888394299, 60.817211588486629 ] ] ] } },
{ "type": "Feature", "properties": { "osm_id": 119937501, "name": "Spruce Road", "highway": "residential", "flooded_m": 24.64986500573211 }, "geometry": { "type": "MultiLineString", "coordinates": [ [ [ -115.802266099787786, 60.807305291489108 ], [ -115.802308590292412, 60.807313475758775 ] ], [ [ -115.802797394719718, 60.807407625110834 ], [ -115.802876700000013, 60.8074229 ], [ -115.803139586993268, 60.807500466423214 ] ], [ [ -115.803177397428826, 60.807511622551544 ], [ -115.803190200000017, 60.8075154 ] ] ] } },
{ "type": "Feature", "properties": { "osm_id": 119937512, "name": "Studney Drive", "highway": "residential", "flooded_m": 10.639774334528243 }, "geometry": { "type": "LineString", "coordinates": [ [ -115.793214858048174, 60.814505241286554 ], [ -115.793285020330728, 60.814416079509279 ] ] } },
{ "type": "Feature", "properties": { "osm_id": 119937513, "name": "Studney Drive", "highway": "residential", "flooded_m": 64.727734032679564 }, "geometry": { "type": "MultiLineString", "coordinates": [ [ [ -115.790858896910962, 60.817358283734364 ], [ -115.790938115511508, 60.817268323571625 ] ], [ [ -115.791016563903185, 60.817179237504526 ], [ -115.791190599999979, 60.8169816 ], [ -115.791249272701876, 60.816911955318915 ] ], [ [ -115.791324349245755, 60.816822838742461 ], [ -115.791474501073637, 60.816644605456709 ] ] ] } },
{ "type": "Feature", "properties": { "osm_id": 119937523, "name": "Woodland Drive", "highway": "residential", "flooded_m": 36.444490110287347 }, "geometry": { "type": "MultiLineString", "coordinates": [ [ [ -115.785519818193052, 60.812696584094496 ], [ -115.785622556168548, 60.812640985153521 ] ], [ [ -115.785895176148998, 60.812493449462906 ], [ -115.78608285334181, 60.812391881746521 ] ], [ [ -115.786112137846402, 60.812376033386691 ], [ -115.786270529344506, 60.812290313763071 ] ] ] } },
{ "type": "Feature", "properties": { "osm_id": 119937525, "name": "Woodland Drive", "highway": "residential", "flooded_m": 150.68924699804302 }, "geometry": { "type": "MultiLineString", "coordinates": [ [ [ -115.776169376916968, 60.821670844037975 ], [ -115.776226100000017, 60.8216314 ], [ -115.776237367041873, 60.821624838248574 ] ], [ [ -115.776357693746803, 60.821554761603288 ], [ -115.776733822754167, 60.821335706469505 ] ], [ [ -115.776844585118496, 60.821271198399025 ], [ -115.776996387541175, 60.821182787999085 ] ], [ [ -115.778155949390992, 60.820205623375259 ], [ -115.778446040618192, 60.819833187729898 ] ], [ [ -115.778503186381812, 60.819759819636801 ], [ -115.7785254, 60.8197313 ], [ -115.778778476196365, 60.81940315330209 ] ], [ [ -115.778832863138717, 60.819332632502167 ], [ -115.778916010458232, 60.819224818925179 ] ] ] } },
{ "type": "Feature", "properties": { "osm_id": 119937543, "name": "Woodland Drive", "highway": "residential", "flooded_m": 21.33713356641336 }, "geometry": { "type": "LineString", "coordinates": [ [ -115.78760150495809, 60.811222185189976 ], [ -115.787744912977999, 60.811043895100561 ] ] } },
{ "type": "Feature", "properties": { "osm_id": 119937550, "name": "Whitlock Rd", "highway": "unclassified", "flooded_m": 90.658020750236787 }, "geometry": { "type": "MultiLineString", "coordinates": [ [ [ -115.76976741339061, 60.83994053896307 ], [ -115.76963019137834, 60.839971901666829 ] ], [ [ -115.768839404246734, 60.840150288914465 ], [ -115.7682331, 60.8402781 ], [ -115.767921773436271, 60.840405213934687 ] ], [ [ -115.767909450558619, 60.84041024530211 ], [ -115.767722521475989, 60.840486567148773 ] ], [ [ -115.764904999799228, 60.841724411258717 ], [ -115.7648935, 60.8417308 ], [ -115.7648214, 60.8418159 ] ] ] } },
{ "type": "Feature", "properties": { "osm_id": 119937555, "name": null, "highway": "tertiary", "flooded_m": 49.897125671344043 }, "geometry": { "type": "MultiLineString", "coordinates": [ [ [ -115.809209468582424, 60.85293422615154 ], [ -115.808740254678085, 60.85280518320512 ] ], [ [ -115.808662628352039, 60.852790648005708 ], [ -115.808296316307789, 60.852742042138175 ] ] ] } },
{ "type": "Feature", "properties": { "osm_id": 119937573, "name": null, "highway": "residential", "flooded_m": 138.62424311982915 }, "geometry": { "type": "MultiLineString", "coordinates": [ [ [ -115.806953491538124, 60.853597462590528 ], [ -115.8069537, 60.8536169 ], [ -115.8068999, 60.853888600000012 ], [ -115.806807, 60.8540983 ], [ -115.8067249, 60.8542554 ], [ -115.806446, 60.8545402 ], [ -115.806196921300739, 60.854744966496241 ] ], [ [ -115.805822882762158, 60.854902877647866 ], [ -115.8057887, 60.8549168 ] ] ] } },
{ "type": "Feature", "properties": { "osm_id": 119937582, "name": null, "highway": "unclassified", "flooded_m": 116.77115243996053 }, "geometry": { "type": "MultiLineString", "coordinates": [ [ [ -115.7602133, 60.841022299999985 ], [ -115.760159106075918, 60.84099641310813 ] ], [ [ -115.758704032906294, 60.840560877842066 ], [ -115.7585276, 60.8405389 ], [ -115.75805889999998, 60.8404937 ], [ -115.757825700000012, 60.840489500000011 ], [ -115.7577358, 60.8404879 ], [ -115.7575275, 60.840475499999989 ], [ -115.757201900000013, 60.8404723 ], [ -115.757051194934377, 60.84048114748007 ] ], [ [ -115.756681730395414, 60.840519260660983 ], [ -115.756671400000016, 60.8405205 ], [ -115.756310822338051, 60.840594508819684 ] ] ] } },
{ "type": "Feature", "properties": { "osm_id": 119937585, "name": null, "highway": "residential", "flooded_m": 6.2153471507119482 }, "geometry": { "type": "LineString", "coordinates": [ [ -115.755852100000013, 60.8364778 ], [ -115.755782648453845, 60.836522122107063 ] ] } },
{ "type": "Feature", "properties": { "osm_id": 119937604, "name": null, "highway": "tertiary", "flooded_m": 80.316641364519526 }, "geometry": { "type": "MultiLineString", "coordinates": [ [ [ -115.78245410511515, 60.825649264095439 ], [ -115.781811165557144, 60.825177377786979 ] ], [ [ -115.781738456095184, 60.825124011519549 ], [ -115.781563430218185, 60.824995547602363 ] ] ] } },
{ "type": "Feature", "properties": { "osm_id": 119937607, "name": null, "highway": "residential", "flooded_m": 21.895240081580496 }, "geometry": { "type": "LineString", "coordinates": [ [ -115.7806745, 60.838097099999985 ], [ -115.780321380083862, 60.838191634070931 ] ] } },
{ "type": "Feature", "properties": { "osm_id": 119937608, "name": null, "highway": "residential", "flooded_m": 3.8465492465354858 }, "geometry": { "type": "LineString", "coordinates": [ [ -115.771849900000021, 60.8388831 ], [ -115.77187726364339, 60.838914946078802 ] ] } },
{ "type": "Feature", "properties": { "osm_id": 119937610, "name": null, "highway": "residential", "flooded_m": 1.5181367908224539 }, "geometry": { "type": "LineString", "coordinates": [ [ -115.7865093, 60.8150001 ], [ -115.786535413790148, 60.815004904860629 ] ] } },
{ "type": "Feature", "properties": { "osm_id": 119937612, "name": "Wolf Dr", "highway": "residential", "flooded_m": 130.35439794666951 }, "geometry": { "type": "MultiLineString", "coordinates": [ [ [ -115.758659790259969, 60.836956630358898 ], [ -115.757198609850207, 60.836683670154237 ] ], [ [ -115.756650673661383, 60.836581305998216 ], [ -115.7561871, 60.8364947 ], [ -115.755852100000013, 60.8364778 ] ] ] } },
{ "type": "Feature", "properties": { "osm_id": 119937615, "name": null, "highway": "residential", "flooded_m": 170.75104852518464 }, "geometry": { "type": "MultiLineString", "coordinates": [ [ [ -115.7618296, 60.840949 ], [ -115.761953163875631, 60.841248296421185 ] ], [ [ -115.761236311637191, 60.841688096813492 ], [ -115.7611291, 60.841688799999986 ], [ -115.7610049, 60.8416724 ], [ -115.7608822, 60.841663899999986 ], [ -115.760718200000014, 60.841654399999989 ], [ -115.760594800000021, 60.8416528 ], [ -115.7605413, 60.8416958 ], [ -115.7604625, 60.8417706 ], [ -115.760161752211673, 60.84195012335838 ] ], [ [ -115.760121232522891, 60.841974310297552 ], [ -115.7600921, 60.841991699999987 ], [ -115.760007, 60.8420327 ], [ -115.759892599999986, 60.842072099999989 ], [ -115.759682, 60.8421118 ], [ -115.759467, 60.8421388 ], [ -115.759254, 60.842137800000017 ], [ -115.759169400000019, 60.8421291 ], [ -115.75910845147196, 60.842119988884079 ] ] ] } },
{ "type": "Feature", "properties": { "osm_id": 119937640, "name": "Fox Rd", "highway": "residential", "flooded_m": 10.952236820071288 }, "geometry": { "type": "MultiLineString", "coordinates": [ [ [ -115.766638345054801, 60.832491732102589 ], [ -115.766741035239306, 60.832530834662926 ] ], [ [ -115.766879978773773, 60.832583741565273 ], [ -115.766922323452633, 60.832599865503816 ] ], [ [ -115.767121613883148, 60.832675750596252 ], [ -115.767135400000015, 60.832681 ] ] ] } },
{ "type": "Feature", "properties": { "osm_id": 119937651, "name": null, "highway": "tertiary", "flooded_m": 336.48764337329158 }, "geometry": { "type": "MultiLineString", "coordinates": [ [ [ -115.806314912391684, 60.851582222053992 ], [ -115.806287826695879, 60.851526355094272 ] ], [ [ -115.806244105643117, 60.851436175626205 ], [ -115.8060563, 60.8510488 ], [ -115.806028707589803, 60.850985306513216 ] ], [ [ -115.805974447415991, 60.850841362910344 ], [ -115.8059508, 60.8507641 ], [ -115.805935026143374, 60.850625309320939 ] ], [ [ -115.805943277609174, 60.850356008651481 ], [ -115.8059449, 60.85030780000001 ], [ -115.8059709, 60.8499664 ], [ -115.806010282868243, 60.849548481802358 ] ], [ [ -115.806027191502608, 60.849369049303007 ], [ -115.806030812872351, 60.849330619461497 ] ], [ [ -115.80607791619812, 60.848830751760737 ], [ -115.806086370137933, 60.84874103549722 ] ], [ [ -115.803823975693206, 60.844362152005402 ], [ -115.803728223590227, 60.844230503702299 ] ], [ [ -115.803648956395975, 60.844121519417278 ], [ -115.803596757536766, 60.844049750896502 ] ], [ [ -115.799955298575583, 60.839078759559257 ], [ -115.7998837, 60.8389808 ], [ -115.799760100000015, 60.8388232 ], [ -115.799746465405619, 60.83880752028751 ] ], [ [ -115.799265929190668, 60.838329453126889 ], [ -115.7992099, 60.8382826 ], [ -115.799184848417241, 60.838263754759041 ] ], [ [ -115.798943255181385, 60.838082013062554 ], [ -115.798908242928633, 60.838055674427373 ] ], [ [ -115.798729316247957, 60.837921072601404 ], [ -115.798550391067764, 60.837786470538838 ] ], [ [ -115.797739968702288, 60.837173339599858 ], [ -115.797621204753483, 60.837082485628379 ] ], [ [ -115.797502441476837, 60.836991631552621 ], [ -115.797194300000015, 60.8367559 ], [ -115.797024486784039, 60.836628188177841 ] ], [ [ -115.796940508122859, 60.83656502969562 ], [ -115.796903657484151, 60.836537315055395 ] ] ] } },
{ "type": "Feature", "properties": { "osm_id": 119937670, "name": "Marten Rd", "highway": "residential", "flooded_m": 0.75265359907113794 }, "geometry": { "type": "LineString", "coordinates": [ [ -115.767144623860844, 60.832675961671242 ], [ -115.767135400000015, 60.832681 ] ] } },
{ "type": "Feature", "properties": { "osm_id": 119937679, "name": "Fox Rd", "highway": "residential", "flooded_m": 59.221446707819226 }, "geometry": { "type": "MultiLineString", "coordinates": [ [ [ -115.767135400000015, 60.832681 ], [ -115.767284407756875, 60.832750772343985 ] ], [ [ -115.767319835113753, 60.832767361006994 ], [ -115.767465098869124, 60.832835379676652 ] ], [ [ -115.767515430617024, 60.832858947038311 ], [ -115.768007177935573, 60.833089200227285 ] ] ] } },
{ "type": "Feature", "properties": { "osm_id": 119937680, "name": null, "highway": "service", "flooded_m": 3.7366821626521403 }, "geometry": { "type": "LineString", "coordinates": [ [ -115.752991099999988, 60.844459799999989 ], [ -115.753033415775292, 60.84443336126828 ] ] } },
{ "type": "Feature", "properties": { "osm_id": 119937683, "name": null, "highway": "residential", "flooded_m": 3.9561727672926743 }, "geometry": { "type": "LineString", "coordinates": [ [ -115.7602133, 60.841022299999985 ], [ -115.760157226653618, 60.841044941525951 ] ] } },
{ "type": "Feature", "properties": { "osm_id": 119937689, "name": null, "highway": "tertiary", "flooded_m": 30.832551753628231 }, "geometry": { "type": "LineString", "coordinates": [ [ -115.822906019520047, 60.819258235485137 ], [ -115.82289280000002, 60.8192453 ], [ -115.822849100000013, 60.8191822 ], [ -115.8228234, 60.819119 ], [ -115.822805684359608, 60.818987982145984 ] ] } },
{ "type": "Feature", "properties": { "osm_id": 119961622, "name": "Hay River Highway", "highway": "tertiary", "flooded_m": 615.47394590316731 }, "geometry": { "type": "MultiLineString", "coordinates": [ [ [ -115.758179340407978, 60.842650162555863 ], [ -115.757875161796008, 60.843006521283186 ] ], [ [ -115.757190741593504, 60.843808325824739 ], [ -115.757114710068791, 60.843897415151119 ] ], [ [ -115.756437858177932, 60.844609493712603 ], [ -115.756349188682606, 60.844698465714494 ] ], [ [ -115.755821830941144, 60.845232339660498 ], [ -115.755760116678502, 60.84529579714853 ] ], [ [ -115.75547564133042, 60.845588304340069 ], [ -115.755456, 60.845608500000012 ], [ -115.75537757881466, 60.84566864537971 ] ], [ [ -115.754792991060683, 60.846030944424605 ], [ -115.754758, 60.846049 ], [ -115.7544201, 60.8461849 ], [ -115.754167200000012, 60.8462507 ], [ -115.754007417747204, 60.846293042711608 ] ], [ [ -115.753138653756537, 60.84645569861101 ], [ -115.7529055, 60.846484 ], [ -115.751844901139734, 60.846598422257529 ] ], [ [ -115.751290480776348, 60.846658341767913 ], [ -115.749627063632488, 60.846841766353563 ] ], [ [ -115.749072587067459, 60.846902903295273 ], [ -115.748887761080965, 60.846923281766209 ] ], [ [ -115.748518108410721, 60.846964037943572 ], [ -115.748148454810845, 60.847004793101583 ] ], [ [ -115.747797578777281, 60.847043476952017 ], [ -115.7477112, 60.847053 ], [ -115.747155, 60.8471453 ], [ -115.7467051, 60.847235 ], [ -115.746480780982679, 60.847295955029374 ] ], [ [ -115.746294769298373, 60.84734650020507 ], [ -115.745736730733441, 60.847498134175524 ] ], [ [ -115.745505861525871, 60.847560866399029 ], [ -115.7453151, 60.8476127 ], [ -115.745178437696737, 60.847656121910823 ] ], [ [ -115.744992082007741, 60.847715332557428 ], [ -115.743557213125328, 60.848171216266678 ] ], [ [ -115.743501211739073, 60.848189008340427 ], [ -115.742942124041406, 60.848366632455289 ] ], [ [ -115.741639422211321, 60.848733769680337 ], [ -115.7415426, 60.8487575 ], [ -115.74143699869893, 60.84877993236163 ] ], [ [ -115.741082655249613, 60.848851886720446 ], [ -115.740897308791361, 60.848885070968379 ] ] ] } },
{ "type": "Feature", "properties": { "osm_id": 119964036, "name": null, "highway": "unclassified", "flooded_m": 5.0069172469104721 }, "geometry": { "type": "LineString", "coordinates": [ [ -115.693965771491733, 60.848905514563761 ], [ -115.6939578, 60.8488977 ], [ -115.693923757386443, 60.848865511572029 ] ] } },
{ "type": "Feature", "properties": { "osm_id": 119964037, "name": null, "highway": "unclassified", "flooded_m": 95.613351626146653 }, "geometry": { "type": "MultiLineString", "coordinates": [ [ [ -115.691311472260438, 60.847852381178242 ], [ -115.691430006916008, 60.847906762467282 ] ], [ [ -115.691911371224421, 60.848127599655662 ], [ -115.6920354, 60.8481845 ], [ -115.69212956510772, 60.848219515857636 ] ], [ [ -115.693419504743986, 60.848761927041942 ], [ -115.6934634, 60.8487928 ], [ -115.6936434, 60.848958300000014 ], [ -115.693822399999988, 60.8490736 ], [ -115.69406050000002, 60.8491966 ], [ -115.6941651, 60.84928189999998 ] ] ] } },
{ "type": "Feature", "properties": { "osm_id": 119964044, "name": null, "highway": "unclassified", "flooded_m": 8.2193723200246058 }, "geometry": { "type": "LineString", "coordinates": [ [ -115.6941651, 60.84928189999998 ], [ -115.6942117, 60.8493521 ] ] } },
{ "type": "Feature", "properties": { "osm_id": 119964045, "name": null, "highway": "residential", "flooded_m": 20.456712018430416 }, "geometry": { "type": "LineString", "coordinates": [ [ -115.7463828, 60.8499131 ], [ -115.746748098501726, 60.849868768172328 ] ] } },
{ "type": "Feature", "properties": { "osm_id": 119964050, "name": null, "highway": "residential", "flooded_m": 8.9457413153828931 }, "geometry": { "type": "MultiLineString", "coordinates": [ [ [ -115.726347488095215, 60.859323158694338 ], [ -115.726309264558878, 60.859358707202695 ] ], [ [ -115.726156334934643, 60.859500933325322 ], [ -115.726118082263184, 60.859536508476218 ] ] ] } },
{ "type": "Feature", "properties": { "osm_id": 119964051, "name": null, "highway": "unclassified", "flooded_m": 16.249188962059129 }, "geometry": { "type": "LineString", "coordinates": [ [ -115.6941651, 60.84928189999998 ], [ -115.694132065402513, 60.849136915090405 ] ] } },
{ "type": "Feature", "properties": { "osm_id": 119964059, "name": null, "highway": "unclassified", "flooded_m": 39.252151766023907 }, "geometry": { "type": "LineString", "coordinates": [ [ -115.7413946, 60.8612773 ], [ -115.741459399999982, 60.8614143 ], [ -115.741551130019545, 60.861621312626021 ] ] } },
{ "type": "Feature", "properties": { "osm_id": 119964063, "name": null, "highway": "unclassified", "flooded_m": 150.57820477041258 }, "geometry": { "type": "MultiLineString", "coordinates": [ [ [ -115.696290602138717, 60.85041496990749 ], [ -115.696298199999987, 60.850350499999983 ], [ -115.6962632, 60.850263099999978 ], [ -115.6962095, 60.850166799999982 ], [ -115.696171, 60.8501214 ], [ -115.6960574, 60.8500341 ], [ -115.6958917, 60.8499373 ], [ -115.6956452, 60.8498124 ], [ -115.6955713, 60.8497792 ], [ -115.6951422, 60.8496101 ], [ -115.69489933075829, 60.849503538713755 ] ], [ [ -115.694862261047405, 60.849487273910029 ], [ -115.694690049729729, 60.849411713669916 ] ], [ [ -115.694500823610753, 60.849324133340687 ], [ -115.694421800000015, 60.8492837 ] ] ] } },
{ "type": "Feature", "properties": { "osm_id": 119964065, "name": null, "highway": "unclassified", "flooded_m": 17.422710156667016 }, "geometry": { "type": "LineString", "coordinates": [ [ -115.6942117, 60.8493521 ], [ -115.6942922, 60.849468699999989 ], [ -115.694325100217583, 60.84949796326034 ] ] } },
{ "type": "Feature", "properties": { "osm_id": 119964069, "name": "Loop C", "highway": "service", "flooded_m": 32.796902224794991 }, "geometry": { "type": "MultiLineString", "coordinates": [ [ [ -115.741678523352789, 60.861622504678195 ], [ -115.741810699999988, 60.8615708 ], [ -115.742055931689819, 60.861547454661171 ] ], [ [ -115.742240324923173, 60.861540350822011 ], [ -115.742424155097396, 60.861547566256313 ] ] ] } },
{ "type": "Feature", "properties": { "osm_id": 119964070, "name": null, "highway": "unclassified", "flooded_m": 13.881238976710149 }, "geometry": { "type": "LineString", "coordinates": [ [ -115.694421800000015, 60.8492837 ], [ -115.6942932, 60.8493145 ], [ -115.6942117, 60.8493521 ] ] } },
{ "type": "Feature", "properties": { "osm_id": 119964074, "name": null, "highway": "unclassified", "flooded_m": 20.335227357133626 }, "geometry": { "type": "LineString", "coordinates": [ [ -115.694421800000015, 60.8492837 ], [ -115.6942875, 60.849205 ], [ -115.694198702484726, 60.849137562325389 ] ] } },
{ "type": "Feature", "properties": { "osm_id": 119964078, "name": null, "highway": "unclassified", "flooded_m": 35.308865426231193 }, "geometry": { "type": "MultiLineString", "coordinates": [ [ [ -115.690163963804878, 60.847363881727716 ], [ -115.690244299999989, 60.8473878 ], [ -115.690527151675767, 60.847483169777767 ] ], [ [ -115.690534483171675, 60.847485641740398 ], [ -115.690708682688665, 60.84754437641304 ] ] ] } },
{ "type": "Feature", "properties": { "osm_id": 119964080, "name": null, "highway": "residential", "flooded_m": 63.137322341235013 }, "geometry": { "type": "MultiLineString", "coordinates": [ [ [ -115.727592357275924, 60.859500008187375 ], [ -115.727463500000013, 60.8595095 ], [ -115.727395796947263, 60.859512668635148 ] ], [ [ -115.727223327058894, 60.859520740405983 ], [ -115.726581, 60.859550800000015 ], [ -115.726273765561515, 60.859591838270013 ] ] ] } },
{ "type": "Feature", "properties": { "osm_id": 119964093, "name": null, "highway": "unclassified", "flooded_m": 89.157737293802597 }, "geometry": { "type": "LineString", "coordinates": [ [ -115.718933224510394, 60.855060040629702 ], [ -115.7194749, 60.854934500000013 ], [ -115.7197573, 60.85488 ], [ -115.720002799999989, 60.8548258 ], [ -115.7203669, 60.8547336 ], [ -115.720419370112452, 60.854721822754023 ] ] } },
{ "type": "Feature", "properties": { "osm_id": 119964105, "name": null, "highway": "unclassified", "flooded_m": 42.645902428150045 }, "geometry": { "type": "LineString", "coordinates": [ [ -115.707677484046386, 60.855728595851929 ], [ -115.707740199999989, 60.855707799999983 ], [ -115.7078604, 60.8556778 ], [ -115.7079944, 60.8556531 ], [ -115.7081472, 60.8556372 ], [ -115.708410499999985, 60.8556166 ], [ -115.708418344983244, 60.855616278999463 ] ] } },
{ "type": "Feature", "properties": { "osm_id": 119965097, "name": "100 Avenue", "highway": "residential", "flooded_m": 200.69384037203201 }, "geometry": { "type": "MultiLineString", "coordinates": [ [ [ -115.737167178858897, 60.849368441793295 ], [ -115.736458338761381, 60.849441831854826 ] ], [ [ -115.736372068006091, 60.849450763655767 ], [ -115.736088738587014, 60.849480096948291 ] ], [ [ -115.73590393817291, 60.849499229112972 ], [ -115.735719137540798, 60.849518361022966 ] ], [ [ -115.734610329171161, 60.849633147134078 ], [ -115.734587600000012, 60.849635499999977 ], [ -115.733869900000016, 60.849741499999986 ], [ -115.733869858371037, 60.849741535148475 ] ], [ [ -115.733817315640394, 60.849785898345466 ], [ -115.7337228, 60.8498657 ], [ -115.733694700000015, 60.85003420000001 ], [ -115.7337564, 60.8502251 ], [ -115.73395749594728, 60.850595351780647 ] ] ] } },
{ "type": "Feature", "properties": { "osm_id": 119965099, "name": "101 Avenue", "highway": "residential", "flooded_m": 63.643700274938851 }, "geometry": { "type": "MultiLineString", "coordinates": [ [ [ -115.7457885, 60.8486486 ], [ -115.746060833558033, 60.848620229097612 ] ], [ [ -115.746984799162263, 60.848523968609548 ], [ -115.747283, 60.848492899999989 ], [ -115.747694, 60.8484645 ], [ -115.747723397791091, 60.848461520515279 ] ], [ [ -115.74809444491828, 60.848385586264143 ], [ -115.7481137, 60.8483783 ], [ -115.7481876, 60.8483333 ] ] ] } },
{ "type": "Feature", "properties": { "osm_id": 119965101, "name": "107 Street", "highway": "residential", "flooded_m": 78.918862445244599 }, "geometry": { "type": "MultiLineString", "coordinates": [ [ [ -115.7481876, 60.8483333 ], [ -115.748214639690246, 60.848304454038647 ] ], [ [ -115.74825049324464, 60.848125203141642 ], [ -115.748237500000016, 60.8481016 ], [ -115.748186899999979, 60.847999399999985 ], [ -115.748093200000014, 60.8478103 ], [ -115.747989993659715, 60.847584023262179 ] ], [ [ -115.747773934895932, 60.847169902260127 ], [ -115.7477112, 60.847053 ] ] ] } },
{ "type": "Feature", "properties": { "osm_id": 228144033, "name": null, "highway": "service", "flooded_m": 18.645945545488328 }, "geometry": { "type": "LineString", "coordinates": [ [ -115.780319346769332, 60.838245010444666 ], [ -115.7804897, 60.8383903 ] ] } },
{ "type": "Feature", "properties": { "osm_id": 314671821, "name": "Loop A", "highway": "service", "flooded_m": 61.134324276638552 }, "geometry": { "type": "MultiLineString", "coordinates": [ [ [ -115.74215810523836, 60.863631161970943 ], [ -115.7419867, 60.8635516 ], [ -115.7419119, 60.863485399999988 ], [ -115.7418711, 60.8633928 ], [ -115.741877750107321, 60.86324062991558 ] ], [ [ -115.741977896233848, 60.863151774461791 ], [ -115.74199335417471, 60.863138568887557 ] ], [ [ -115.743100021135675, 60.863089489156685 ], [ -115.743235299999981, 60.863119099999984 ], [ -115.743282852926598, 60.863122345044609 ] ] ] } },
{ "type": "Feature", "properties": { "osm_id": 314671822, "name": "Loop B", "highway": "service", "flooded_m": 12.03484694852961 }, "geometry": { "type": "LineString", "coordinates": [ [ -115.745259343871396, 60.864367850698557 ], [ -115.745441048922999, 60.864429671423238 ] ] } },
{ "type": "Feature", "properties": { "osm_id": 314671827, "name": null, "highway": "service", "flooded_m": 114.52731533746513 }, "geometry": { "type": "LineString", "coordinates": [ [ -115.7382795, 60.861595299999983 ], [ -115.73839430000001, 60.861801799999988 ], [ -115.73848409999998, 60.8619531 ], [ -115.73862, 60.8620582 ], [ -115.739202, 60.8625087 ] ] } },
{ "type": "Feature", "properties": { "osm_id": 314671835, "name": "106th Avenue", "highway": "residential", "flooded_m": 101.15290802599286 }, "geometry": { "type": "MultiLineString", "coordinates": [ [ [ -115.7382795, 60.861595299999983 ], [ -115.73832020426336, 60.861591039657725 ] ], [ [ -115.739921867316156, 60.861426471869571 ], [ -115.74022074939765, 60.861396199770773 ] ], [ [ -115.740590449933123, 60.86135875386622 ], [ -115.7413946, 60.8612773 ], [ -115.741884676332404, 60.861220534553432 ] ], [ [ -115.742069630871839, 60.861199110787616 ], [ -115.742254585166449, 60.861177686766666 ] ] ] } },
{ "type": "Feature", "properties": { "osm_id": 749132426, "name": null, "highway": "service", "flooded_m": 2.0478551609071753 }, "geometry": { "type": "LineString", "coordinates": [ [ -115.7345953, 60.8556204 ], [ -115.734557611741224, 60.855620572554528 ] ] } },
{ "type": "Feature", "properties": { "osm_id": 876189555, "name": null, "highway": "service", "flooded_m": 32.378466331296949 }, "geometry": { "type": "LineString", "coordinates": [ [ -115.778067100000015, 60.83068 ], [ -115.7778119, 60.8306908 ], [ -115.777473873160815, 60.830705098649645 ] ] } },
{ "type": "Feature", "properties": { "osm_id": 876189556, "name": null, "highway": "service", "flooded_m": 25.430013391746286 }, "geometry": { "type": "LineString", "coordinates": [ [ -115.7779643, 60.8301788 ], [ -115.777740300000019, 60.8301895 ], [ -115.777498839891976, 60.830200912549877 ] ] } },
{ "type": "Feature", "properties": { "osm_id": 876189557, "name": null, "highway": "service", "flooded_m": 30.542126406003014 }, "geometry": { "type": "LineString", "coordinates": [ [ -115.7778963, 60.8297709 ], [ -115.777689, 60.829774 ], [ -115.7773349, 60.8297793 ] ] } },
{ "type": "Feature", "properties": { "osm_id": 876189558, "name": null, "highway": "service", "flooded_m": 58.625583706339043 }, "geometry": { "type": "LineString", "coordinates": [ [ -115.7777989, 60.829187 ], [ -115.7775989, 60.8292025 ], [ -115.776734100000013, 60.8292694 ] ] } },
{ "type": "Feature", "properties": { "osm_id": 876189559, "name": null, "highway": "service", "flooded_m": 69.132164430490619 }, "geometry": { "type": "LineString", "coordinates": [ [ -115.7777363, 60.8287975 ], [ -115.7775333, 60.8288089 ], [ -115.7772008, 60.8288275 ], [ -115.776956700000014, 60.8289125 ], [ -115.7768816, 60.8289896 ], [ -115.7768977, 60.8291151 ] ] } },
{ "type": "Feature", "properties": { "osm_id": 876189560, "name": null, "highway": "service", "flooded_m": 125.4594439587644 }, "geometry": { "type": "LineString", "coordinates": [ [ -115.777384881178975, 60.828367830517124 ], [ -115.7766134, 60.8284209 ], [ -115.7766536, 60.828648399999985 ], [ -115.777501200000017, 60.828655599999983 ], [ -115.7777137, 60.8286574 ] ] } },
{ "type": "Feature", "properties": { "osm_id": 876189563, "name": null, "highway": "service", "flooded_m": 108.36221654460368 }, "geometry": { "type": "LineString", "coordinates": [ [ -115.7752803, 60.826888599999968 ], [ -115.7753232, 60.8269605 ], [ -115.7754037, 60.827011499999983 ], [ -115.775519, 60.8270325 ], [ -115.776659, 60.8271802 ], [ -115.776996900000015, 60.8271985 ], [ -115.777061713247917, 60.827197695515444 ] ] } },
{ "type": "Feature", "properties": { "osm_id": 876189568, "name": null, "highway": "service", "flooded_m": 56.347026655572975 }, "geometry": { "type": "LineString", "coordinates": [ [ -115.767264589052687, 60.842822544769803 ], [ -115.768130192411306, 60.843100886736039 ] ] } },
{ "type": "Feature", "properties": { "osm_id": 876189570, "name": null, "highway": "track", "flooded_m": 432.17633816568667 }, "geometry": { "type": "MultiLineString", "coordinates": [ [ [ -115.766685771661713, 60.843518195826867 ], [ -115.76665565817099, 60.843536326917544 ] ], [ [ -115.766498209624345, 60.843610393194716 ], [ -115.765962300000012, 60.8438325 ], [ -115.765937281822474, 60.843841207042011 ] ], [ [ -115.765803758555037, 60.843887676802339 ], [ -115.7643664, 60.8443879 ], [ -115.764014748853171, 60.844499785151129 ] ], [ [ -115.763885816824526, 60.844549240507888 ], [ -115.76379583244082, 60.844587564373199 ] ], [ [ -115.763511630121286, 60.844708603610258 ], [ -115.763383077667683, 60.844763352455026 ] ], [ [ -115.760905813370925, 60.845472952400563 ], [ -115.7600373, 60.845603099999984 ], [ -115.759242003886868, 60.845669593349186 ] ], [ [ -115.757950572756641, 60.845754054313311 ], [ -115.7578272, 60.8457599 ], [ -115.7573497, 60.8458592 ], [ -115.756836046907395, 60.846021589194798 ] ], [ [ -115.756473232643501, 60.846136289164576 ], [ -115.756463422025476, 60.846139390664689 ] ], [ [ -115.755718164055168, 60.846374990476313 ], [ -115.755531847852865, 60.846433889777508 ] ], [ [ -115.749572815192465, 60.848230307605355 ], [ -115.7482785, 60.8483634 ], [ -115.7481137, 60.8483783 ] ] ] } },
{ "type": "Feature", "properties": { "osm_id": 876189571, "name": null, "highway": "service", "flooded_m": 25.927569164825179 }, "geometry": { "type": "LineString", "coordinates": [ [ -115.769057724218044, 60.840325828930382 ], [ -115.7692346, 60.840542 ] ] } },
{ "type": "Feature", "properties": { "osm_id": 876189573, "name": null, "highway": "service", "flooded_m": 17.715704544711041 }, "geometry": { "type": "LineString", "coordinates": [ [ -115.777053, 60.8359621 ], [ -115.7767287, 60.8359466 ] ] } },
{ "type": "Feature", "properties": { "osm_id": 876189574, "name": null, "highway": "service", "flooded_m": 49.593652967953147 }, "geometry": { "type": "LineString", "coordinates": [ [ -115.778488929754559, 60.838705816037852 ], [ -115.778109470542148, 60.838300926394425 ] ] } },
{ "type": "Feature", "properties": { "osm_id": 876189575, "name": null, "highway": "service", "flooded_m": 14.430223282176128 }, "geometry": { "type": "LineString", "coordinates": [ [ -115.777997299999981, 60.8390522 ], [ -115.777901426811042, 60.838931395701231 ] ] } },
{ "type": "Feature", "properties": { "osm_id": 876189576, "name": null, "highway": "service", "flooded_m": 73.093527121380035 }, "geometry": { "type": "MultiLineString", "coordinates": [ [ [ -115.780132750687429, 60.838271784593275 ], [ -115.7799974, 60.838336799999972 ], [ -115.779976853657573, 60.838360161607632 ] ], [ [ -115.778452432376085, 60.838956084371617 ], [ -115.778367192968844, 60.838974085536115 ] ], [ [ -115.778266955049318, 60.838995254045017 ], [ -115.777997299999981, 60.8390522 ], [ -115.777339597979818, 60.839190147103579 ] ] ] } },
{ "type": "Feature", "properties": { "osm_id": 876189577, "name": null, "highway": "service", "flooded_m": 24.041922599537926 }, "geometry": { "type": "LineString", "coordinates": [ [ -115.777877870331281, 60.839548518702045 ], [ -115.778297800000018, 60.8394808 ] ] } },
{ "type": "Feature", "properties": { "osm_id": 876189578, "name": null, "highway": "service", "flooded_m": 55.529649131462634 }, "geometry": { "type": "MultiLineString", "coordinates": [ [ [ -115.7758678, 60.8414581 ], [ -115.775609288934177, 60.841136976237806 ] ], [ [ -115.775617380709562, 60.840925401037296 ], [ -115.775618376186927, 60.84092449876934 ] ], [ [ -115.775807980750102, 60.840752646356918 ], [ -115.7758141, 60.8407471 ], [ -115.775814737087941, 60.840746703233798 ] ], [ [ -115.776525232749151, 60.840304212051997 ], [ -115.7765275, 60.840302800000011 ], [ -115.776562922078639, 60.840256269233748 ] ], [ [ -115.77659430156919, 60.840215048726066 ], [ -115.776650900000021, 60.8401407 ], [ -115.7766503680851, 60.840125767033996 ] ] ] } },
{ "type": "Feature", "properties": { "osm_id": 876189579, "name": null, "highway": "service", "flooded_m": 110.80299725380721 }, "geometry": { "type": "LineString", "coordinates": [ [ -115.785333102982634, 60.841730967615348 ], [ -115.784489425006598, 60.840825423456188 ] ] } },
{ "type": "Feature", "properties": { "osm_id": 876189580, "name": null, "highway": "service", "flooded_m": 69.119004937197971 }, "geometry": { "type": "MultiLineString", "coordinates": [ [ [ -115.784313077696936, 60.834816274464977 ], [ -115.783385968086364, 60.835008845402847 ] ], [ [ -115.783200544833647, 60.835047358818642 ], [ -115.783015121137439, 60.835085871977157 ] ], [ [ -115.782458847387673, 60.835201409908997 ], [ -115.782401600000014, 60.8352133 ] ] ] } },
{ "type": "Feature", "properties": { "osm_id": 876189581, "name": null, "highway": "service", "flooded_m": 104.89634031934632 }, "geometry": { "type": "LineString", "coordinates": [ [ -115.790429438959819, 60.843345524806551 ], [ -115.790544800000021, 60.8433177 ], [ -115.792190079760402, 60.842960043595312 ] ] } },
{ "type": "Feature", "properties": { "osm_id": 876189582, "name": null, "highway": "service", "flooded_m": 223.20038274237334 }, "geometry": { "type": "LineString", "coordinates": [ [ -115.796016499999979, 60.848692 ], [ -115.7949489, 60.8476558 ], [ -115.79493549999998, 60.8475735 ], [ -115.795005300000014, 60.8474977 ], [ -115.7951635, 60.8474429 ], [ -115.7962539, 60.8472027 ] ] } },
{ "type": "Feature", "properties": { "osm_id": 876206613, "name": null, "highway": "service", "flooded_m": 84.31765133591162 }, "geometry": { "type": "MultiLineString", "coordinates": [ [ [ -115.791190599999979, 60.8169816 ], [ -115.790511562924195, 60.816818253588075 ] ], [ [ -115.790114607800689, 60.816722158161454 ], [ -115.789992200000015, 60.8166183 ], [ -115.78996, 60.8164954 ], [ -115.790071687237742, 60.816362603533605 ] ] ] } },
{ "type": "Feature", "properties": { "osm_id": 876206614, "name": null, "highway": "service", "flooded_m": 58.388333118227791 }, "geometry": { "type": "MultiLineString", "coordinates": [ [ [ -115.787563415725145, 60.816989128754535 ], [ -115.787375777183172, 60.817089084333894 ] ], [ [ -115.787187950654157, 60.817193975778622 ], [ -115.787120250118932, 60.817233912268861 ] ], [ [ -115.786999894156168, 60.817304909820663 ], [ -115.7869399, 60.8173403 ], [ -115.786505300000016, 60.8174815 ], [ -115.786440976945528, 60.817498813592273 ] ] ] } },
{ "type": "Feature", "properties": { "osm_id": 876214457, "name": null, "highway": "service", "flooded_m": 79.822944247669653 }, "geometry": { "type": "MultiLineString", "coordinates": [ [ [ -115.786242449292857, 60.813031825684028 ], [ -115.7859421, 60.8129456 ], [ -115.7858241, 60.8128789 ], [ -115.7858723, 60.8128266 ], [ -115.786060100000014, 60.8127364 ], [ -115.786251079547895, 60.812803930156932 ] ], [ [ -115.786315855461254, 60.812826834722202 ], [ -115.786576454011509, 60.812918980929226 ] ] ] } },
{ "type": "Feature", "properties": { "osm_id": 876214465, "name": null, "highway": "service", "flooded_m": 11.408599611021838 }, "geometry": { "type": "MultiLineString", "coordinates": [ [ [ -115.796692399999984, 60.8169479 ], [ -115.796574784721827, 60.816924571529107 ] ], [ [ -115.796286482789114, 60.816867387535957 ], [ -115.796209793241687, 60.816852176210823 ] ] ] } },
{ "type": "Feature", "properties": { "osm_id": 876214466, "name": null, "highway": "service", "flooded_m": 48.989529294098077 }, "geometry": { "type": "LineString", "coordinates": [ [ -115.7970759, 60.8160638 ], [ -115.7962593, 60.815878399999988 ] ] } },
{ "type": "Feature", "properties": { "osm_id": 876214467, "name": null, "highway": "service", "flooded_m": 74.262515150988293 }, "geometry": { "type": "MultiLineString", "coordinates": [ [ [ -115.7965832, 60.8154995 ], [ -115.797175247699997, 60.815621851928476 ] ], [ [ -115.797357680898472, 60.8156595526602 ], [ -115.7980228, 60.815797 ] ] ] } },
{ "type": "Feature", "properties": { "osm_id": 876365693, "name": null, "highway": "service", "flooded_m": 23.720933476538193 }, "geometry": { "type": "LineString", "coordinates": [ [ -115.7716989, 60.8386833 ], [ -115.771849900000021, 60.8388831 ] ] } },
{ "type": "Feature", "properties": { "osm_id": 876365697, "name": null, "highway": "service", "flooded_m": 43.321312627125728 }, "geometry": { "type": "LineString", "coordinates": [ [ -115.760594800000021, 60.8416528 ], [ -115.760343, 60.841283799999985 ] ] } },
{ "type": "Feature", "properties": { "osm_id": 876365698, "name": null, "highway": "service", "flooded_m": 50.99227199421837 }, "geometry": { "type": "LineString", "coordinates": [ [ -115.757825700000012, 60.840489500000011 ], [ -115.7577869, 60.840625600000024 ], [ -115.7575469, 60.840745199999986 ], [ -115.7572915, 60.8408339 ] ] } },
{ "type": "Feature", "properties": { "osm_id": 876365699, "name": null, "highway": "service", "flooded_m": 76.448080325565073 }, "geometry": { "type": "LineString", "coordinates": [ [ -115.7568884, 60.8408674 ], [ -115.756880900000013, 60.8408983 ], [ -115.756891700000011, 60.8409291 ], [ -115.75691980000002, 60.8409571 ], [ -115.7569629, 60.8409801 ], [ -115.7570177, 60.8409962 ], [ -115.757079500000017, 60.8410042 ], [ -115.757143400000018, 60.8410034 ], [ -115.757204300000012, 60.8409939 ], [ -115.757257199999984, 60.8409763 ], [ -115.757297900000012, 60.8409523 ], [ -115.7573229, 60.840923600000018 ], [ -115.7573304, 60.8408926 ], [ -115.7573196, 60.8408619 ], [ -115.7572915, 60.8408339 ], [ -115.7572484, 60.8408109 ], [ -115.7571937, 60.8407947 ], [ -115.757131799999982, 60.8407867 ], [ -115.757067899999981, 60.8407875 ], [ -115.757007, 60.8407971 ], [ -115.756954100000016, 60.8408146 ], [ -115.7569134, 60.8408387 ], [ -115.7568884, 60.8408674 ] ] } },
{ "type": "Feature", "properties": { "osm_id": 876365705, "name": null, "highway": "service", "flooded_m": 67.653249893517469 }, "geometry": { "type": "MultiLineString", "coordinates": [ [ [ -115.76574005754685, 60.84418388462408 ], [ -115.766363795794362, 60.843982609349993 ] ], [ [ -115.767735578939678, 60.843546230408904 ], [ -115.768161570230106, 60.843421410881632 ] ] ] } },
{ "type": "Feature", "properties": { "osm_id": 876365707, "name": null, "highway": "service", "flooded_m": 13.130257449978544 }, "geometry": { "type": "MultiLineString", "coordinates": [ [ [ -115.7621723, 60.8419246 ], [ -115.762241029767608, 60.841969284922747 ] ], [ [ -115.762327266473633, 60.842025351823352 ], [ -115.762370100000012, 60.842053199999988 ], [ -115.762380142894969, 60.842060357956605 ] ], [ [ -115.762349385258275, 60.842149866962735 ], [ -115.762321958028409, 60.842162654717875 ] ] ] } },
{ "type": "Feature", "properties": { "osm_id": 876365708, "name": null, "highway": "service", "flooded_m": 177.33951879580752 }, "geometry": { "type": "MultiLineString", "coordinates": [ [ [ -115.75732175841091, 60.843809537006891 ], [ -115.757516, 60.843873 ], [ -115.757655512971397, 60.843873656627196 ] ], [ [ -115.758578425693017, 60.843800052931826 ], [ -115.7588089, 60.8437659 ], [ -115.75922730000002, 60.8436744 ], [ -115.759431100000015, 60.843562 ], [ -115.759500687344669, 60.843470492470637 ] ], [ [ -115.759511820364764, 60.843455852469368 ], [ -115.7595384, 60.843420899999984 ], [ -115.7596913, 60.8431818 ], [ -115.759865295180873, 60.843024895443207 ] ], [ [ -115.760456057510581, 60.842581383004273 ], [ -115.760465989934872, 60.842574612367812 ] ], [ [ -115.76058602300327, 60.842492789130219 ], [ -115.760654981728962, 60.842445781626459 ] ], [ [ -115.761960161205437, 60.842002171350572 ], [ -115.7621723, 60.8419246 ], [ -115.762005851949553, 60.841787534867649 ] ] ] } },
{ "type": "Feature", "properties": { "osm_id": 876365717, "name": null, "highway": "service", "flooded_m": 20.868294804805423 }, "geometry": { "type": "LineString", "coordinates": [ [ -115.754279633412679, 60.844589511918755 ], [ -115.754233, 60.844466300000015 ], [ -115.754183993486663, 60.84440904103834 ] ] } },
{ "type": "Feature", "properties": { "osm_id": 876365718, "name": null, "highway": "service", "flooded_m": 117.49786870026171 }, "geometry": { "type": "MultiLineString", "coordinates": [ [ [ -115.750280480641692, 60.84491156383784 ], [ -115.750439555801762, 60.844885456287933 ] ], [ [ -115.751363859193006, 60.844777410802557 ], [ -115.751435499999985, 60.8447642 ], [ -115.7516876, 60.84481 ], [ -115.752658023024679, 60.844622301394807 ] ], [ [ -115.752779972352172, 60.844575606983064 ], [ -115.752991099999988, 60.844459799999989 ], [ -115.753030859901784, 60.844498969724974 ] ], [ [ -115.753295801882288, 60.844759976299152 ], [ -115.75334789999998, 60.844811299999989 ], [ -115.753343659692149, 60.844850212424333 ] ] ] } },
{ "type": "Feature", "properties": { "osm_id": 876365730, "name": null, "highway": "service", "flooded_m": 45.504375253225149 }, "geometry": { "type": "MultiLineString", "coordinates": [ [ [ -115.7369891, 60.860310299999988 ], [ -115.736933513010882, 60.860320929271467 ] ], [ [ -115.736763782239052, 60.860353384781646 ], [ -115.736578273984179, 60.860388856903036 ] ], [ [ -115.735841329736644, 60.860401874176333 ], [ -115.735820848107949, 60.860400266563914 ] ], [ [ -115.735657791598101, 60.860387468066683 ], [ -115.7356238, 60.8603848 ], [ -115.735107206362983, 60.86034353582302 ] ] ] } },
{ "type": "Feature", "properties": { "osm_id": 876365731, "name": null, "highway": "service", "flooded_m": 64.442350413547999 }, "geometry": { "type": "MultiLineString", "coordinates": [ [ [ -115.738774845705379, 60.86071139637292 ], [ -115.7387674, 60.8607178 ], [ -115.738470580458667, 60.860784319037805 ] ], [ [ -115.737477937190917, 60.86091773199945 ], [ -115.737292985949821, 60.860939031234956 ] ], [ [ -115.737108034465379, 60.860960330215363 ], [ -115.7370588, 60.860966 ], [ -115.736740292631353, 60.860948186181552 ] ], [ [ -115.736001248107584, 60.861014030221725 ], [ -115.735816473859416, 60.861030810660559 ] ], [ [ -115.735631699420395, 60.861047590844926 ], [ -115.735538, 60.8610561 ] ] ] } },
{ "type": "Feature", "properties": { "osm_id": 876365732, "name": null, "highway": "service", "flooded_m": 141.2370028944236 }, "geometry": { "type": "MultiLineString", "coordinates": [ [ [ -115.741345928409203, 60.860875206983316 ], [ -115.7413745, 60.860888899999985 ], [ -115.741342300000014, 60.860964699999982 ], [ -115.741202800000011, 60.8610234 ], [ -115.7410446, 60.86100780000001 ], [ -115.740973144304036, 60.860991161791588 ] ], [ [ -115.740956117163918, 60.860987197073541 ], [ -115.7408595, 60.8609647 ], [ -115.740755384867072, 60.8608955252787 ] ], [ [ -115.7406098230379, 60.860866700070204 ], [ -115.740425, 60.8608667 ], [ -115.740006600000015, 60.8608771 ], [ -115.739641800000015, 60.8608589 ], [ -115.739267835542861, 60.860791795575999 ] ], [ [ -115.738881352474948, 60.860339209933436 ], [ -115.7388103, 60.8601849 ] ] ] } },
{ "type": "Feature", "properties": { "osm_id": 876365733, "name": null, "highway": "service", "flooded_m": 87.339169753497984 }, "geometry": { "type": "MultiLineString", "coordinates": [ [ [ -115.7401085, 60.8599538 ], [ -115.740092502180488, 60.860081185397696 ] ], [ [ -115.740078576433703, 60.860170847282674 ], [ -115.7400602, 60.86025020000001 ], [ -115.740063641767208, 60.860260499712915 ] ], [ [ -115.740079500460951, 60.860307957803023 ], [ -115.7401139, 60.8604109 ], [ -115.740067505986744, 60.860612483961532 ] ], [ [ -115.740065847575053, 60.860619689782233 ], [ -115.7400655, 60.8606212 ], [ -115.740006600000015, 60.8608771 ] ] ] } },
{ "type": "Feature", "properties": { "osm_id": 876365734, "name": null, "highway": "service", "flooded_m": 309.82528857155864 }, "geometry": { "type": "MultiLineString", "coordinates": [ [ [ -115.735617740286571, 60.857794376062955 ], [ -115.735773348824637, 60.858065216487091 ] ], [ [ -115.735825218917029, 60.858155496587791 ], [ -115.735923349719556, 60.85832629220149 ] ], [ [ -115.736032521107333, 60.858516615085129 ], [ -115.736082948089916, 60.858606881506752 ] ], [ [ -115.736095473855812, 60.858629303073826 ], [ -115.736183802900058, 60.858787414292202 ] ], [ [ -115.73626741304858, 60.858937077088463 ], [ -115.736284658836908, 60.858967947000579 ] ], [ [ -115.736335087227815, 60.859058213325852 ], [ -115.736346699999984, 60.859079 ], [ -115.736455848955899, 60.859328725372386 ] ], [ [ -115.736736984143562, 60.860139498433561 ], [ -115.7367691, 60.860199300000012 ], [ -115.7369891, 60.860310299999988 ], [ -115.737066376483384, 60.860322177105132 ] ], [ [ -115.73750071832022, 60.860340533112897 ], [ -115.737657868639047, 60.860327730716179 ] ], [ [ -115.737685419219275, 60.860325486262568 ], [ -115.7377589, 60.8603195 ], [ -115.7388103, 60.8601849 ], [ -115.7401085, 60.8599538 ], [ -115.740463917035058, 60.859896453454581 ] ] ] } },
{ "type": "Feature", "properties": { "osm_id": 876365735, "name": null, "highway": "service", "flooded_m": 10.355639432544823 }, "geometry": { "type": "LineString", "coordinates": [ [ -115.736285712182422, 60.858473845658281 ], [ -115.736100729936311, 60.858496266608611 ] ] } },
{ "type": "Feature", "properties": { "osm_id": 876365736, "name": null, "highway": "service", "flooded_m": 61.513300522975015 }, "geometry": { "type": "MultiLineString", "coordinates": [ [ [ -115.73997543894744, 60.858275822285357 ], [ -115.7399476, 60.858278 ], [ -115.739236142230439, 60.858349815134837 ] ], [ [ -115.738681648703135, 60.858405783332039 ], [ -115.738311985288703, 60.85844309418993 ] ] ] } },
{ "type": "Feature", "properties": { "osm_id": 876365738, "name": null, "highway": "service", "flooded_m": 40.091192107812034 }, "geometry": { "type": "MultiLineString", "coordinates": [ [ [ -115.7405484, 60.8575896 ], [ -115.7404062, 60.8576563 ], [ -115.740399544904633, 60.857659667848417 ] ], [ [ -115.7403672464377, 60.857676012654473 ], [ -115.7401997, 60.8577608 ], [ -115.739991849521772, 60.857859165045497 ] ] ] } },
{ "type": "Feature", "properties": { "osm_id": 876365739, "name": null, "highway": "service", "flooded_m": 96.092238269134839 }, "geometry": { "type": "MultiLineString", "coordinates": [ [ [ -115.7402909, 60.8580912 ], [ -115.74050010000002, 60.8579541 ], [ -115.740604065203485, 60.857841168206058 ] ], [ [ -115.740574055741234, 60.857661302395812 ], [ -115.7405484, 60.8575896 ], [ -115.7404706, 60.8573545 ], [ -115.7402828, 60.8572827 ], [ -115.7401139, 60.8572827 ], [ -115.740013314871916, 60.857314150304205 ] ] ] } },
{ "type": "Feature", "properties": { "osm_id": 876365740, "name": null, "highway": "service", "flooded_m": 124.89366874090221 }, "geometry": { "type": "MultiLineString", "coordinates": [ [ [ -115.739682, 60.856901299999983 ], [ -115.7397866, 60.857054099999985 ], [ -115.739917703240238, 60.857206191565126 ] ], [ [ -115.740012840358801, 60.857326198634013 ], [ -115.740049500000012, 60.85737670000001 ], [ -115.7401997, 60.8577608 ], [ -115.740277500000019, 60.8579606 ], [ -115.7402909, 60.8580912 ], [ -115.740288604269153, 60.858107590507778 ] ] ] } },
{ "type": "Feature", "properties": { "osm_id": 876365741, "name": null, "highway": "service", "flooded_m": 26.33395834019035 }, "geometry": { "type": "LineString", "coordinates": [ [ -115.739317199999988, 60.857092 ], [ -115.7396391, 60.857045 ], [ -115.7397866, 60.857054099999985 ] ] } },
{ "type": "Feature", "properties": { "osm_id": 876365742, "name": null, "highway": "service", "flooded_m": 41.697273796130787 }, "geometry": { "type": "LineString", "coordinates": [ [ -115.742165441685913, 60.858762580253703 ], [ -115.741959200000011, 60.858766499999987 ], [ -115.741425568450751, 60.858851077713652 ] ] } },
{ "type": "Feature", "properties": { "osm_id": 876365743, "name": null, "highway": "service", "flooded_m": 9.5362174290183805 }, "geometry": { "type": "LineString", "coordinates": [ [ -115.741729099999986, 60.859459899999983 ], [ -115.741679966462485, 60.859377710162342 ] ] } },
{ "type": "Feature", "properties": { "osm_id": 876365744, "name": null, "highway": "service", "flooded_m": 17.985658226856664 }, "geometry": { "type": "MultiLineString", "coordinates": [ [ [ -115.741585004483852, 60.859478019361944 ], [ -115.741729099999986, 60.859459899999983 ], [ -115.74177002148717, 60.859454756360087 ] ], [ [ -115.742140054115112, 60.859408244344735 ], [ -115.7421953, 60.8594013 ], [ -115.742269501630531, 60.859383225284233 ] ] ] } },
{ "type": "Feature", "properties": { "osm_id": 876365745, "name": null, "highway": "service", "flooded_m": 17.274037571325728 }, "geometry": { "type": "LineString", "coordinates": [ [ -115.739839505023483, 60.858013590284152 ], [ -115.7400307, 60.8580703 ], [ -115.740090622310618, 60.858105735699503 ] ] } },
{ "type": "Feature", "properties": { "osm_id": 876365746, "name": null, "highway": "service", "flooded_m": 35.119446059910473 }, "geometry": { "type": "MultiLineString", "coordinates": [ [ [ -115.7352864, 60.857459700000021 ], [ -115.7353771, 60.8576811 ], [ -115.735427460860734, 60.85770279432883 ] ], [ [ -115.735828757107782, 60.857796360013673 ], [ -115.735943981132309, 60.857804148520337 ] ] ] } },
{ "type": "Feature", "properties": { "osm_id": 876365747, "name": null, "highway": "service", "flooded_m": 284.14335082311942 }, "geometry": { "type": "MultiLineString", "coordinates": [ [ [ -115.734599200000019, 60.8597591 ], [ -115.734105700000015, 60.858952 ], [ -115.7341218, 60.8586907 ], [ -115.734234873601281, 60.858589498712298 ] ], [ [ -115.73425685347749, 60.858569826556412 ], [ -115.7344866, 60.858364199999983 ], [ -115.735023635344064, 60.857801183725833 ] ], [ [ -115.735216449364586, 60.857580582953247 ], [ -115.7352864, 60.857459700000021 ], [ -115.735296599999984, 60.857442 ], [ -115.7353288, 60.8572605 ], [ -115.735303499999986, 60.8571103 ] ] ] } },
{ "type": "Feature", "properties": { "osm_id": 876365749, "name": null, "highway": "service", "flooded_m": 33.820050065658911 }, "geometry": { "type": "MultiLineString", "coordinates": [ [ [ -115.739142669469572, 60.861868130373317 ], [ -115.739145599999986, 60.861885399999984 ], [ -115.739095190236895, 60.86192589700827 ] ], [ [ -115.739056332872892, 60.861957113238738 ], [ -115.7390383, 60.8619716 ], [ -115.738874699999982, 60.8620121 ], [ -115.73862, 60.8620582 ] ] ] } },
{ "type": "Feature", "properties": { "osm_id": 876365758, "name": null, "highway": "service", "flooded_m": 42.526229155267998 }, "geometry": { "type": "MultiLineString", "coordinates": [ [ [ -115.743284100000011, 60.8643746 ], [ -115.743083389156723, 60.864508994758218 ] ], [ [ -115.743043177856364, 60.864535919827048 ], [ -115.742854069564672, 60.864662543999536 ] ], [ [ -115.742818879004403, 60.864686106947929 ], [ -115.7427478, 60.864733699999988 ] ] ] } },
{ "type": "Feature", "properties": { "osm_id": 876365761, "name": null, "highway": "service", "flooded_m": 46.852870167496107 }, "geometry": { "type": "LineString", "coordinates": [ [ -115.747393400000021, 60.8663725 ], [ -115.747748583717964, 60.865989187935561 ] ] } },
{ "type": "Feature", "properties": { "osm_id": 876365762, "name": null, "highway": "service", "flooded_m": 56.932108202874545 }, "geometry": { "type": "LineString", "coordinates": [ [ -115.746499724001367, 60.865606081078724 ], [ -115.7459316, 60.8660356 ] ] } },
{ "type": "Feature", "properties": { "osm_id": 885314554, "name": null, "highway": "service", "flooded_m": 0.59043705070300634 }, "geometry": { "type": "LineString", "coordinates": [ [ -115.7898498, 60.8102685 ], [ -115.789839692316519, 60.810266571373482 ] ] } },
{ "type": "Feature", "properties": { "osm_id": 927934367, "name": "Lynx Dr", "highway": "residential", "flooded_m": 14.5035754723002 }, "geometry": { "type": "LineString", "coordinates": [ [ -115.759985738731302, 60.835393663968048 ], [ -115.760052400000021, 60.8354276 ], [ -115.760188839249963, 60.83547746124794 ] ] } },
{ "type": "Feature", "properties": { "osm_id": 927940731, "name": "Buffalo Dr", "highway": "unclassified", "flooded_m": 67.195074585622919 }, "geometry": { "type": "MultiLineString", "coordinates": [ [ [ -115.7648214, 60.8418159 ], [ -115.7648239, 60.841875099999989 ], [ -115.764844247475239, 60.841903437344726 ] ], [ [ -115.765711191668487, 60.842270568878881 ], [ -115.766538442023389, 60.842566286124161 ] ], [ [ -115.766719946255705, 60.842631167046449 ], [ -115.766742424055025, 60.842639201977256 ] ] ] } },
{ "type": "Feature", "properties": { "osm_id": 960838472, "name": "Hay River Highway", "highway": "primary", "flooded_m": 163.884621235917 }, "geometry": { "type": "MultiLineString", "coordinates": [ [ [ -115.787868243687953, 60.813790887410384 ], [ -115.787768538445235, 60.813917456131385 ] ], [ [ -115.787698302941706, 60.814006614461405 ], [ -115.787136404755955, 60.814719879698075 ] ], [ [ -115.787095783890848, 60.814771441887736 ], [ -115.787066165713, 60.814809037677222 ] ], [ [ -115.786785934183541, 60.815165675783192 ], [ -115.786716341015776, 60.815254839418294 ] ], [ [ -115.786709462923113, 60.815263651687275 ], [ -115.786646747458278, 60.81534400301512 ] ], [ [ -115.785859588736045, 60.816324604819137 ], [ -115.785781467102098, 60.816413690914828 ] ], [ [ -115.785745085710573, 60.816455178290497 ], [ -115.785703345031436, 60.816502776962722 ] ], [ [ -115.785552928497921, 60.816674302042713 ], [ -115.785547099579929, 60.816680948915064 ] ], [ [ -115.785312728127224, 60.816948206484973 ], [ -115.785156478308352, 60.817126377959163 ] ] ] } },
{ "type": "Feature", "properties": { "osm_id": 1096141253, "name": "Hay River Highway", "highway": "primary", "flooded_m": 36.415298577990669 }, "geometry": { "type": "MultiLineString", "coordinates": [ [ [ -115.789484877343355, 60.811957506294881 ], [ -115.789404543635328, 60.812054205626652 ] ], [ [ -115.78933679458234, 60.812135756055433 ], [ -115.789262752580541, 60.812224880871007 ] ], [ [ -115.789211958881083, 60.812286021248013 ], [ -115.789114667334374, 60.812403130372772 ] ] ] } },
{ "type": "Feature", "properties": { "osm_id": 1128434485, "name": null, "highway": "track", "flooded_m": 139.25050109726573 }, "geometry": { "type": "MultiLineString", "coordinates": [ [ [ -115.798569002469932, 60.837290471016921 ], [ -115.799311224730715, 60.837121589515526 ] ], [ [ -115.79941270218491, 60.837098499390287 ], [ -115.799496779078439, 60.837079368495743 ] ], [ [ -115.799682332939199, 60.837037147218204 ], [ -115.799792414474183, 60.837012098882681 ] ], [ [ -115.799867886312967, 60.836994925682916 ], [ -115.800551832934659, 60.836839294629222 ] ], [ [ -115.800610094938179, 60.836826036964048 ], [ -115.801311243237791, 60.836666486058149 ] ] ] } },
{ "type": "Feature", "properties": { "osm_id": 1153071308, "name": null, "highway": "service", "flooded_m": 27.753025689808521 }, "geometry": { "type": "MultiLineString", "coordinates": [ [ [ -115.7894517, 60.810739899999987 ], [ -115.789635558661715, 60.810522190324953 ] ], [ [ -115.789839143086482, 60.810281119311242 ], [ -115.7898498, 60.8102685 ] ] ] } },
{ "type": "Feature", "properties": { "osm_id": 1164747645, "name": "Hay River Highway", "highway": "primary", "flooded_m": 62.933975603633783 }, "geometry": { "type": "MultiLineString", "coordinates": [ [ [ -115.791813633980894, 60.809194915922923 ], [ -115.791521499506345, 60.809538472380687 ] ], [ [ -115.791131668547109, 60.809996909437771 ], [ -115.790980116012335, 60.810175129722865 ] ] ] } }
]
}
